Column1,name,address,Latitude,Longitude,상태
1897688,제주김만복성산점,"제주특별자치도 서귀포시 성산읍 성산등용로17번길 55, 1층 108호",33.46059,126.9299,정좌표
1900504,미르봉봉키즈빌,"제주특별자치도 서귀포시 서호중로 86, 2층 (서호동)",33.25396,126.5224,정좌표
1900508,빽다방서귀포시청점,"제주특별자치도 서귀포시 중앙로 109, 1층 (서홍동)",33.25447,126.5605,정좌표
1900536,랍다:즐겁다,"제주특별자치도 서귀포시 태평로 34-17, 2층 (호근동)",33.24413,126.526,정좌표
1900547,제이아일랜드,"제주특별자치도 서귀포시 성산읍 환해장성로 69, 1층",33.3788,126.8797,정좌표
1900821,던킨도너츠제주금호리조트점,"제주특별자치도 서귀포시 남원읍 태위로 522-12, 1층",33.27366,126.7028,정좌표
1900844,리틀포레스트,제주특별자치도 서귀포시 월평로 15 (월평동),33.24481,126.4593,정좌표
1900912,이디야커피제주중문점,"제주특별자치도 서귀포시 중문관광로 42, 1층 (색달동)",33.2549,126.4098,정좌표
1900922,CU서귀포가온점,"제주특별자치도 서귀포시 태평로512번길 1-4, 1층 (동홍동)",33.2504,126.5727,정좌표
1900927,커피에반하다서귀포올레시장점,"제주특별자치도 서귀포시 중정로73번길 8, 1층 (서귀동)",33.2488,126.5641,정좌표
1901011,소보리당로222,제주특별자치도 서귀포시 소보리당로 222 (상예동),33.26293,126.3833,정좌표
1901117,씨유서귀문부로점,"제주특별자치도 서귀포시 동홍서로 37, 1층 (동홍동)",33.25219,126.5695,정좌표
1901119,더리터중앙점,"제주특별자치도 서귀포시 중앙로 92, 1층 (서귀동)",33.25285,126.5616,정좌표
1901132,지에스25제주보목점,"제주특별자치도 서귀포시 칠십리로 458-1, 1층 (보목동)",33.24226,126.5999,정좌표
1901142,요거프레소제주성산점,"제주특별자치도 서귀포시 성산읍 한도로 32, 1층",33.46642,126.912,정좌표
1901198,GS25서귀고점,"제주특별자치도 서귀포시 중앙로 148, 1층 (동홍동)",33.25788,126.5606,정좌표
1901203,빽다방제주성산일출봉점,제주특별자치도 서귀포시 성산읍 일출로 280-4,33.46234,126.9349,정좌표
1901223,오끼416갤러리,제주특별자치도 서귀포시 남원읍 태수로358번길 3-1,33.31105,126.7223,정좌표
1901224,스타벅스서귀포DT,"제주특별자치도 서귀포시 일주서로 11, 1,2층 (강정동)",33.24952,126.5067,정좌표
1902122,GS25서귀중정점,"제주특별자치도 서귀포시 중정로 17-1, 1층 (서귀동)",33.24767,126.5584,정좌표
1902132,북카페가까이,"제주특별자치도 서귀포시 보목포로 161, 1,2층 (하효동)",33.24271,126.6176,정좌표
1902198,지에스25서귀효돈점,"제주특별자치도 서귀포시 효돈로 144, 2층 (신효동)",33.26374,126.6142,정좌표
1902208,씨유서귀포신효점,"제주특별자치도 서귀포시 효돈로123번길 1, 1층 (신효동)",33.26415,126.6119,정좌표
1902218,분식가게,"제주특별자치도 서귀포시 남원읍 태위로 673-1, 1층",33.27915,126.7185,정좌표
1902220,씨유서귀강정한내들점,"제주특별자치도 서귀포시 대청로 34, 상가동 101,102호 (강정동, 제주강정유승한내들퍼스트오션)",33.25056,126.5037,정좌표
1902230,스타벅스 제주중문DT,"제주특별자치도 서귀포시 천제연로 95, 1~2층 (색달동)",33.25507,126.4159,정좌표
1902897,리치망고 쇠소깍점,제주특별자치도 서귀포시 쇠소깍로 164 (하효동),33.25094,126.6203,정좌표
1902941,이디야커피 제주남원점,"제주특별자치도 서귀포시 남원읍 남태해안로 135, 1층",33.27825,126.7196,정좌표
1902989,GS25서귀법환점,"제주특별자치도 서귀포시 이어도로 900, 1층 (법환동)",33.23663,126.5109,정좌표
1903029,씨유제주중문오네뜨점,"제주특별자치도 서귀포시 천제연로213번길 44, 1층 (중문동)",33.25495,126.4281,정좌표
1903039,케렌시아,"제주특별자치도 서귀포시 칠십리로658번길 27-18, 1,2층 (하효동)",33.24942,126.6191,정좌표
1903081,바세츠아이스크림동홍점,"제주특별자치도 서귀포시 일주동로 8572, 1층 (동홍동)",33.25509,126.5724,정좌표
1903110,씨유서귀포송산점,제주특별자치도 서귀포시 태평로 414 (서귀동),33.24465,126.5645,정좌표
1903120,띠아모동홍점,제주특별자치도 서귀포시 동홍중앙로 64 (동홍동),33.25642,126.5722,정좌표
1903146,씨유남제주점,제주특별자치도 서귀포시 남원읍 태위로 673,33.2791,126.7183,정좌표
1903156,씨유성산신산점,제주특별자치도 서귀포시 성산읍 일주동로 5115,33.38019,126.8763,정좌표
1903176,세븐일레븐ICC점,제주특별자치도 서귀포시 중문관광로 224 (중문동),33.24129,126.4244,정좌표
1903186,놀멍쉬멍카페테리아,제주특별자치도 서귀포시 천제연로 132 (중문동),33.25268,126.4184,정좌표
1903196,네오치킨중문점,제주특별자치도 서귀포시 천제연로 242 (중문동),33.25084,126.4306,정좌표
1903206,항아리밥집,제주특별자치도 서귀포시 남원읍 태위로682번길 2,33.27903,126.7194,정좌표
1903207,씨유제주중문길점,"제주특별자치도 서귀포시 천제연로 168, 1층 (중문동)",33.25184,126.4226,정좌표
1903217,난타5000서귀포동홍점,제주특별자치도 서귀포시 태평로512번길 4 (동홍동),33.25032,126.5724,정좌표
1903224,GS25성산중앙점,제주특별자치도 서귀포시 성산읍 성산중앙로 43-1,33.4636,126.9335,정좌표
1903310,한스델리서귀포점,제주특별자치도 서귀포시 중앙로42번길 7 (서귀동),33.24828,126.5627,인근좌표
1903317,씨유제주중문점,제주특별자치도 서귀포시 중문상로 38 (중문동),33.25183,126.4257,정좌표
1903327,씨유서귀포부두점,제주특별자치도 서귀포시 칠십리로 61 (서귀동),33.24005,126.5628,정좌표
1903337,커피방듸,제주특별자치도 서귀포시 성산읍 섭지코지로 48,33.43803,126.9212,정좌표
1903365,GS25서귀동홍점,"제주특별자치도 서귀포시 동홍중앙로 50, 1층 (동홍동)",33.25507,126.5722,정좌표
1903375,씨유강정마을점,제주특별자치도 서귀포시 이어도로 579 (강정동),33.23611,126.4786,정좌표
1903390,마녀닭강정&치킨,제주특별자치도 서귀포시 중앙로 65 (서귀동),33.25048,126.5612,정좌표
1903432,씨유서귀포광장점,제주특별자치도 서귀포시 중앙로 85 (서귀동),33.25218,126.5609,정좌표
1903496,60빈스,제주특별자치도 서귀포시 태평로120번길 29-2 (호근동),33.24194,126.536,정좌표
1903648,소문난순대족발,제주특별자치도 서귀포시 중앙로42번길 22 (서귀동),33.24855,126.5639,정좌표
1903807,씨유서귀포강정점,제주특별자치도 서귀포시 신서귀로97번길 84 (강정동),33.2511,126.5045,정좌표
1903816,커피먹는고냉이,제주특별자치도 서귀포시 성산읍 신양로 103,33.43673,126.9208,정좌표
1904060,복음이네김밥만두,제주특별자치도 서귀포시 김정문화로 64 (법환동),33.2507,126.5113,정좌표
1904170,씨유 서귀포동문점,제주특별자치도 서귀포시 중동로48번길 11 (서귀동),33.2496,126.5666,정좌표
1904180,안녕좋은하루,제주특별자치도 서귀포시 천제연로 172 (중문동),33.25153,126.4228,정좌표
1904204,케이크를부탁해서귀포점,"제주특별자치도 서귀포시 중앙로 66, 1층 (서귀동)",33.25038,126.5616,정좌표
1904214,파머스커피,제주특별자치도 서귀포시 월평하원로 43-3 (월평동),33.24367,126.4571,정좌표
1904227,씨유제주동남점,제주특별자치도 서귀포시 성산읍 동류암로 48,33.44907,126.9156,정좌표
1904373,삼매봉153,제주특별자치도 서귀포시 남성중로153번길 15 (서홍동),33.24474,126.5513,정좌표
1904485,용우동서귀포점,제주특별자치도 서귀포시 이중섭로 4 (서귀동),33.24773,126.564,정좌표
1904507,베트로,제주특별자치도 서귀포시 중정로62번길 1 (서귀동),33.24764,126.5631,정좌표
1904520,서귀포 피자클래스,제주특별자치도 서귀포시 일주동로 8650 (동홍동),33.25402,126.5641,정좌표
1904521,씨유서귀포정방점,제주특별자치도 서귀포시 태평로 463 (서귀동),33.24765,126.5687,정좌표
1904531,숑,제주특별자치도 서귀포시 남원읍 공천포로 91,33.26634,126.6428,정좌표
1904584,원테이블,제주특별자치도 서귀포시 법환로 14 (법환동),33.23681,126.5138,정좌표
1904587,불로초장터,제주특별자치도 서귀포시 중앙로42번길 22 (서귀동),33.24855,126.5639,정좌표
1904634,김밥천국서귀포점,제주특별자치도 서귀포시 중정로 60 (서귀동),33.2476,126.5627,정좌표
1904662,씨유제주위미점,제주특별자치도 서귀포시 남원읍 태위로 200,33.27491,126.6687,정좌표
1904672,명랑쌀핫도그동홍점,제주특별자치도 서귀포시 태평로537번길 49 (동홍동),33.25269,126.57,정좌표
1904700,한아름분식,제주특별자치도 서귀포시 중앙로 154 (서홍동),33.2583,126.5602,정좌표
1904704,세븐일레븐서귀포스카이힐점,제주특별자치도 서귀포시 일주서로 1124 (상예동),33.26444,126.3932,정좌표
1904714,이디야커피전문점,제주특별자치도 서귀포시 일주동로 9209 (법환동),33.24834,126.5091,정좌표
1904762,씨유서귀토평점,제주특별자치도 서귀포시 중산간동로 7738 (토평동),33.26819,126.5895,정좌표
1904772,베스킨라빈스,제주특별자치도 서귀포시 일주동로 8674-1 (동홍동),33.2535,126.5617,정좌표
1907252,카페50번길,"제주특별자치도 서귀포시 토평로50번길 23, 1층 (토평동)",33.26824,126.59,정좌표
1907256,놀숲서귀포신시가지점,"제주특별자치도 서귀포시 대청로25번길 4, 4층 (강정동)",33.2528,126.5027,정좌표
1907264,바끄레카페,"제주특별자치도 서귀포시 중앙로 105, 별관 1층 (서홍동)",33.2542,126.5602,정좌표
1907272,씨유서귀태흥점,제주특별자치도 서귀포시 남원읍 일주동로 6745,33.29295,126.7575,정좌표
1907282,세븐일레븐밸류호텔점,"제주특별자치도 서귀포시 김정문화로 51, 제이에스밸류호텔 B동 지하1층 101호 (법환동)",33.25142,126.5103,정좌표
1907341,죽이야기서귀포점,"제주특별자치도 서귀포시 중앙로71번길 7, 1층 (서귀동)",33.25072,126.5607,정좌표
1907358,씨유제주섭지코지점,제주특별자치도 서귀포시 성산읍 신양로 114,33.4364,126.9217,정좌표
1907534,세븐일레븐 서귀포송산점,제주특별자치도 서귀포시 칠십리로 139 (서귀동),33.24405,126.5687,정좌표
1907544,메가커피중문점,"제주특별자치도 서귀포시 천제연로 182, 1층 (중문동)",33.25161,126.4239,정좌표
1907554,쿠티커피,제주특별자치도 서귀포시 성산읍 성산중앙로 43,33.46366,126.9334,정좌표
1907618,씨유서귀위미동백점,"제주특별자치도 서귀포시 남원읍 태위로 369, 1층",33.2755,126.6866,정좌표
1907628,유구레,제주특별자치도 서귀포시 중문관광로 345 (중문동),33.25103,126.4311,정좌표
1907629,세컨드뮤지오,"제주특별자치도 서귀포시 흙담솔로 117, 2층 (서홍동)",33.25703,126.5477,정좌표
1907631,씨유서귀강정천점,"제주특별자치도 서귀포시 이어도로 638, 1층 (강정동)",33.23387,126.4843,정좌표
1907641,에브리데이,"제주특별자치도 서귀포시 동홍동로 37, 1층 (동홍동)",33.25836,126.5748,정좌표
1907643,GS25신서귀포점,"제주특별자치도 서귀포시 신서귀로97번길 45, 1층 (강정동)",33.25456,126.5072,정좌표
1907653,놀멍쉬멍고르멍,제주특별자치도 서귀포시 현청로 51 (서홍동),33.26574,126.5559,정좌표
1907656,제주인화찐빵,제주특별자치도 서귀포시 동홍로 19 (서귀동),33.25032,126.5676,정좌표
1907664,씨유서귀강정이어도로점,"제주특별자치도 서귀포시 이어도로 793, 1층 (강정동)",33.23663,126.5001,정좌표
1907705,오는정김밥,제주특별자치도 서귀포시 동문동로 2 (서귀동),33.24962,126.5676,정좌표
1915973,엔제리너스 천지연폭포점,제주특별자치도 서귀포시 남성중로 2-3 (서홍동),33.24337,126.5597,정좌표
1915996,뽕뽕식당,"제주특별자치도 서귀포시 중앙로42번길 33, 1층 (서귀동)",33.24906,126.565,정좌표
1916021,롯데리아서귀포점,제주특별자치도 서귀포시 중정로61번길 9 (서귀동),33.24867,126.5627,정좌표
1916123,레드피아노,"제주특별자치도 서귀포시 성산읍 일주동로 5185, 가동 1층",33.37461,126.8726,정좌표
1916161,카페꿈나다,"제주특별자치도 서귀포시 효돈순환로 441, 2층 (신효동)",33.27159,126.6074,정좌표
1916164,지에스25성산고성점,"제주특별자치도 서귀포시 성산읍 고성오조로 73, 1층",33.45022,126.9144,정좌표
1916184,파스쿠찌제주중문점,"제주특별자치도 서귀포시 천제연로232번길 15, 1층 (중문동)",33.25037,126.4302,정좌표
1916222,씨유서귀포남원길점,제주특별자치도 서귀포시 남원읍 태위로 481,33.27514,126.6986,정좌표
1916232,카페바르,제주특별자치도 서귀포시 성산읍 환해장성로 941,33.43486,126.9163,정좌표
1916414,카페테리아구상나무,"제주특별자치도 서귀포시 산록남로 2847-37, 1층 (상효동)",33.30722,126.586,정좌표
1916670,하효통닭치킨,제주특별자치도 서귀포시 중정로73번길 4-1 (서귀동),33.24849,126.5642,정좌표
1916682,씨유서귀예래해안로점,"제주특별자치도 서귀포시 예래해안로 550, 1층 (상예동)",33.25564,126.4018,정좌표
1916692,도미노피자제주서귀포점,제주특별자치도 서귀포시 신서귀로 118 (서호동),33.25893,126.5106,정좌표
1916779,GS25서귀소원점,"제주특별자치도 서귀포시 중앙로 183, 1층 (서홍동)",33.261,126.559,정좌표
1916827,지에스25서귀동변점,"제주특별자치도 서귀포시 중앙로48번길 42, 1층 (서귀동)",33.25009,126.5657,정좌표
1916858,지에스25동홍중앙점,"제주특별자치도 서귀포시 태평로 509, 1층 101호 (동홍동)",33.25068,126.5718,정좌표
1916868,지에스25서귀광장점,"제주특별자치도 서귀포시 일주동로 8678, 1층 (동홍동)",33.25344,126.5612,정좌표
1916878,씨유서귀신북로점,"제주특별자치도 서귀포시 신서로98번길 74, 지하1층 (서호동)",33.25839,126.5136,정좌표
1916888,부티크카페온블루,제주특별자치도 서귀포시 성산읍 온평관전로 94,33.41057,126.9078,정좌표
1917004,세븐일레븐서귀포오션팰리스점,"제주특별자치도 서귀포시 중앙로 14, 102호 (서귀동)",33.24596,126.5623,정좌표
1917014,버거나라남원점,제주특별자치도 서귀포시 남원읍 태위로 668,33.27867,126.7179,정좌표
1917018,캐롤,"제주특별자치도 서귀포시 효돈로 137-1, 1층 (신효동)",33.26413,126.6137,정좌표
1917064,GS25쇠소깍점,제주특별자치도 서귀포시 쇠소깍로 151-8 (하효동),33.2505,126.6208,정좌표
1917112,세븐일레븐서귀포고성점,제주특별자치도 서귀포시 성산읍 고성동서로 66,33.45052,126.9144,정좌표
1917156,고봉민김밥인서귀포강정점,"제주특별자치도 서귀포시 대청로25번길 4, 1층 (강정동, 102호)",33.2528,126.5027,정좌표
1917221,지에스25서귀엘지점,"제주특별자치도 서귀포시 중앙로 45, 1층 (서귀동)",33.2487,126.5615,정좌표
1917231,씨유중문일주서로점,제주특별자치도 서귀포시 일주서로 962 (색달동),33.2583,126.408,정좌표
1917241,씨유제주성산중앙로점,제주특별자치도 서귀포시 성산읍 성산중앙로 44,33.46359,126.9338,정좌표
1917261,씨유서귀포효돈중앙점,"제주특별자치도 서귀포시 과원동로 3, 102동 1층 101호 (하효동)",33.2611,126.6205,정좌표
1917271,슬아네가게,"제주특별자치도 서귀포시 남원읍 태위로 773-19, 1층",33.28379,126.7276,정좌표
1917285,씨유서귀포공업단지점,제주특별자치도 서귀포시 토평공단로 112 (토평동),33.29195,126.5844,정좌표
1917295,세븐일레븐성산일출점,"제주특별자치도 서귀포시 성산읍 일출로 284, 1층",33.46275,126.9351,정좌표
1917315,에그드랍제주중문점,"제주특별자치도 서귀포시 천제연로 198, 1층 108호 (중문동)",33.25146,126.4258,정좌표
1917439,씨유서귀포월드컵점,"제주특별자치도 서귀포시 명동로 19-1, CU 1층 (서귀동)",33.24748,126.5641,정좌표
1917449,세븐일레븐서귀포엉또폭포점,"제주특별자치도 서귀포시 중산간서로 184, 1층 (강정동)",33.26016,126.4916,정좌표
1917459,스터디카페꿈,"제주특별자치도 서귀포시 동홍서로112번길 1 (동홍동, 별내린주택)",33.25889,126.5697,정좌표
1917460,달콤한계단,"제주특별자치도 서귀포시 신서로 66, 지하1층 (강정동)",33.25582,126.5055,정좌표
1917501,씨유서귀포비석거리점,"제주특별자치도 서귀포시 일주동로 8493, 1층 (토평동)",33.25566,126.5808,정좌표
1917511,카페느루,"제주특별자치도 서귀포시 일주동로 8104, 1층 (하효동)",33.26237,126.6207,정좌표
1917521,더벤티동홍점,"제주특별자치도 서귀포시 동홍중앙로 70, 1층 (동홍동)",33.25677,126.5723,정좌표
1917531,청춘당꽈배기성산점,"제주특별자치도 서귀포시 성산읍 일주동로 4754, 1층 101호",33.40625,126.8965,정좌표
1917621,카페월든,"제주특별자치도 서귀포시 하원북로35번길 21, C동 1층 (하원동)",33.26756,126.4591,정좌표
1917627,율커피,"제주특별자치도 서귀포시 남원읍 태위로 507, 1층",33.27527,126.7014,정좌표
1917644,봉김밥.토스트,"제주특별자치도 서귀포시 토평로50번길 45, 1층 (토평동)",33.26628,126.5904,정좌표
1917670,지에스25서귀홍중점,"제주특별자치도 서귀포시 홍중로 57, 1층 (서홍동)",33.25768,126.5566,정좌표
1917682,더캠프PC서귀포본점,"제주특별자치도 서귀포시 김정문화로41번길 5-2, 3층 301~304호 (법환동)",33.25209,126.5089,정좌표
1917686,카페달곰,"제주특별자치도 서귀포시 이중섭로 4, 1층 (서귀동)",33.24773,126.564,정좌표
1917690,지에스중문마을점,"제주특별자치도 서귀포시 천제연로207번길 18, 1층 (중문동)",33.25311,126.427,정좌표
1917700,카페록키,"제주특별자치도 서귀포시 일주동로 9117, 1층 (법환동)",33.24693,126.5188,정좌표
1917793,단단한끼,"제주특별자치도 서귀포시 중앙로 113, 1층 102호 (서홍동)",33.2548,126.5605,정좌표
1917795,에그드랍서귀포중앙점,제주특별자치도 서귀포시 중앙로 72 (서귀동),33.25107,126.5615,정좌표
1917910,랜딩커피,"제주특별자치도 서귀포시 성산읍 신양로122번길 45-1, 1,2층",33.43551,126.9189,정좌표
1919030,카페더라이트,"제주특별자치도 서귀포시 성산읍 한도로 269, 1,2층",33.46563,126.936,정좌표
1922966,지에스25서귀오거리점,"제주특별자치도 서귀포시 중정로91번길 46, GS25 (서귀동)",33.25134,126.5625,정좌표
1922976,제주흑돈만두강정점,제주특별자치도 서귀포시 이어도로 578-1 (강정동),33.23593,126.4784,정좌표
1922980,세븐일레븐태흥리점,"제주특별자치도 서귀포시 남원읍 일주동로 6793, 1층",33.29037,126.7533,정좌표
1922986,포에스트,"제주특별자치도 서귀포시 법환상로 20, F동 1층 102호 (법환동, 유일헤리지움)",33.24167,126.5148,정좌표
1923038,세븐일레븐서귀포상예동점,제주특별자치도 서귀포시 일주서로 1229 (상예동),33.26389,126.3817,정좌표
1923046,"안녕,소깍",제주특별자치도 서귀포시 남원읍 하례로 98,33.25866,126.6247,정좌표
1923073,제주커피,"제주특별자치도 서귀포시 성산읍 서성일로 913, 1층",33.44015,126.877,정좌표
1923147,블루미270,"제주특별자치도 서귀포시 남원읍 한신로 268, 1층",33.3122,126.719,정좌표
1923160,달페이지,"제주특별자치도 서귀포시 색달로64번길 51, 1층 (색달동)",33.25976,126.4139,정좌표
1923235,카페아오오,"제주특별자치도 서귀포시 성산읍 환해장성로 75, 1,2층",33.37909,126.88,정좌표
1923957,하영쓰,"제주특별자치도 서귀포시 중앙로 167, 1층 (서홍동)",33.25959,126.5593,정좌표
1923967,GS25서귀유포리아점,"제주특별자치도 서귀포시 서호중앙로 55, 유포리아 지식산업센터 D동 1층 101-1호 (서호동)",33.25163,126.5185,정좌표
1923971,달콤방앗간,"제주특별자치도 서귀포시 태평로 389, 1층 (서귀동)",33.2446,126.5622,정좌표
1923995,투데이케이쿠,"제주특별자치도 서귀포시 천지연로 21, 1층 (서귀동)",33.24178,126.5639,정좌표
1924021,와플칸동홍점,"제주특별자치도 서귀포시 동홍중앙로 55, 1층 (동홍동)",33.25552,126.5718,정좌표
1924042,피자탑성산점,"제주특별자치도 서귀포시 성산읍 성산등용로17번길 55, 리치유클래시아 1층 100호",33.46059,126.9299,정좌표
1924136,늘보네커피,제주특별자치도 서귀포시 성산읍 한도로 82,33.46824,126.917,정좌표
1924190,테이블앤데스크,"제주특별자치도 서귀포시 남원읍 태위로679번길 10, 1층",33.28006,126.719,정좌표
1924726,카페랑스,"제주특별자치도 서귀포시 동홍로 192, 101호 (동홍동)",33.26563,126.5682,정좌표
1924731,서귀포카페파바쎄,제주특별자치도 서귀포시 중정로91번길 35 (서귀동),33.25055,126.5633,정좌표
1924779,르브아커피,"제주특별자치도 서귀포시 남원읍 태위로266번길 15, 1층",33.27404,126.6764,정좌표
1924806,세븐일레븐서귀포동백마을점,"제주특별자치도 서귀포시 남원읍 한신로 543, 1층",33.31907,126.7462,정좌표
1924814,성산봄죽칼국수,"제주특별자치도 서귀포시 성산읍 해맞이해안로 2725, 1층",33.47169,126.9171,정좌표
1927310,씨유서귀여고점,"제주특별자치도 서귀포시 태평로 95, 104동 B04호 (호근동, 서귀포의 아침)",33.24454,126.5336,정좌표
1927320,달리는커피서귀포중앙점,"제주특별자치도 서귀포시 중앙로59번길 6, 1층 (서귀동)",33.25003,126.5609,정좌표
1927353,세븐일레븐서귀포아랑조을거리점,"제주특별자치도 서귀포시 중앙로71번길 15-2, 1층 (서귀동)",33.25044,126.5597,정좌표
1927363,섶섬한그릇,"제주특별자치도 서귀포시 보목로64번길 60, 1,2층 (보목동)",33.23635,126.5981,정좌표
1927416,나눔한식,"제주특별자치도 서귀포시 일주동로 8767, 1층 (서홍동)",33.25198,126.5518,정좌표
1927422,컴포즈커피서귀포올레시장점,제주특별자치도 서귀포시 중정로 66-1 (서귀동),33.24768,126.5634,정좌표
1927432,보보,"제주특별자치도 서귀포시 남원읍 태위로 87, 1층",33.27444,126.6568,정좌표
1927448,뷰커피,"제주특별자치도 서귀포시 성산읍 성산중앙로64번길 5-4, 3층",33.46438,126.9358,정좌표
1927536,뮤지엄카페,"제주특별자치도 서귀포시 중산간서로 1403, 2층 (상예동)",33.27855,126.3695,정좌표
1927544,씨유서귀포동문중앙점,"제주특별자치도 서귀포시 동홍로 13, 1층 (서귀동)",33.24983,126.5676,정좌표
1927554,퍼스트스퀘어,"제주특별자치도 서귀포시 일주동로 8694, 2층 (서홍동)",33.2532,126.5595,정좌표
1927556,더벤티서홍점,"제주특별자치도 서귀포시 홍중로 43, 1층 (서홍동)",33.25647,126.5574,정좌표
1927573,청춘감성쌀핫도그중문점,"제주특별자치도 서귀포시 천제연로 223-1, 1층 (중문동)",33.25168,126.4286,정좌표
1927587,여행가게,제주특별자치도 서귀포시 남원읍 태위로 929,33.28617,126.7445,정좌표
1927633,지에스25서귀서홍점,"제주특별자치도 서귀포시 홍중로 82, 1층 (서홍동)",33.25983,126.5558,정좌표
1927636,이매커피,"제주특별자치도 서귀포시 신서귀로51번길 32, 1층 (강정동)",33.25463,126.5081,정좌표
1927638,씨유성산시흥점,"제주특별자치도 서귀포시 성산읍 일주동로 3954, 1층",33.47283,126.9012,정좌표
1927658,썬샤인워크,"제주특별자치도 서귀포시 소보리당로 40-4, 1층 (상예동)",33.24806,126.3893,정좌표
1927716,제이문카페,"제주특별자치도 서귀포시 천제연로 172-3, 2층 (중문동)",33.25156,126.4232,정좌표
1927944,파스쿠찌서귀포일호광장점,"제주특별자치도 서귀포시 서문로 1, 1,2층 (서귀동)",33.25224,126.5608,정좌표
1928095,던킨도너츠제주한화아쿠아,"제주특별자치도 서귀포시 성산읍 섭지코지로 95, Aqua Planet Jeju 1층",33.43298,126.9278,정좌표
1928115,투썸플레이스제주쇠소깍점,"제주특별자치도 서귀포시 쇠소깍로 134, 2층 (하효동)",33.25224,126.6226,정좌표
1928415,블루마운틴커피랜드,"제주특별자치도 서귀포시 성산읍 중산간동로 4255, 1층",33.37975,126.8377,정좌표
1928541,씨유성산수산점,"제주특별자치도 서귀포시 성산읍 서성일로 908, 1층",33.43908,126.8769,정좌표
1928591,옥분상회,제주특별자치도 서귀포시 남원읍 남한로 14,33.28024,126.7179,정좌표
1928650,카페봄봄예래점,제주특별자치도 서귀포시 소보리당로164번길 63 (상예동),33.26396,126.3845,정좌표
1928669,오돈꼬치,제주특별자치도 서귀포시 중정로73번길 17 (서귀동),33.24967,126.5637,정좌표
1928946,피자포람수다,"제주특별자치도 서귀포시 성산읍 서성일로 872-18, 1층 102호",33.43822,126.873,정좌표
1928988,세븐일레븐서귀포의귀점,제주특별자치도 서귀포시 남원읍 의귀로 103,33.31009,126.7165,정좌표
1928990,그린무드,"제주특별자치도 서귀포시 중산간서로 822, 1층 (중문동)",33.26287,126.4276,정좌표
1929494,한남307,제주특별자치도 서귀포시 남원읍 한신로 55,33.31373,126.6986,정좌표
1929602,할렘버거,제주특별자치도 서귀포시 남원읍 서의로154번길 69,33.29958,126.7133,정좌표
1929653,캘리소프트서브올레시장점,"제주특별자치도 서귀포시 중앙로54번길 16, 1층 (서귀동)",33.24949,126.5624,정좌표
1929747,캘리소프트서브성산일출봉점,"제주특별자치도 서귀포시 성산읍 일출로 284-4, 1층",33.46271,126.9352,정좌표
1929903,컴포즈신시가지점,"제주특별자치도 서귀포시 중산간동로 8380, 1층 (서호동)",33.2614,126.5213,인근좌표
1929923,꿀맛,"제주특별자치도 서귀포시 막숙포로 95, 1층 (법환동)",33.23376,126.5124,정좌표
1929998,망고하이,"제주특별자치도 서귀포시 일주서로 972, 1,2층 (색달동)",33.25822,126.4069,정좌표
1930169,놀숲서귀포중앙점,"제주특별자치도 서귀포시 중앙로 35, 3층 (서귀동)",33.24778,126.5616,정좌표
1930171,색놀이터제주,"제주특별자치도 서귀포시 말질로 147-1, 1층 (강정동)",33.23825,126.4799,정좌표
1930173,봄봄회수점,"제주특별자치도 서귀포시 전가로 1, 1층 (회수동)",33.26324,126.4449,정좌표
1930181,에그박스제주성산점,"제주특별자치도 서귀포시 성산읍 고성동서로56번길 18, 1층",33.44979,126.9147,정좌표
1930207,그리젠,"제주특별자치도 서귀포시 이어도로 377, 1층 (월평동)",33.24267,126.4595,정좌표
1930234,카페봄봄서홍점,"제주특별자치도 서귀포시 홍중로 52, 1층 (서홍동)",33.25728,126.5573,정좌표
1930236,미미탕후루,"제주특별자치도 서귀포시 중정로61번길 14, 1층 (서귀동)",33.24903,126.5629,정좌표
1930246,카페앤유,"제주특별자치도 서귀포시 태평로 119-1, 2층,옥상층 (호근동)",33.24422,126.5355,인근좌표
1930390,제주카펜터,"제주특별자치도 서귀포시 중산간서로356번길 42, 1층 (도순동)",33.26263,126.4751,정좌표
1930439,어느멋진날,"제주특별자치도 서귀포시 남원읍 위미해안로 97, 1층",33.26875,126.6546,정좌표
1930471,빽다방서귀포올레중앙점,제주특별자치도 서귀포시 중정로61번길 19 (서귀동),33.24949,126.5626,정좌표
1930514,파프리카(paprika),"제주특별자치도 서귀포시 신서로32번길 10, 지1층 (강정동)",33.25244,126.5057,정좌표
1930516,씨유제주빛의벙커점,"제주특별자치도 서귀포시 성산읍 서성일로 1181, 1층",33.44618,126.9047,정좌표
1930522,윤꽈배기,"제주특별자치도 서귀포시 천제연로 214, 1층 (중문동)",33.25143,126.4275,정좌표
1930580,세븐일레븐서귀포토평사거리점,제주특별자치도 서귀포시 516로 143 (토평동),33.26592,126.5851,정좌표
1930581,카페물썹,"제주특별자치도 서귀포시 성산읍 신천동로 130-29, 2층",33.3521,126.8653,정좌표
1930643,세븐일레븐서귀포삼달점,제주특별자치도 서귀포시 성산읍 삼달로 190,33.37402,126.8494,정좌표
1930663,유디에이(UDA),"제주특별자치도 서귀포시 속골로 13-7, 1,2층 (호근동)",33.24134,126.5276,인근좌표
1930735,두끼서귀포점,"제주특별자치도 서귀포시 중앙로54번길 14, 2층 (서귀동)",33.24946,126.5623,정좌표
1930771,고성리안,제주특별자치도 서귀포시 성산읍 고성동서로 67,33.45078,126.9143,정좌표
1930801,씨유성산신양점,"제주특별자치도 서귀포시 성산읍 신양로 81, 1층",33.43648,126.9183,정좌표
1930923,에이바우트커피토평점,"제주특별자치도 서귀포시 516로 73, 1층 (토평동)",33.26069,126.581,정좌표
1931067,신전떡볶이성산점,"제주특별자치도 서귀포시 성산읍 동류암로 52-1, 1층",33.44928,126.9153,정좌표
1931167,노리파크서귀포점,"제주특별자치도 서귀포시 516로 40, 2층 (토평동)",33.25757,126.5818,정좌표
1931177,카페아띠,제주특별자치도 서귀포시 일주서로 332-3 (도순동),33.25301,126.4732,정좌표
1931226,씨유서귀고근산점,"제주특별자치도 서귀포시 중산간동로 8442, 1층 (서호동)",33.26069,126.5146,정좌표
1931236,제주처럼,"제주특별자치도 서귀포시 동홍로 351, 1층 (동홍동)",33.27848,126.5649,정좌표
1931238,도넛포레스트,"제주특별자치도 서귀포시 흙담솔로 26, 1층 (서홍동)",33.26028,126.5565,정좌표
1931249,지에스25제주성산일출점,"제주특별자치도 서귀포시 성산읍 일출로 264-1, 1층",33.4613,126.9343,정좌표
1931317,호끌랑,제주특별자치도 서귀포시 장수로 98 (서홍동),33.25632,126.5575,정좌표
1931319,맨도롱힐링카페,"제주특별자치도 서귀포시 중앙로195번길 22, 1층 (서홍동)",33.26205,126.5566,정좌표
1931321,19티성산일출봉점,"제주특별자치도 서귀포시 성산읍 일출로 264-1, 1층 2호",33.4613,126.9343,정좌표
1931333,씨유서귀포효돈점,"제주특별자치도 서귀포시 일주동로 8092, 1층 (하효동)",33.26312,126.6215,정좌표
1931413,카페봄봄서귀중앙점,"제주특별자치도 서귀포시 중앙로 65, 1층 (서귀동)",33.25048,126.5612,정좌표
1931417,쇠소깍산물관광농원,"제주특별자치도 서귀포시 남원읍 하례로 90, 1층",33.25787,126.6247,정좌표
1931472,던킨서귀포동홍점,"제주특별자치도 서귀포시 동홍중앙로 77, 1층 (동홍동)",33.25751,126.5718,정좌표
1931482,아수라김밥,제주특별자치도 서귀포시 성산읍 일주동로 4754,33.40625,126.8965,정좌표
1931622,요거트소랑,"제주특별자치도 서귀포시 신서로48번길 31, 명성 클리닉 빌딩 1층 101호 (강정동)",33.25358,126.5086,정좌표
1931741,워니도넛,"제주특별자치도 서귀포시 효돈로 135-1, 1층 (신효동)",33.26421,126.6135,정좌표
1931777,던킨서귀포혁신점,"제주특별자치도 서귀포시 신서로48번길 31, 1층 103호 (강정동)",33.25358,126.5086,정좌표
1931825,제주빵앗간,"제주특별자치도 서귀포시 천제연로207번길 7, 더프라임시티 1층 104호 (중문동)",33.25247,126.4266,정좌표
1931838,PinPin(핀핀),"제주특별자치도 서귀포시 장수로 87, 1층 (서홍동)",33.25598,126.5586,정좌표
1931844,신전떡볶이중문점,"제주특별자치도 서귀포시 중문관광로301번길 3, 1층 101호 (대포동, 중문오션힐스)",33.24704,126.4292,정좌표
1931996,메가커피제주동홍중앙점,제주특별자치도 서귀포시 태평로 488 (동홍동),33.24897,126.5709,정좌표
1932031,그린샐러드&샌드위치,"제주특별자치도 서귀포시 서호중앙로 55, E동 지3층 B3-112호 (서호동)",33.25163,126.5185,정좌표
1932061,알로하(ALOHA),"제주특별자치도 서귀포시 남원읍 남조로 162-2, C동 1층",33.2939,126.7224,정좌표
1932076,이디야위미점,"제주특별자치도 서귀포시 남원읍 태위로 88, 1층",33.27414,126.6568,정좌표
1932087,불쑥봄,제주특별자치도 서귀포시 법화로10번길 10-4 (하원동),33.2557,126.4597,정좌표
1932102,제주소담,"제주특별자치도 서귀포시 막숙포로 150, 1층 (법환동)",33.23148,126.5074,정좌표
1932140,카페쉬머,"제주특별자치도 서귀포시 서호중로 80, 1,2층 (서호동)",33.25403,126.5218,정좌표
1932178,샐러든든,제주특별자치도 서귀포시 동홍중앙로66번길 22-7 (동홍동),33.25591,126.5747,정좌표
1932181,GS25제주아쿠아플라넷,"제주특별자치도 서귀포시 성산읍 섭지코지로 95, 2층",33.43298,126.9278,정좌표
1932277,앤드플(ANDFLE),"제주특별자치도 서귀포시 서호중로 102, 2층 (서호동)",33.25406,126.5239,정좌표
1932311,Woody glade(우디글레이드),"제주특별자치도 서귀포시 솔동산로 26-6, 1층 (서귀동)",33.24272,126.5632,정좌표
1932320,봄봄법환점,"제주특별자치도 서귀포시 이어도로 920, 1층 (법환동)",33.23748,126.5128,정좌표
1932328,씨유서귀위미항점,"제주특별자치도 서귀포시 남원읍 태위로 88, 1층",33.27414,126.6568,정좌표
1932338,오리프,제주특별자치도 서귀포시 남원읍 태위로 255,33.27541,126.6743,정좌표
1932390,씨유성산포항여객터미널점,"제주특별자치도 서귀포시 성산읍 성산등용로 130-21, 1층",33.47293,126.9345,정좌표
1932410,세븐일레븐서귀포동홍로점,"제주특별자치도 서귀포시 동홍로99번길 9, 1층 (동홍동)",33.25733,126.5676,정좌표
1932413,카페와일드가든,"제주특별자치도 서귀포시 칠십리로 199, 1,2층 (동홍동)",33.24683,126.5739,정좌표
1932425,네모샌드위치,"제주특별자치도 서귀포시 서호중앙로 55, Ezone동 지2층 B-2-113-1호 (서호동)",33.25163,126.5185,정좌표
1932435,애니커피하우스,제주특별자치도 서귀포시 동문로 10 (서귀동),33.25191,126.5622,정좌표
1932448,cu서귀호근로점,제주특별자치도 서귀포시 중산간동로 8351 (호근동),33.26107,126.5246,정좌표
1932458,제주호랭이성산점,"제주특별자치도 서귀포시 성산읍 일출로 274-1, 2층",33.46208,126.9347,정좌표
1932926,지에스25서귀서문로점,"제주특별자치도 서귀포시 서문로 8, 1층 (서귀동)",33.25203,126.56,정좌표
1932936,씨유중문대림점,"제주특별자치도 서귀포시 중문상로82번길 16, 1층 101호 (중문동)",33.25456,126.4291,정좌표
1932946,서귀포쑥보리빵,제주특별자치도 서귀포시 장수로 72 (서홍동),33.25624,126.5602,정좌표
1932957,CU하효중앙점,제주특별자치도 서귀포시 효돈순환로 252 (하효동),33.25693,126.6173,정좌표
1932967,카페숲숲,"제주특별자치도 서귀포시 보목로64번길 80, 2층 (보목동)",33.23703,126.5958,인근좌표
1933022,봄뜨랑,"제주특별자치도 서귀포시 성산읍 고성동서로56번길 15, 1층",33.44996,126.9146,정좌표
1933066,씨유서귀대포마을점,제주특별자치도 서귀포시 대포중앙로 92 (대포동),33.24307,126.4317,정좌표
1933089,롯데리아하나로제주성산점,"제주특별자치도 서귀포시 성산읍 일주동로 4282, 성산일출봉농협하나로마트 1층",33.44625,126.9116,정좌표
1933225,에이바우트커피올레시장점,"제주특별자치도 서귀포시 중정로62번길 4, 1층 (서귀동)",33.24737,126.5628,정좌표
1933340,플라이오조,제주특별자치도 서귀포시 성산읍 오조로85번길 44,33.46101,126.9109,정좌표
1933524,지에스25성산동남점,"제주특별자치도 서귀포시 성산읍 고성오조로 49, 1층",33.44802,126.9149,정좌표
1933596,씨유성산온평점,"제주특별자치도 서귀포시 성산읍 온평애향로 2, 1층",33.40723,126.8976,정좌표
1933616,카페논짓물,제주특별자치도 서귀포시 예래해안로 253 (하예동),33.23669,126.3886,정좌표
1933628,세븐일레븐서귀포강정점,"제주특별자치도 서귀포시 신서귀로97번길 87, 1층 101호 (강정동, 대림 제주 서호 연립주택)",33.25114,126.5065,정좌표
1933634,인터뷰,"제주특별자치도 서귀포시 중산간동로 8353, 2층 (서호동)",33.2611,126.5242,정좌표
1933682,파스쿠찌서귀포신시가지점,"제주특별자치도 서귀포시 김정문화로27번길 10-1, 1,2층 (강정동)",33.25278,126.508,정좌표
1933740,제주의봄,"제주특별자치도 서귀포시 신북로 16, 1층 (서호동)",33.25834,126.5127,정좌표
1933757,시간당킬로미터,"제주특별자치도 서귀포시 신동로67번길 11, 1층 (서호동)",33.25486,126.5122,정좌표
1933779,투썸플레이스서귀포신시가지점,"제주특별자치도 서귀포시 신서귀로 31, 2.3층 (법환동)",33.25182,126.5105,정좌표
1933897,지에스25법환포구점,제주특별자치도 서귀포시 막숙포로 66 (법환동),33.2357,126.5147,정좌표
1933990,사하커피,제주특별자치도 서귀포시 성산읍 산성효자로 75,33.44816,126.906,정좌표
1934056,오또도넛서귀점,"제주특별자치도 서귀포시 부두로 16, 1층 (서귀동)",33.24382,126.5651,정좌표
1934190,세븐일레븐강정천점,제주특별자치도 서귀포시 이어도로 685-1 (강정동),33.23474,126.4891,정좌표
1934200,제주흑돈만두중문,"제주특별자치도 서귀포시 천제연로 179, 1층 (중문동)",33.25202,126.4239,정좌표
1934214,컴포즈커피서귀포성산점,"제주특별자치도 서귀포시 성산읍 일주동로 4229, 1층",33.45093,126.9122,정좌표
1934248,워터라이프,"제주특별자치도 서귀포시 서호남로32번길 10-4, 1층 (서호동)",33.24963,126.5152,정좌표
1934271,송정동핫도그서귀포점,"제주특별자치도 서귀포시 이중섭로 5-1, 1층 (서귀동)",33.2477,126.5643,정좌표
1934346,어니스트밀크본점,"제주특별자치도 서귀포시 성산읍 중산간동로 3147-7, 2층",33.45041,126.8719,정좌표
1934886,세븐일레븐노블휘닉스점,"제주특별자치도 서귀포시 태평로 505, 1층 101호 (동홍동, 가나노블휘닉스)",33.25021,126.5716,정좌표
1934897,씨유서귀중앙로점,"제주특별자치도 서귀포시 중앙로72번길 45-2, 1층 (서귀동)",33.2525,126.5657,정좌표
1934900,씨유서귀포중앙점,제주특별자치도 서귀포시 동문로 22 (서귀동),33.25124,126.5631,정좌표
1934914,에이바우트커피뷰강정점,제주특별자치도 서귀포시 선반로65번길 37-31 (강정동),33.23689,126.4985,정좌표
1935011,지에스25서귀비석거리점,제주특별자치도 서귀포시 일주동로 8541 (동홍동),33.25453,126.5756,정좌표
1935021,하은이네손만두김밥,"제주특별자치도 서귀포시 천제연로 223, 1층 (중문동)",33.25162,126.4285,정좌표
1935055,씨유서귀라메르점,"제주특별자치도 서귀포시 중정로5번길 15, 1층 101호 (서귀동)",33.24867,126.5578,정좌표
1935064,지에스25서귀파인힐점,"제주특별자치도 서귀포시 홍중로 119-2, 602동 204호 (서홍동, 서강파인힐6차)",33.26365,126.5552,정좌표
1935071,한옥마루카페,"제주특별자치도 서귀포시 성산읍 한도로 269-23, 부속동 1층",33.46758,126.9359,정좌표