Column1,name,address,Latitude,Longitude,상태
1469461,낮에정식밤에갈비,제주특별자치도 제주시 한림읍 한림상로 158,33.4123,126.2689,정좌표
1469493,생고기통김치찌개,제주특별자치도 제주시 한림읍 한림로5길 11,33.41353,126.2609,정좌표
1469539,다람쥐식탁,"제주특별자치도 제주시 한림읍 명월성로 10, 1층",33.4078,126.2658,정좌표
1469751,다시정한림점,"제주특별자치도 제주시 한림읍 한림상로 231, 1층",33.41887,126.2676,정좌표
1469763,피자베이한림점,"제주특별자치도 제주시 한림읍 한림중앙로 27, 1층",33.41218,126.2653,정좌표
1469773,단물다방앤까페,"제주특별자치도 제주시 한림읍 한림해안로 143, 2층",33.41573,126.2616,정좌표
1469787,일성흑돼지촌,"제주특별자치도 제주시 한림읍 한림로 127, 141호",33.38572,126.2211,정좌표
1469789,진질해녀식당,"제주특별자치도 제주시 한림읍 한림해안로 623-6, 1층",33.44303,126.2791,정좌표
1469841,금능태왁,"제주특별자치도 제주시 한림읍 금능1길 2-2, 1층",33.38676,126.2247,정좌표
1469945,롱로드,"제주특별자치도 제주시 한림읍 귀덕3길 36, 1층",33.4411,126.2792,정좌표
1470015,한림칠돈가,"제주특별자치도 제주시 한림읍 한림상로 69, 1층",33.40758,126.2616,정좌표
1470141,비올레제주,"제주특별자치도 제주시 한림읍 한림로 510, 1층",33.40427,126.2535,정좌표
1470163,보호,"제주특별자치도 제주시 한림읍 옹포7길 23-6, 1층",33.407,126.2529,정좌표
1470197,복단지식당,제주특별자치도 제주시 한림읍 한림북동길 26,33.41739,126.2639,정좌표
1470199,또래오래한림점,"제주특별자치도 제주시 한림읍 한림남길 6, 한림2리복지회관 1층",33.41147,126.2685,정좌표
1470205,선인장,"제주특별자치도 제주시 한림읍 월령안길 14-3, 1층",33.37754,126.2152,정좌표
1470323,협재신국수,"제주특별자치도 제주시 한림읍 명재로 17, 1층",33.3952,126.2488,정좌표
1470701,박초밥한림점,"제주특별자치도 제주시 한림읍 한림상로 115, 2층",33.41021,126.2652,정좌표
1470727,요미요미,"제주특별자치도 제주시 한림읍 한림남2길 4, 1층",33.41246,126.2644,정좌표
1470737,마로,제주특별자치도 제주시 한림읍 한림남길 4-2,33.41153,126.2683,정좌표
1470741,제갈양,"제주특별자치도 제주시 한림읍 한림로 155, 1층",33.38603,126.2244,정좌표
1472401,룰루랄라,"제주특별자치도 제주시 한림읍 한림로 696, 1층",33.41674,126.2653,정좌표
1472977,협재뷰깡패,"제주특별자치도 제주시 한림읍 협재1길 1, 2층",33.39561,126.2422,정좌표
1473017,제주멜즈,"제주특별자치도 제주시 한림읍 협재1길 63, 1층",33.39902,126.2464,정좌표
1473161,태희,"제주특별자치도 제주시 한림읍 한림로 635, 1층",33.41321,126.2613,정좌표
1473185,협재가게,"제주특별자치도 제주시 한림읍 한림로 332-1, 1층",33.39316,126.2403,정좌표
1473385,미향해장국한림,"제주특별자치도 제주시 한림읍 한림상로 164, 1층",33.41294,126.2693,정좌표
1473441,우리장터,"제주특별자치도 제주시 한림읍 한림로5길 7, 1층",33.41331,126.2609,정좌표
1473443,별난닭곰탕집본점,제주특별자치도 제주시 한림읍 강구로 1,33.41206,126.2689,정좌표
1473513,오데뜨,제주특별자치도 제주시 한림읍 중산간서로 4995-6,33.41087,126.2956,정좌표
1473993,흑백돈한림점,"제주특별자치도 제주시 한림읍 한림중앙로 201, 1층",33.39809,126.273,정좌표
1473997,제주발리리조트,제주특별자치도 제주시 한림읍 일주서로 5083-5,33.38939,126.2497,정좌표
1474003,면뽑는선생만두빚는아내,"제주특별자치도 제주시 한림읍 옹포2길 10, 지하1층",33.39974,126.2494,정좌표
1474649,우리뜰,"제주특별자치도 제주시 한림읍 한림로5길 26-1, 101호",33.41495,126.2617,정좌표
1474705,옹포횟집,"제주특별자치도 제주시 한림읍 옹포2길 10, 지하1층",33.39974,126.2494,정좌표
1476561,한림정육식당,제주특별자치도 제주시 한림읍 한림상로 180,33.41432,126.2695,정좌표
1476725,피어22,"제주특별자치도 제주시 한림읍 금능7길 22, 1층",33.38993,126.2278,정좌표
1477145,제주화덕족발,제주특별자치도 제주시 한림읍 한림로 653,33.41421,126.2628,정좌표
1477289,키친오즈,"제주특별자치도 제주시 한림읍 협재로 208, 1층",33.38007,126.2512,정좌표
1477369,이큐테이블,제주특별자치도 제주시 한림읍 금능남1길 6-1,33.38526,126.2299,정좌표
1477477,금악휴게소,제주특별자치도 제주시 한림읍 평화로 1360-2,33.34794,126.3593,정좌표
1477485,협재리브와일드바앤키친,제주특별자치도 제주시 한림읍 협재4길 7-8,33.39404,126.2418,정좌표
1478029,비비큐한림점,"제주특별자치도 제주시 한림읍 한림중앙로 73, 1~2층",33.40841,126.2667,정좌표
1478589,도향촌,제주특별자치도 제주시 한림읍 한림상로 166,33.41306,126.2694,정좌표
1478599,지에스25제주한림로점,"제주특별자치도 제주시 한림읍 한림로 691, 1층",33.41646,126.2647,정좌표
1478613,커피마마제주한림점,"제주특별자치도 제주시 한림읍 한림상로 136, 1층",33.41113,126.2673,정좌표
1478633,배스킨라빈스제주한림점,"제주특별자치도 제주시 한림읍 한림중앙로 31, 나동 1층",33.41209,126.2654,정좌표
1478807,세븐일레븐제주협재돌집점,"제주특별자치도 제주시 한림읍 한림로 318, 1층",33.39216,126.2395,정좌표
1478895,달숲하우스,제주특별자치도 제주시 한림읍 명재로 35,33.39477,126.251,정좌표
1479603,한림과자점,"제주특별자치도 제주시 한림읍 한림로4길 27, 1층",33.41053,126.2629,정좌표
1479689,지에스25한림금능점,"제주특별자치도 제주시 한림읍 한림로 224, 1층",33.38662,126.2317,정좌표
1479709,씨유제주한림항점,제주특별자치도 제주시 한림읍 한림해안로 160,33.41637,126.2635,정좌표
1479729,온에어PC방한림점,"제주특별자치도 제주시 한림읍 한림중앙로 46, 1층",33.4106,126.2651,정좌표
1479735,씨유한림중앙점,제주특별자치도 제주시 한림읍 한림중앙로 23,33.41271,126.265,정좌표
1479755,제주머슴네,제주특별자치도 제주시 한림읍 옹포2길 8,33.40017,126.25,정좌표
1482071,리치망고협재점,"제주특별자치도 제주시 한림읍 한림로 482, 1층",33.4024,126.2518,정좌표
1482383,리틀로컬,제주특별자치도 제주시 한림읍 한림남2길 24,33.41175,126.2625,정좌표
1482389,수제옛날통닭,"제주특별자치도 제주시 한림읍 한림북동길 7-6, 1층",33.41617,126.2637,정좌표
1482391,난타오천한림점,제주특별자치도 제주시 한림읍 한림로 655,33.41435,126.263,정좌표
1482397,피자굽는곰아저씨,제주특별자치도 제주시 한림읍 한림중앙로 10-1,33.4138,126.2644,정좌표
1482405,달리북카페,"제주특별자치도 제주시 한림읍 월계로 18, 1층",33.4033,126.2547,정좌표
1482565,키리코,"제주특별자치도 제주시 한림읍 명월성로 18, 1층",33.40718,126.2655,정좌표
1482631,더네스트,"제주특별자치도 제주시 한림읍 한림로 691, 1층",33.41646,126.2647,정좌표
1482791,지에스25제주한수풀점,"제주특별자치도 제주시 한림읍 한림로 708, 1층",33.41803,126.2647,정좌표
1482811,시차,"제주특별자치도 제주시 한림읍 귀덕5길 20-14, 가동 1층",33.44151,126.2825,정좌표
1482831,스타벅스제주협재점,"제주특별자치도 제주시 한림읍 한림로 337, 1~2층",33.39384,126.2403,정좌표
1482851,세븐일레븐한림고점,"제주특별자치도 제주시 한림읍 월계로 66, 103동 1층 103호",33.39977,126.2575,정좌표
1482871,렌시아,"제주특별자치도 제주시 한림읍 협재로 227-3, 1층",33.37829,126.2523,정좌표
1482881,세븐일레븐제주한림오션캐슬점,"제주특별자치도 제주시 한림읍 한림로 554, 101동 105호 (한림 오션캐슬 아파트)",33.40641,126.2577,정좌표
1482901,기완이네,"제주특별자치도 제주시 한림읍 한림로 336, 1층",33.39339,126.2406,정좌표
1483051,메리,"제주특별자치도 제주시 한림읍 한림로 648, 1층",33.41362,126.2626,정좌표
1483069,제주김귤,"제주특별자치도 제주시 한림읍 금능남로 28, 1층",33.38491,126.2335,정좌표
1483195,달달한하루,"제주특별자치도 제주시 한림읍 한창로 1288, 2층",33.35664,126.2978,정좌표
1483221,투애니원마카롱,"제주특별자치도 제주시 한림읍 협재로 114, B동 1층",33.38811,126.2486,정좌표
1483623,커피가좋아,"제주특별자치도 제주시 한림읍 한림해안로 166, 1층",33.41697,126.2632,정좌표
1483625,셀럽커피,제주특별자치도 제주시 한림읍 금능3길 28,33.38907,126.2261,정좌표
1483639,씨유켄싱턴리조트제주,"제주특별자치도 제주시 한림읍 한림해안로 530, 켄싱턴리조트 1층",33.43576,126.2744,정좌표
1483659,뵤뵤,"제주특별자치도 제주시 한림읍 명재로 155, 1~2층",33.39254,126.2631,정좌표
1484031,카페아꼼,"제주특별자치도 제주시 한림읍 수원7길 15, 2층",33.4269,126.269,정좌표
1484121,펄랑,"제주특별자치도 제주시 한림읍 한림해안로 275, 2층",33.42586,126.264,정좌표
1484251,감성커피한림점,"제주특별자치도 제주시 한림읍 한림중앙로 40, 1층",33.41124,126.2652,정좌표
1484313,김밥천국한림점,"제주특별자치도 제주시 한림읍 한림중앙로 4, 1층",33.41446,126.2646,정좌표
1484333,비선루,제주특별자치도 제주시 한림읍 협재1길 47-1,33.3991,126.2445,정좌표
1484607,한림작은영화관,"제주특별자치도 제주시 한림읍 한림중앙로 71-9, 1층",33.40874,126.2681,정좌표
1484621,에브리데이크리스마스카페,"제주특별자치도 제주시 한림읍 한림로 782, 1층",33.42346,126.2666,정좌표
1484641,영신상회,제주특별자치도 제주시 한림읍 명월성로 673,33.35092,126.2559,정좌표
1484661,포리식당,"제주특별자치도 제주시 한림읍 한림해안로 21, 1층",33.40689,126.2542,정좌표
1484681,세븐일레븐제주한림센터점,"제주특별자치도 제주시 한림읍 한림서길 38, 1층",33.4089,126.2603,정좌표
1484711,블루하이,"제주특별자치도 제주시 한림읍 한림로 77, 1층",33.38159,126.2185,정좌표
1484715,섬,"제주특별자치도 제주시 한림읍 비양도길 32-5, 1층",33.40537,126.2283,정좌표
1485355,옥스,"제주특별자치도 제주시 한림읍 한림로 545, 1층",33.40651,126.2561,인근좌표
1485367,바스켓,"제주특별자치도 제주시 한림읍 동명2길 32, 1층",33.40482,126.2607,인근좌표
1485371,한형수정원,"제주특별자치도 제주시 한림읍 옹포2길 44, 2층",33.3968,126.2506,정좌표
1485391,카페귤한가,"제주특별자치도 제주시 한림읍 명월성로 238-1, 1층",33.38822,126.2629,정좌표
1485411,토끼네집으로오세요,제주특별자치도 제주시 한림읍 귀덕로 6-1,33.44341,126.2956,정좌표
1485431,벌크커피한림점,"제주특별자치도 제주시 한림읍 한림중앙로 71, 1층",33.40873,126.2667,정좌표
1485441,카페리꼬,"제주특별자치도 제주시 한림읍 한림로 542, 1층 101호",33.40576,126.2565,정좌표
1485553,마녀카롱,"제주특별자치도 제주시 한림읍 월령1길 24, 1,2층",33.37586,126.2145,정좌표
1485765,김한미술관,"제주특별자치도 제주시 한림읍 한상로 115, 1층",33.40904,126.2872,정좌표
1486035,마르조,"제주특별자치도 제주시 한림읍 한림해안로 592, 1층",33.44065,126.2771,정좌표
1486069,세븐일레븐제주한림로점,"제주특별자치도 제주시 한림읍 한림로 362, 1층",33.39514,126.2423,정좌표
1486089,마리따,"제주특별자치도 제주시 한림읍 한림해안로 704, 1층",33.44435,126.2845,정좌표
1486741,우무,"제주특별자치도 제주시 한림읍 한림로 542-1, 1층",33.40589,126.2564,정좌표
1488759,지에스25한림옹포점,"제주특별자치도 제주시 한림읍 한림로 494, 1층",33.40326,126.2522,정좌표
1488779,신전떡볶이한림점,"제주특별자치도 제주시 한림읍 한림상로 110, 나동 1층",33.40914,126.2652,정좌표
1488799,7번가피자제주한림점,"제주특별자치도 제주시 한림읍 동명북1길 11, 1층",33.40867,126.2643,정좌표
1488887,슬랩,"제주특별자치도 제주시 한림읍 한림로 354, 2층",33.39484,126.2416,정좌표
1489201,미크라트,"제주특별자치도 제주시 한림읍 명랑남동길 32, 1층",33.41698,126.273,정좌표
1489771,씨유제주협재점,"제주특별자치도 제주시 한림읍 한림로 387-1, 1층",33.39713,126.244,정좌표
1491131,그데이메이트,제주특별자치도 제주시 한림읍 옹포9길 15,33.40614,126.2551,정좌표
1491153,카페화가,"제주특별자치도 제주시 한림읍 명상로 53, 1층",33.37485,126.2796,정좌표
1491195,알엔알,"제주특별자치도 제주시 한림읍 협재1길 29, 1층",33.39788,126.2432,정좌표
1491283,무아르카페,"제주특별자치도 제주시 한림읍 용금로 1068, 18동 1층",33.3489,126.284,정좌표
1491363,구움몽,"제주특별자치도 제주시 한림읍 한림로 359, 1층",33.39526,126.242,정좌표
1491479,불타는여고24시한림점,"제주특별자치도 제주시 한림읍 한림상로 279, 1층",33.42268,126.266,정좌표
1491491,듬삭한,"제주특별자치도 제주시 한림읍 한림로 450, 1층 101호",33.40021,126.2494,정좌표
1492079,파스쿠찌한림점,"제주특별자치도 제주시 한림읍 한림남1길 3, 1,2층 101, 205호",33.4128,126.2654,정좌표
1492121,오아시스,제주특별자치도 제주시 노연로 81 (연동),33.4861,126.4888,정좌표
1497203,다래,"제주특별자치도 제주시 중앙로5길 1 (일도일동,(해짓골1로3))",33.5157,126.5252,인근좌표
1497347,호로록,제주특별자치도 제주시 서광로26길 1 (삼도일동),33.49958,126.5244,정좌표
1501163,미풍해장국,"제주특별자치도 제주시 연신로 89, 1층 (이도이동)",33.49397,126.5491,정좌표
1502483,시골밥상,제주특별자치도 제주시 조천읍 선진길 7-19,33.45998,126.7034,정좌표
1504883,동이트는집,제주특별자치도 제주시 신산로 71 (일도이동),33.50741,126.5344,정좌표
1507313,제주해룡,제주특별자치도 제주시 번영로 476 (봉개동),33.49125,126.5926,정좌표
1507565,김군빌리지,"제주특별자치도 제주시 어영길 1-1, 1층 (용담삼동)",33.51974,126.4943,정좌표
1507575,웨이브,"제주특별자치도 제주시 신성로 101, 1층 (이도이동)",33.49683,126.5297,정좌표
1507935,국수사랑,제주특별자치도 제주시 일주동로 236 (화북일동),33.51924,126.5708,정좌표
1507983,야래향,제주특별자치도 제주시 동문로10길 6 (일도일동),33.51267,126.5311,정좌표
1509683,하효소머리국밥,"제주특별자치도 제주시 인다4길 4, 1층 (아라일동)",33.47411,126.5487,정좌표
1510363,갯바위횟집,"제주특별자치도 제주시 흥운길 99, 1~2층 (용담이동)",33.51541,126.5134,정좌표
1510619,심야식당,제주특별자치도 제주시 전농로 30 (삼도일동),33.50431,126.5163,정좌표
1511451,겐,"제주특별자치도 제주시 달마루길 10-1 (노형동,(2층))",33.48927,126.4748,정좌표
1511755,돌아온놀부네,"제주특별자치도 제주시 도남로4길 28-1, 1층 (도남동)",33.49579,126.5262,정좌표
1511803,귤하르방,"제주특별자치도 제주시 동문로4길 18, 1층 (일도일동)",33.51225,126.5273,정좌표
1514179,전라도식당,제주특별자치도 제주시 신광로 75 (연동),33.48531,126.4902,정좌표
1515103,모카,제주특별자치도 제주시 광양13길 2 (이도이동),33.49855,126.531,정좌표
1515183,최고집,제주특별자치도 제주시 수덕9길 85 (노형동),33.4828,126.4703,정좌표
1516353,신전떡볶이,제주특별자치도 제주시 남광로2길 19 (이도이동),33.49096,126.5385,정좌표
1516433,왕천파닭,"제주특별자치도 제주시 화삼북로 143, 1층 (삼양이동)",33.51727,126.5883,정좌표
1516469,카페인,"제주특별자치도 제주시 신성로10길 30, 1층 (도남동)",33.49419,126.5299,정좌표
1516841,신도시정육식당,제주특별자치도 제주시 국기로2길 2-11 (연동),33.47898,126.4906,정좌표
1517129,사거리포차,제주특별자치도 제주시 동광로 129 (일도이동),33.50788,126.5404,정좌표
1517153,장백산,"제주특별자치도 제주시 월광로 113-1, 1층 (노형동)",33.49024,126.4704,정좌표
1517405,테왁,"제주특별자치도 제주시 서해안로 155, 1층 (도두일동)",33.50368,126.4657,정좌표
1518077,황금손가락,"제주특별자치도 제주시 1100로 2961, 1층 (노형동)",33.45129,126.4859,정좌표
1526690,모이라,"제주특별자치도 제주시 연동8길 7, 1층 (연동)",33.49659,126.5013,정좌표
1528796,청춘포차,제주특별자치도 제주시 서사로 35 (삼도이동),33.50926,126.5202,정좌표
1528904,화룡양꼬치,제주특별자치도 제주시 신대로16길 40 (연동),33.48713,126.4925,정좌표
1529112,카페송키,"제주특별자치도 제주시 무근성안길 16, 1층 (삼도이동)",33.51514,126.5202,정좌표
1529140,팔도실비집아라점,"제주특별자치도 제주시 중앙로 581, 에이동 1층 (아라일동)",33.47138,126.546,정좌표
1529141,봉플라봉뱅,"제주특별자치도 제주시 문송1길 6-1, 정인하우스 1층 (연동)",33.48802,126.4979,정좌표
1529375,아라포차,"제주특별자치도 제주시 중앙로 573, 1층 (아라일동)",33.4723,126.546,정좌표
1529384,스톤아일랜드탭하우스,"제주특별자치도 제주시 삼무로7길 16, 1층 (연동)",33.49244,126.4933,정좌표
1529436,연두랑고갈비,"제주특별자치도 제주시 도남로 107-2, 1층 (도남동)",33.49066,126.5288,정좌표
1529442,우차도리,"제주특별자치도 제주시 건주로6길 42, 1층 (도련일동)",33.51444,126.5785,정좌표
1529444,와르다레스토랑,"제주특별자치도 제주시 관덕로8길 24-1, 1층 (삼도이동)",33.51102,126.5231,정좌표
1529494,연화양꼬치,"제주특별자치도 제주시 연동8길 28, 1층 105,106호 (연동)",33.49659,126.5013,정좌표
1529509,돈대표,"제주특별자치도 제주시 조천읍 함덕로 20, 1층",33.54165,126.673,정좌표
1529907,24시누름돌김치찌개,"제주특별자치도 제주시 노연로 146, 1층 (연동)",33.48553,126.4958,정좌표
1529990,이돈갓아라점,"제주특별자치도 제주시 인다10길 36, 2층 (아라일동)",33.47428,126.5494,정좌표
1530198,바삭돈가스삼화점,"제주특별자치도 제주시 화삼로 7, 티엠빌딩 3층 301호 (화북일동)",33.51445,126.5738,정좌표
1530211,제주마당,"제주특별자치도 제주시 도리로 50, 2층 (이호일동)",33.49819,126.4581,정좌표
1531615,미연이네집,"제주특별자치도 제주시 삼무로7길 34, 삼무주택 1층 (연동)",33.49074,126.4933,정좌표
1531616,영화루,"제주특별자치도 제주시 사장길 15-1, 1층 (연동)",33.48416,126.4958,정좌표
1531696,맥주창고,"제주특별자치도 제주시 도남로 40, 1층 (도남동, 윤재연립)",33.49656,126.5263,정좌표
1531706,쉬멍해장국,"제주특별자치도 제주시 구남로4길 8-12, 1층 (이도이동)",33.48881,126.533,정좌표
1531739,우도청정식당,"제주특별자치도 제주시 우도면 우도해안길 804, 1층",33.51398,126.957,정좌표
1531761,사쿠라미치,"제주특별자치도 제주시 전농로 48-1, 1층 (삼도일동)",33.50428,126.5184,정좌표
1531768,하누가물애,"제주특별자치도 제주시 조천읍 중산간동로 669, 1층",33.49925,126.6569,정좌표
1532600,앤드앤드,"제주특별자치도 제주시 연동4길 28-16, 1층 102호 (연동, 뉴전원빌라)",33.49723,126.5008,정좌표
1532603,짱돌,"제주특별자치도 제주시 일주서로 7326, 1층 (외도일동)",33.49268,126.4298,정좌표
1532606,인추자커피앤민박,"제주특별자치도 제주시 추자면 추자로 20-1, 1층",33.96371,126.2968,정좌표
1532620,혜안,"제주특별자치도 제주시 해안마을10길 39, 1층 (해안동)",33.4504,126.4533,정좌표
1532733,수빈이네제주밥상,"제주특별자치도 제주시 사라봉7길 31-1, 1층 (건입동)",33.51532,126.5399,정좌표
1532742,돈삼겹직영5호점,"제주특별자치도 제주시 신설로9길 37, 지하1층 (이도이동)",33.49523,126.5471,정좌표
1532752,티엔미미,"제주특별자치도 제주시 연동4길 8, 1,2층 (연동)",33.49723,126.5008,정좌표
1532768,문전성시,"제주특별자치도 제주시 신성로13길 17-1, 1층 (이도이동)",33.49864,126.5299,정좌표
1532770,동문감자탕,"제주특별자치도 제주시 중앙로13길 25-2, 보인빌딩 1층 (일도일동)",33.51165,126.5272,정좌표
1532774,역전할머니맥주제주시청점,"제주특별자치도 제주시 광양8길 4, 1층 (이도이동)",33.50012,126.5289,정좌표
1532797,베드라디오,"제주특별자치도 제주시 중앙로1길 41-1, 1층 (건입동)",33.51625,126.5293,정좌표
1533142,커피베이노형점,"제주특별자치도 제주시 월랑로10길 23, 1층 (노형동)",33.4905,126.4778,정좌표
1533149,원스몰글라스,"제주특별자치도 제주시 서광로32길 27-3, 2층 (이도이동)",33.49849,126.5294,정좌표
1533158,제주울어멍김밥,"제주특별자치도 제주시 진군2길 17, 1층 (노형동)",33.47865,126.479,정좌표
1533167,알작지,"제주특별자치도 제주시 내도3길 21, 1층 (내도동)",33.49552,126.4389,정좌표
1533190,미리로,"제주특별자치도 제주시 테우해안로 136, 2층 (이호일동)",33.49758,126.4484,정좌표
1533268,안녕전복,"제주특별자치도 제주시 관덕로 3, 1층 (삼도이동)",33.51286,126.5196,정좌표
1534956,삼양백년짜장,"제주특별자치도 제주시 설촌로12길 36, 1층 (삼양이동)",33.52446,126.5841,정좌표
1534992,다다미,"제주특별자치도 제주시 월랑로 30, 1층 2호 (노형동)",33.48853,126.4768,정좌표
1534997,플로리카페,"제주특별자치도 제주시 연신로 188-20, 누리힐 1층 (영평동)",33.4877,126.5535,정좌표
1535003,춘천명동닭갈비삼화점,"제주특별자치도 제주시 화삼로1길 16, 1층 (화북일동)",33.51476,126.5755,정좌표
1535068,제주김만복옛집,"제주특별자치도 제주시 서문로 70-1, 1~3층 (용담일동)",33.51202,126.5185,정좌표
1535078,지나네,"제주특별자치도 제주시 도공로 9-1, 1층 (도두일동)",33.50555,126.4658,정좌표
1535082,일품순두부함덕점,"제주특별자치도 제주시 조천읍 함와로 24, 1층",33.53798,126.6744,정좌표
1535278,질레,"제주특별자치도 제주시 사라봉13길 16, 1층 (건입동)",33.51579,126.54,정좌표
1535300,예서갈비,"제주특별자치도 제주시 인다6길 57, 1층 (아라일동)",33.47518,126.5492,정좌표
1535302,가나포차,"제주특별자치도 제주시 신대로20길 46, 지하1층 (연동, 연동가나휘닉스1)",33.48392,126.4915,정좌표
1535303,아일랜드프로젝트,"제주특별자치도 제주시 전농로 29, 1층 (삼도일동)",33.50476,126.5165,정좌표
1535372,미화족발전문점,"제주특별자치도 제주시 진동로5길 31, 144호 (화북일동, 화북시장아파트)",33.52181,126.5664,정좌표
1535375,소동주막,"제주특별자치도 제주시 조천읍 함덕로 32, 2동 1층",33.54199,126.6719,정좌표
1535447,진식당,"제주특별자치도 제주시 도남로7길 30, 1층 (도남동)",33.49764,126.5269,정좌표
1535448,영도할배국밥,"제주특별자치도 제주시 삼성로 59, 1층 (일도이동)",33.5078,126.5316,정좌표
1535449,꼬지사께연동점,"제주특별자치도 제주시 국기로4길 1, 1층 (연동)",33.47824,126.4913,정좌표
1535456,꼬치에꼬치다,"제주특별자치도 제주시 서광로32길 16, 3층 (이도이동)",33.49924,126.5284,정좌표
1535457,영평가시나물마을회,"제주특별자치도 제주시 516로 2810-31, 양지공원 지하1층 (영평동)",33.43951,126.5805,정좌표
1535467,로즈타이거제주흙돼지,"제주특별자치도 제주시 천수로 52, 오성빌딩 1층 (일도이동)",33.50382,126.5424,정좌표
1535512,모스트펍,"제주특별자치도 제주시 원노형2길 29, 2층 (노형동)",33.48371,126.4814,정좌표
1535514,군산야식,"제주특별자치도 제주시 서사로 105, 1층 (삼도일동)",33.50302,126.5201,정좌표
1535517,옛날통닭닭치고족치고함덕점,"제주특별자치도 제주시 조천읍 함와로 54, 1층",33.53533,126.6753,정좌표
1535885,엘리펀트힙,"제주특별자치도 제주시 탑동로 20, 1층 (삼도이동)",33.51754,126.5228,정좌표
1535949,소확행,"제주특별자치도 제주시 동광로 12, 1층 (이도이동)",33.5011,126.5305,정좌표
1535973,뮤커피(mucoffee),"제주특별자치도 제주시 우정로15길 42-3, 1층 (외도일동)",33.48841,126.4331,정좌표
1535976,순옥이네명가함덕점,"제주특별자치도 제주시 조천읍 함덕로 6, 1층",33.54062,126.674,정좌표
1536828,오례밥집,"제주특별자치도 제주시 조천읍 조천우회로 527, 202동 1층 102호 (에덴빌리지2차)",33.53072,126.6663,정좌표
1536926,동문꼬마김밥,"제주특별자치도 제주시 동문로 18, 1층 (일도일동)",33.51284,126.5287,정좌표
1536928,동광회센타,"제주특별자치도 제주시 연삼로 544, 1층 (일도이동)",33.50226,126.5472,정좌표
1536942,이로운술상,"제주특별자치도 제주시 조천읍 함덕16길 44, 1층",33.54147,126.6646,정좌표
1536962,역전할머니맥주일도점,"제주특별자치도 제주시 천수로9길 1, 1층 (일도이동, 그랑펠리스)",33.50435,126.5424,정좌표
1536987,응급실국물떡볶이삼화점,"제주특별자치도 제주시 건주로 66, 1층 105호 (도련일동)",33.51353,126.5803,정좌표
1536997,너나들이민속주점,"제주특별자치도 제주시 구남로 38, 1층 (이도이동)",33.49026,126.5342,정좌표
1537000,달세뇨아빠의레스토랑,"제주특별자치도 제주시 조천읍 함대로 520, 1층",33.49984,126.6593,정좌표
1537066,태하횟집,"제주특별자치도 제주시 동한두기길 31-2, 1,2층 (용담일동)",33.51664,126.5152,정좌표
1537127,노가리앤비어삼화지구점,"제주특별자치도 제주시 건주로4길 10-4, 1층 (도련일동)",33.51642,126.5799,정좌표
1537147,박대감,"제주특별자치도 제주시 중앙로2길 37, 1층 (삼도이동)",33.51739,126.5209,정좌표
1537159,돈삼겹한라점,"제주특별자치도 제주시 연화로 51, 1층 (연동)",33.47717,126.4874,정좌표
1537169,한샘해장국본점,"제주특별자치도 제주시 아연로 195-1, 1층 (오라이동)",33.4688,126.5101,정좌표
1537176,태랑,"제주특별자치도 제주시 테우해안로 136, 1층 (이호일동)",33.49758,126.4484,정좌표
1537360,제주우드펍,"제주특별자치도 제주시 서해안로 348-1, 1층 (도두이동)",33.51024,126.4823,정좌표
1537397,곰돌이숯불갈비,"제주특별자치도 제주시 일주서로 7852, 1층 (연동)",33.49349,126.4855,정좌표
1537422,호야네집,"제주특별자치도 제주시 연화로1길 6-1, 1층 (연동)",33.47847,126.488,정좌표
1537432,더회전훠궈,"제주특별자치도 제주시 노연로 55, 2층 (노형동)",33.48617,126.4861,정좌표
1537467,짝태앤노가리제주2호점,"제주특별자치도 제주시 원노형남1길 46, 1층 (노형동)",33.4838,126.4853,정좌표
1537476,선술집기억,"제주특별자치도 제주시 전농로 75-1, 2층 (삼도이동)",33.50452,126.5213,정좌표
1537477,땅땅치킨외도점,"제주특별자치도 제주시 우정로 52, 1층 (외도일동)",33.4882,126.4307,정좌표
1537482,카페조아,"제주특별자치도 제주시 연오로 39, 2층 (오라삼동)",33.48975,126.502,정좌표
1537498,에머이제주점,"제주특별자치도 제주시 인다3길 8-2, 2층 (아라일동)",33.47682,126.5489,정좌표
1537523,우도돌담집,"제주특별자치도 제주시 우도면 우도해안길 472, 1층",33.51725,126.9493,정좌표
1537562,대독장제주본점,"제주특별자치도 제주시 연북로 212, 1층 (오라이동)",33.48123,126.5042,정좌표
1537618,우아한끼,"제주특별자치도 제주시 신성로13길 22, 1층 (이도이동)",33.49832,126.5298,정좌표
1537623,조천끗집,"제주특별자치도 제주시 조천읍 조함해안로 59-2, 1층",33.54241,126.6363,정좌표
1537695,더로그,"제주특별자치도 제주시 산천단동3길 26, 1,2층 (아라일동)",33.45012,126.5589,정좌표
1537707,오태식해바라기치킨노형한라대점,"제주특별자치도 제주시 한라대학로 81, 유유빌 1층 (노형동)",33.47652,126.479,정좌표
1537717,도련한우식육식당,"제주특별자치도 제주시 삼봉로 211, 1층 (도련일동)",33.50347,126.5943,정좌표
1537728,펍아지트,"제주특별자치도 제주시 조천읍 신북로 643, 1층",33.54074,126.6781,정좌표
1537744,로스트앤헤븐,"제주특별자치도 제주시 테우해안로 162, 1층 (이호일동)",33.49677,126.451,정좌표
1537895,고향향토장터,"제주특별자치도 제주시 추자면 추자로 576, 신양어촌계 1층",33.94541,126.3279,정좌표
1537897,토대력스마일점,"제주특별자치도 제주시 서광로 264, 1층 (삼도일동)",33.4997,126.5248,정좌표
1537899,족발야시장노형점,"제주특별자치도 제주시 다랑곶1길 9, 1층 (노형동)",33.48758,126.4782,정좌표
1537918,동귀리갈칫집,"제주특별자치도 제주시 월랑로 83, 1층 (노형동)",33.49204,126.472,정좌표
1538125,우도로93,"제주특별자치도 제주시 우도면 우도로 93, 1층",33.50083,126.9538,정좌표
1538162,약산흑염소가든,"제주특별자치도 제주시 대동길 2, 2층 (이호이동)",33.49427,126.4632,정좌표
1538169,모닥치기아라,"제주특별자치도 제주시 인다9길 8, 1층 (아라일동)",33.47532,126.546,정좌표
1538199,제주돼학교,"제주특별자치도 제주시 신설로9길 48, 1층 (이도이동)",33.4944,126.5479,정좌표
1538206,족발야시장일도점,"제주특별자치도 제주시 고마로 145, 1층 (일도이동)",33.50187,126.5433,정좌표
1538221,명호,"제주특별자치도 제주시 신대로12길 15, 1층 (연동)",33.4886,126.4949,정좌표
1539109,대나무집,"제주특별자치도 제주시 정존1길 2, 1층 (노형동)",33.48162,126.4728,정좌표
1539901,카페분식이다,"제주특별자치도 제주시 구남로2길 25, 1층 (이도이동)",33.48764,126.5342,정좌표
1539902,달꿈국수,"제주특별자치도 제주시 서해안로 468-4, 1층 (용담삼동)",33.5185,126.4894,정좌표
1539977,역전할머니맥주연동점,"제주특별자치도 제주시 노연로 108, 1층 (연동)",33.48563,126.4917,정좌표
1540015,남이네육개장,"제주특별자치도 제주시 서사로 62, 1층 (삼도일동)",33.50699,126.5197,정좌표
1540018,카페소소한,"제주특별자치도 제주시 서흘길 40, 1층 (삼양일동)",33.52873,126.5896,정좌표
1540026,한이장식당,"제주특별자치도 제주시 조천읍 중산간동로 667, 1층",33.49926,126.6566,정좌표
1540042,고향모밀촌,"제주특별자치도 제주시 일주동로 358, 1층 (삼양이동)",33.52083,126.5831,정좌표
1540082,오오야마,"제주특별자치도 제주시 광양13길 6-1, 1층 (이도이동)",33.49875,126.5314,정좌표
1540218,곱창이야기연동점,"제주특별자치도 제주시 신대로14길 43, 1층 (연동)",33.48769,126.4918,정좌표
1540240,외도장수보리밥집,"제주특별자치도 제주시 우정로13길 12, 1층 (외도일동)",33.48684,126.4322,정좌표
1540253,근고기세상,"제주특별자치도 제주시 동문로4길 9, 동문공설시장, 동문공영주차장 1층 (일도일동)",33.51209,126.5282,정좌표
1542386,진미돼지국밥,"제주특별자치도 제주시 조천읍 신북로 632, 1층",33.54018,126.6771,정좌표
1542486,호식이두마리치킨삼화점,"제주특별자치도 제주시 일주동로 340, 백양빌딩 1층 (삼양이동)",33.52101,126.5813,정좌표
1542493,청춘두루치기,"제주특별자치도 제주시 정존1길 25, 1층 (노형동)",33.48288,126.471,정좌표
1542511,공생,"제주특별자치도 제주시 천수동로2길 23, 1층 (일도이동)",33.50825,126.5433,정좌표
1542525,백일흑야,"제주특별자치도 제주시 산천단동3길 26, 1층 (아라일동)",33.45012,126.5589,정좌표
1542587,고깃소리,"제주특별자치도 제주시 서흘1길 56, 1,2층 (삼양일동)",33.53086,126.5898,정좌표
1542643,소소락,"제주특별자치도 제주시 광평서길 14, 1층 (노형동)",33.47819,126.465,정좌표
1542644,구어라조연탄,"제주특별자치도 제주시 서광로32길 28, 1층 (이도이동)",33.49824,126.5291,정좌표
1542660,돌코롬마켓,"제주특별자치도 제주시 동문로4길 14, 1층 (일도일동)",33.51236,126.5277,정좌표
1542820,낭뿌리식당,"제주특별자치도 제주시 수덕9길 82, 1층 (노형동)",33.48318,126.4704,정좌표
1542828,가은해장국,"제주특별자치도 제주시 성신로1길 21, 1층 (연동)",33.49184,126.4877,정좌표
1542830,작은집,"제주특별자치도 제주시 정존5길 35, 1층 102호 (노형동, 건국빌라)",33.48502,126.4722,정좌표
1542832,제주한우앤돈본점,"제주특별자치도 제주시 오라로 50, 1층 (오라삼동)",33.49602,126.5085,정좌표
1542840,넝쿨하눌연동,"제주특별자치도 제주시 신대로7길 17, 1층 (연동)",33.49201,126.4985,정좌표
1542866,아라리옛날삼겹살,"제주특별자치도 제주시 인다3길 8, 1층 (아라일동)",33.4769,126.549,정좌표
1542870,일품순두부터미널점,"제주특별자치도 제주시 서광로 167, 아리랑빌딩 1층 (용담일동)",33.50034,126.5144,정좌표
1542962,한일내장탕연북로점,"제주특별자치도 제주시 남광로2길 86, 1층 (이도이동)",33.48985,126.5433,정좌표
1542982,피스풀제주,"제주특별자치도 제주시 진군3길 22, 대명주택 1층 (노형동)",33.47779,126.4787,정좌표
1543002,미풍해장국봉개점,"제주특별자치도 제주시 번영로 420, 1층 (봉개동)",33.49316,126.5872,정좌표
1543008,시장초밥,"제주특별자치도 제주시 우령6길 3-17, 1층 (외도일동)",33.49104,126.4299,정좌표
1543033,수목이네,"제주특별자치도 제주시 연오로 6, 1층 (연동)",33.49268,126.5016,정좌표
1543036,괸당집도남점,"제주특별자치도 제주시 도남로 26, 1층 (도남동)",33.49774,126.5256,정좌표
1543059,스트릿16,"제주특별자치도 제주시 용두암길 16, 1층 (용담이동)",33.51455,126.5123,정좌표
1543110,전골명가,"제주특별자치도 제주시 남성로 41, 1층 3호 (용담일동)",33.50397,126.5128,정좌표
1543112,주주키친,"제주특별자치도 제주시 조천읍 함덕8길 2, 1층",33.54305,126.6619,정좌표
1543210,무한조개야,"제주특별자치도 제주시 다랑곶2길 4, 1층 (노형동)",33.48767,126.4792,정좌표
1543224,와봅서,"제주특별자치도 제주시 고마로14길 11, 1층 (일도이동)",33.50591,126.5399,정좌표
1543228,이졸라베르데,"제주특별자치도 제주시 노형8길 14, 1~3층 (노형동)",33.4838,126.4784,정좌표
1543286,명륜진사갈비삼화점,"제주특별자치도 제주시 화삼로1길 18, 2층 (화북일동)",33.51477,126.5757,정좌표
1543351,사라보쌈족발신제주점,"제주특별자치도 제주시 삼무로 72, 1층 (연동)",33.48962,126.4943,정좌표
1543355,큰부엌,"제주특별자치도 제주시 우령8길 42, 1층 (외도일동)",33.48764,126.4273,정좌표
1543359,연이네,"제주특별자치도 제주시 우도면 우도해안길 662-1, 1층",33.52202,126.957,정좌표
1544463,제이학센,"제주특별자치도 제주시 서해안로 232, 1층 (도두일동)",33.50848,126.4707,정좌표
1544832,한솥도시락제주법원점,"제주특별자치도 제주시 중앙로 323, 1층 (이도이동)",33.49251,126.5361,정좌표
1544875,총각쭈꾸미,"제주특별자치도 제주시 사라봉7길 44, 지하1층 (건입동)",33.51426,126.5396,정좌표
1544901,마음에온,"제주특별자치도 제주시 칠성로길 29-1, 1층 (일도일동)",33.51451,126.526,정좌표
1545085,칠프로칠백식당아라직영점,"제주특별자치도 제주시 아란9길 6-5, 1층 (아라일동)",33.47291,126.5448,정좌표
1545176,백년손님,"제주특별자치도 제주시 중앙로 270-1, 백두빌딩 1층 (이도이동)",33.49572,126.5321,정좌표
1545224,고기다,"제주특별자치도 제주시 우정로5길 22, 1층 (외도일동)",33.49,126.4332,정좌표
1545476,전복만찬,제주특별자치도 제주시 승천로 3 (이도이동),33.49738,126.5384,정좌표
1545495,키친윤,"제주특별자치도 제주시 정원로 55, 1층 (노형동)",33.47701,126.4775,정좌표
1545499,연동송림,"제주특별자치도 제주시 신대로14길 34 (연동,(연중4로50))",33.48803,126.493,정좌표
1545512,외도불닭,제주특별자치도 제주시 우령2길 29-2 (외도일동),33.48633,126.4319,정좌표
1545513,백프로,"제주특별자치도 제주시 동광로21길 1, 1층 (일도이동)",33.50952,126.5424,정좌표
1545518,이도정어부,"제주특별자치도 제주시 도공로 24, 1층 (도두일동)",33.50422,126.4654,정좌표
1545529,돼지아빠,제주특별자치도 제주시 진군3길 11 (노형동),33.47753,126.4797,정좌표
1545530,전주횟집,"제주특별자치도 제주시 서해안로 546, 1층 (용담삼동)",33.51993,126.497,정좌표
1545552,왕원비삼계탕,"제주특별자치도 제주시 우정로12길 4 (외도일동,(우정서8로6))",33.48784,126.4303,정좌표
1545560,마마무말가든,"제주특별자치도 제주시 아연로 157, 1층 (오라이동)",33.47236,126.5081,정좌표
1545668,우동사발,제주특별자치도 제주시 삼무로11길 24 (연동),33.49156,126.4958,정좌표
1545687,래원,제주특별자치도 제주시 과원북4길 3 (노형동),33.48139,126.4823,정좌표
1545712,제주노조미,"제주특별자치도 제주시 국기로2길 2-3, 1층 (연동)",33.47953,126.4902,정좌표
1545827,점보파티,제주특별자치도 제주시 용마서1길 36 (용담삼동),33.51619,126.5059,정좌표
1548848,만세본점,제주특별자치도 제주시 오라로 152 (오라일동),33.49401,126.5188,정좌표
1549112,푸라닭한라대점,제주특별자치도 제주시 한라대학로 70 (노형동),33.47616,126.4777,정좌표
1549159,조마루뼈다귀노형점,제주특별자치도 제주시 수덕로 83 (노형동),33.48355,126.4695,정좌표
1549201,고씨네막창,제주특별자치도 제주시 신성로 88 (도남동),33.49587,126.5288,정좌표
1549225,신마포갈매기제주일도점,제주특별자치도 제주시 고마로 99 (일도이동),33.50569,126.5414,정좌표
1549235,흑돈가,제주특별자치도 제주시 한라대학로 11 (노형동),33.48006,126.4735,정좌표
1549569,가나안,"제주특별자치도 제주시 연화로1길 18 (연동,(연화2로28))",33.47846,126.4892,정좌표
1549601,두레촌삼계탕,"제주특별자치도 제주시 독짓골2길 5 (도남동,(수선화2로 7))",33.49165,126.5295,정좌표
1549605,고고짬뽕,"제주특별자치도 제주시 우령2길 29-2, 1층 (외도일동)",33.48633,126.4319,정좌표
1549606,고요남,"제주특별자치도 제주시 신설로6길 24, 1층 (아라이동)",33.49285,126.544,정좌표
1549630,7번가피자함덕점,"제주특별자치도 제주시 조천읍 신북로 508, 나동",33.54218,126.6641,정좌표
1549810,해녀잠수촌,"제주특별자치도 제주시 서해안로 498, 지하1층 (용담삼동)",33.51923,126.4922,정좌표
1550759,노형삼조삼계탕,"제주특별자치도 제주시 다랑곶4길 29 (노형동,(다랑굿5로37))",33.48895,126.4792,정좌표
1550764,각지불,제주특별자치도 제주시 조천읍 남조로 1751,33.42441,126.6751,정좌표
1550960,두다리,"제주특별자치도 제주시 남성로 101, 1층 (용담일동)",33.50854,126.5161,정좌표
1550961,제주돈담,제주특별자치도 제주시 수덕7길 1 (노형동),33.48733,126.4768,정좌표
1550966,이가네일품해장국,"제주특별자치도 제주시 서문로4길 24 (용담일동,101호)",33.51014,126.5182,정좌표
1551014,도두대경,"제주특별자치도 제주시 서해안로 272, 1~2층 (도두이동)",33.50925,126.4747,정좌표
1551062,노형엔횟집,제주특별자치도 제주시 다랑곶4길 30 (노형동),33.48916,126.4794,정좌표
1551071,차이,제주특별자치도 제주시 광양13길 12 (이도이동),33.49889,126.5316,정좌표
1551127,해왕성반점본점,제주특별자치도 제주시 우령안1길 26 (외도일동),33.48651,126.4294,정좌표
1551140,수일통닭남녕점,제주특별자치도 제주시 원노형로 3 (노형동),33.48811,126.484,정좌표
1551248,누나네,제주특별자치도 제주시 진군2길 24 (노형동),33.47889,126.4785,정좌표
1551254,중식앤포차사계,"제주특별자치도 제주시 한라대학로 68, 1층 (노형동)",33.47622,126.4775,정좌표
1551263,사광,"제주특별자치도 제주시 과원북4길 86 (연동,(과원3로96))",33.48088,126.4905,정좌표
1551270,일이삼,제주특별자치도 제주시 신성로 57 (도남동),33.49575,126.5256,정좌표
1551278,태화,"제주특별자치도 제주시 고마로11길 11, 1층 (일도이동)",33.50957,126.5401,정좌표
1551280,또올래,"제주특별자치도 제주시 삼무로3길 14 (연동,(성두5로22))",33.49047,126.4944,정좌표
1551291,라움호텔,제주특별자치도 제주시 신광로10길 1 (연동),33.48366,126.4894,정좌표
1551293,백합,"제주특별자치도 제주시 중앙로24길 3 (삼도이동,(덕성로7))",33.50649,126.5245,정좌표
1551301,명품회세꼬시,제주특별자치도 제주시 삼무로3길 22-1 (연동),33.49051,126.4936,정좌표
1551304,서부두,"제주특별자치도 제주시 임항로 37-2, 2~3층 (건입동)",33.51683,126.5291,정좌표
1551565,삼성혈해물탕,제주특별자치도 제주시 선덕로5길 20 (연동),33.488,126.4997,정좌표
1551722,제주기사,제주특별자치도 제주시 공설로 23 (오라일동),33.49792,126.5169,정좌표
1551748,이도삼춘네포차,제주특별자치도 제주시 남광북1길 39 (이도이동),33.49666,126.5374,정좌표
1551750,의정,"제주특별자치도 제주시 연동7길 26 (연동,(은남5로34))",33.49693,126.5012,정좌표
1551757,치맥집칼호텔점,제주특별자치도 제주시 중앙로 135-1 (이도일동),33.50661,126.5252,정좌표
1551766,장춘육당,"제주특별자치도 제주시 신대로10길 36, 1층 (연동)",33.49105,126.4929,정좌표
1551788,보말명가,제주특별자치도 제주시 흥운길 77 (용담이동),33.51544,126.514,정좌표
1552308,곤지암,"제주특별자치도 제주시 관덕로4길 4, 1층 (삼도이동)",33.51271,126.5212,정좌표
1552389,서바다돌장어,"제주특별자치도 제주시 귀아랑길 13, 1층 (연동)",33.49222,126.4976,정좌표
1552395,돈마루,제주특별자치도 제주시 수덕5길 71-2 (노형동),33.48281,126.4721,정좌표
1552427,비원,제주특별자치도 제주시 수목원길 3-1 (노형동),33.4701,126.4861,정좌표
1552931,오륙도,제주특별자치도 제주시 관덕로15길 10 (일도일동),33.51405,126.5269,정좌표
1552936,초가장,제주특별자치도 제주시 서부두길 16 (건입동),33.51768,126.5283,정좌표
1552945,다인횟집,"제주특별자치도 제주시 서광로29길 3 (이도일동,(광양중2로3))",33.50072,126.5265,정좌표
1552946,돈자루,제주특별자치도 제주시 월랑로10길 22 (노형동),33.49017,126.4778,정좌표
1552968,돈나라,제주특별자치도 제주시 진남로6길 36 (화북일동),33.5219,126.5658,정좌표
1552969,광양고가네,"제주특별자치도 제주시 광양2길 35 (이도일동,(광양중1로 62) 102호)",33.50353,126.5267,정좌표
1552974,한빛,"제주특별자치도 제주시 연동8길 8 (연동,(도호1로10))",33.49659,126.5013,정좌표
1553274,왕육개장,"제주특별자치도 제주시 신대로7길 10 (연동,(귀아랑3로12))",33.49173,126.4977,정좌표
1553289,길촌,"제주특별자치도 제주시 도공로 6 (도두일동,(도두항로77))",33.50574,126.465,정좌표
1553301,작심삼일,"제주특별자치도 제주시 진동로3길 40-1, 101호 (화북일동)",33.52047,126.5677,정좌표
1553302,연동탑부평,"제주특별자치도 제주시 신대로18길 16 (연동,삼다연동맨션102호(사장2로26))",33.48481,126.4947,정좌표
1553312,소금인형,제주특별자치도 제주시 전농로 109 (삼도이동),33.50449,126.5249,정좌표
1553314,쿵푸반점,"제주특별자치도 제주시 동광로 45, 1층 (이도일동)",33.50301,126.5336,정좌표
1553320,토크쇼신제주점,"제주특별자치도 제주시 신대로20길 22, 1층 (연동)",33.48378,126.4941,정좌표
1553321,동강,"제주특별자치도 제주시 신성로 17, 1층 (도남동)",33.49642,126.5216,정좌표
1553577,해빈촌,"제주특별자치도 제주시 신광로10길 26 (연동,(송천1로36))",33.48401,126.4871,정좌표
1553578,향우본가제주점,제주특별자치도 제주시 오현길 2 (이도일동),33.50587,126.5283,정좌표
1553603,가자우리집,제주특별자치도 제주시 임항로 55-4 (건입동),33.51689,126.5315,정좌표
1553683,또와,제주특별자치도 제주시 동문로4길 9 (일도일동),33.51209,126.5282,정좌표
1554099,복집,제주특별자치도 제주시 비룡길 5 (용담일동),33.5126,126.5184,정좌표
1554169,하나미,"제주특별자치도 제주시 다랑곶6길 28, 1층 (노형동)",33.48957,126.4806,정좌표
1554325,교래손칼국수,제주특별자치도 제주시 조천읍 비자림로 645,33.43613,126.676,정좌표
1554699,도남시골낙지,제주특별자치도 제주시 도남로 44 (도남동),33.4962,126.5265,정좌표
1554723,자양삼계탕,"제주특별자치도 제주시 관덕로6길 17 (삼도이동,(향사2로27))",33.51156,126.5222,정좌표
1554798,이돈갓,제주특별자치도 제주시 칠성로길 27 (일도일동),33.5145,126.5258,정좌표
1554819,아주반점,제주특별자치도 제주시 관덕로13길 4 (일도일동),33.51347,126.526,정좌표
1554931,더스카이,제주특별자치도 제주시 임항로 14 (건입동),33.51637,126.5262,정좌표
1554932,한양관양꼬치,"제주특별자치도 제주시 연삼로 450 (이도이동,(연삼로466))",33.49774,126.5387,정좌표
1554949,파도국수,"제주특별자치도 제주시 신대로15길 2, 1층 (연동)",33.4866,126.4971,정좌표
1555009,능가,제주특별자치도 제주시 공설로 23 (오라일동),33.49792,126.5169,정좌표
1555012,제원삼계탕,"제주특별자치도 제주시 제원길 16 (연동,(연제1로22))",33.48851,126.4892,정좌표
1555023,피자리치,"제주특별자치도 제주시 도근내길 13-8 (외도이동,(1층))",33.49321,126.4331,정좌표
1555024,한강수,제주특별자치도 제주시 중앙로 131-2 (이도일동),33.50694,126.5251,정좌표
1555026,영건,"제주특별자치도 제주시 신대로16길 44 (연동,(연중6로23))",33.48708,126.4914,정좌표
1555039,딤섬호프,"제주특별자치도 제주시 월랑로10길 29-1 (노형동,(월랑4로41))",33.49085,126.4782,정좌표
1555041,우현,"제주특별자치도 제주시 서해안로 660, 상가동 101호 (용담삼동)",33.51622,126.5076,정좌표
1555042,진미네,"제주특별자치도 제주시 수덕5길 42 (노형동,(수덕5로50))",33.48502,126.4744,정좌표
1555179,제주영재숯불,제주특별자치도 제주시 신광로10길 23 (연동),33.48375,126.4873,정좌표
1555183,다복,제주특별자치도 제주시 조천읍 함와로 74,33.53362,126.676,정좌표
1555375,토대력드림점,"제주특별자치도 제주시 서광로32길 35-1, 1층 (이도이동)",33.49767,126.5298,정좌표
1555377,디케이치킨신제주점,제주특별자치도 제주시 은남3길 34 (연동),33.48755,126.4923,정좌표
1555383,현기네,"제주특별자치도 제주시 번영로 487 (봉개동,(동부관광도로475))",33.49103,126.5942,정좌표
1555386,제주본,"제주특별자치도 제주시 원노형남1길 31 (노형동,(송천1로74))",33.48412,126.4838,정좌표
1555751,오늘와인한잔제주시청점,"제주특별자치도 제주시 서광로32길 14, 1층 (이도이동)",33.4995,126.5282,정좌표
1555771,신제주명동보쌈,"제주특별자치도 제주시 연화중길 13, 1층 (연동)",33.4777,126.4889,정좌표
1555774,내도바당,제주특별자치도 제주시 내도중길 9-7 (내도동),33.49582,126.4404,정좌표
1555810,삼춘네,제주특별자치도 제주시 고산동산5길 17 (이도이동),33.49631,126.5344,정좌표
1555813,오태식해바라기치킨용담점,"제주특별자치도 제주시 용담로 73, 1층 (용담이동)",33.51265,126.5107,정좌표
1555840,새벽집,제주특별자치도 제주시 고마로 144 (이도이동),33.50179,126.5429,정좌표
1558912,미스터리고깃집,제주특별자치도 제주시 다랑곶길 19 (노형동),33.48802,126.48,정좌표
1558915,시민골,"제주특별자치도 제주시 중앙로21길 6, 1층 (이도일동)",33.50833,126.5254,정좌표
1558921,엉덩물,"제주특별자치도 제주시 성두길 7-7 (연동,(성두3로21))",33.49097,126.4949,정좌표
1558972,자구내,제주특별자치도 제주시 삼무로3길 18 (연동),33.49056,126.4941,정좌표
1558994,김밥천국연동점,제주특별자치도 제주시 신광로 47 (연동),33.48776,126.4903,정좌표
1559065,용출,제주특별자치도 제주시 서해안로 660 (용담삼동),33.51622,126.5076,정좌표
1559129,장원삼계탕,제주특별자치도 제주시 조천읍 신북로 258,33.53783,126.6395,정좌표
1559225,산호숯불꼼장어,"제주특별자치도 제주시 원노형로 7 (노형동,(백두2로30))",33.48794,126.4843,정좌표
1559233,남북통일,제주특별자치도 제주시 서사로 180 (오라일동),33.49629,126.5195,정좌표
1559243,명가진숯불갈비,제주특별자치도 제주시 다랑곶6길 52 (노형동),33.49126,126.4787,정좌표
1559253,할머니집,제주특별자치도 제주시 조천읍 남조로 2367,33.4752,126.6555,정좌표
1559461,홍보석,제주특별자치도 제주시 비월길 5 (연동),33.48518,126.4973,정좌표
1559480,강촌숯불닭갈비제주본점,"제주특별자치도 제주시 신대로14길 50, 1층 (연동)",33.488,126.4913,정좌표
1559499,장어나라,제주특별자치도 제주시 중앙로 133 (이도일동),33.50679,126.5251,정좌표
1559502,보롬왓국수,제주특별자치도 제주시 삼무로3길 32 (연동),33.49052,126.4926,정좌표
1559521,순창갈비,"제주특별자치도 제주시 신광로4길 11 (연동,(제원2로21))",33.48873,126.4887,정좌표
1559607,중원(반점),"제주특별자치도 제주시 삼무로 49, 1층 (연동)",33.49013,126.4919,정좌표
1559641,대구,제주특별자치도 제주시 서광로 173 (용담일동),33.50033,126.515,정좌표
1559713,디앤,"제주특별자치도 제주시 광양14길 8, 지하1층 (이도이동)",33.49821,126.5297,정좌표
1559715,돈가,"제주특별자치도 제주시 문송길 36 (연동,(문연1로52))",33.48644,126.4971,정좌표
1559891,남양통닭인화점,제주특별자치도 제주시 고마로17길 3 (일도이동),33.50572,126.5416,정좌표
1559897,영양,제주특별자치도 제주시 남성로 20-1 (용담일동),33.502,126.5131,정좌표
1559905,해금강,제주특별자치도 제주시 서부두길 28 (건입동),33.51911,126.5285,정좌표
1560091,라멘맛심,제주특별자치도 제주시 신대로9길 7 (연동),33.49087,126.4977,정좌표
1560105,우정횟집,제주특별자치도 제주시 서부두길 16 (건입동),33.51768,126.5283,정좌표
1560112,광주복국,제주특별자치도 제주시 탑동로 31 (삼도이동),33.51741,126.5215,정좌표
1560124,철가방,"제주특별자치도 제주시 지석8길 6 (삼양이동,(막동산4로6))",33.5207,126.5813,정좌표
1560164,금보성,"제주특별자치도 제주시 서광로29길 24, 101호 (이도일동)",33.50232,126.5265,정좌표
1560171,대광,"제주특별자치도 제주시 중앙로23길 9, 1층 (이도일동)",33.50723,126.5258,정좌표
1560249,사리원,제주특별자치도 제주시 진군2길 9 (노형동),33.47864,126.4798,정좌표
1560288,해광,제주특별자치도 제주시 산지로 1-2 (건입동),33.51623,126.5308,정좌표
1560316,향천회초밥,제주특별자치도 제주시 신대로18길 56 (연동),33.48491,126.4905,정좌표
1560320,탄광촌,제주특별자치도 제주시 전농로 15 (삼도일동),33.50469,126.5148,정좌표
1560338,카훼리,"제주특별자치도 제주시 서해안로 568, 1층 (용담삼동)",33.51926,126.499,정좌표
1560387,찐국수랑김밥,제주특별자치도 제주시 서광로20길 17 (삼도일동),33.49825,126.5221,정좌표
1560391,불닭공장신산점,"제주특별자치도 제주시 신산로 34, 1층 (일도이동)",33.51034,126.5321,정좌표
1560413,제주섬돈,제주특별자치도 제주시 삼무로3길 46 (연동),33.49066,126.4911,정좌표
1560476,만부정,제주특별자치도 제주시 사장길 38 (연동),33.48268,126.4945,정좌표
1560501,오라버니회센타,"제주특별자치도 제주시 연동11길 36, 1층 (연동)",33.49665,126.5008,정좌표
1560508,빨간맛집제원점,제주특별자치도 제주시 신대로16길 51 (연동),33.48676,126.4911,정좌표
1560535,화통삼신제주점,제주특별자치도 제주시 신광로4길 15 (연동),33.48874,126.4883,정좌표
1560542,경성숯불양꼬치,제주특별자치도 제주시 신대로14길 36 (연동),33.48794,126.4928,정좌표
1560545,황금손,"제주특별자치도 제주시 다랑곶길 15 (노형동,(다랑굿로19))",33.48773,126.4796,정좌표
1560547,화성,제주특별자치도 제주시 일주동로 383 (삼양이동),33.5215,126.5861,정좌표
1560963,백선정식,제주특별자치도 제주시 광양9길 30 (이도이동),33.50066,126.5328,정좌표
1560967,순이네,제주특별자치도 제주시 오복4길 8 (이도이동),33.49543,126.5363,정좌표
1561239,다려도 횟집,제주특별자치도 제주시 조천읍 신북로 544,33.54114,126.6677,정좌표
1561351,첨밀밀양꼬치,제주특별자치도 제주시 조천읍 신북로 544,33.54114,126.6677,정좌표
1561425,논짓물,제주특별자치도 제주시 신대로12길 41 (연동),33.48865,126.4922,정좌표
1564485,멍텅구리24시,제주특별자치도 제주시 도남로 31-1 (도남동),33.49723,126.5262,정좌표
1564490,분위기,"제주특별자치도 제주시 도남로 129, 201동 (도남동,수선화아파트)",33.48941,126.5301,정좌표
1564491,언맥프라이,제주특별자치도 제주시 고마로 130 (이도이동),33.50287,126.5422,정좌표
1564497,피자제이케이,"제주특별자치도 제주시 서광로29길 3, 1층 (이도일동)",33.50072,126.5265,정좌표
1564500,다은식당,제주특별자치도 제주시 오복2길 34 (이도이동),33.49315,126.5369,정좌표
1564529,이비가짬뽕연동점,"제주특별자치도 제주시 연오로 134, 1~2층 (연동)",33.48138,126.5008,정좌표
1564610,종종,"제주특별자치도 제주시 용해로 41, 1층 (용담삼동)",33.51361,126.5029,정좌표
1564611,투다리전농점,"제주특별자치도 제주시 전농로 34, 1층 (삼도일동)",33.50419,126.5168,정좌표
1564613,만호,"제주특별자치도 제주시 연삼로 497, 1~2층 (이도이동)",33.50045,126.5426,정좌표
1564639,먹보횟집,제주특별자치도 제주시 연동11길 24 (연동),33.49665,126.5008,정좌표
1564643,문섬,"제주특별자치도 제주시 원노형로 45, 1층 (노형동)",33.48459,126.4851,정좌표
1564650,동래파전,제주특별자치도 제주시 조천읍 함덕12길 12,33.54101,126.6644,정좌표
1564666,장군닭,"제주특별자치도 제주시 신광로6길 2, 1층 (연동)",33.48808,126.4896,정좌표
1564669,대화,"제주특별자치도 제주시 신대로14길 31 (연동,(연중4로47))",33.4876,126.4931,정좌표
1564681,스시도모다찌,"제주특별자치도 제주시 광양8길 1, 2층 (이도이동)",33.49997,126.5292,정좌표
1564878,해마촌,제주특별자치도 제주시 도남로 61 (도남동),33.49495,126.5278,정좌표
1564888,용의성,제주특별자치도 제주시 서사로 144 (삼도일동),33.49942,126.5196,정좌표
1564892,노형근고기,제주특별자치도 제주시 월랑로 11-1 (노형동),33.48701,126.4777,정좌표
1564898,모임터,"제주특별자치도 제주시 성신북길 30 (연동,(성신9로11))",33.49305,126.4844,정좌표
1564939,노가리앤비어제주시청점,제주특별자치도 제주시 광양8길 6 (이도이동),33.50005,126.5287,정좌표
1564949,임춘,제주특별자치도 제주시 만덕로 25 (건입동),33.51424,126.5321,정좌표
1564959,바다예찬,"제주특별자치도 제주시 귀아랑길 26, 1층 (연동)",33.49138,126.4972,정좌표
1565157,동아리봉개점,제주특별자치도 제주시 번영로 487 (봉개동),33.49103,126.5942,정좌표
1565160,으네식당,제주특별자치도 제주시 서광로26길 8 (삼도일동),33.49917,126.5242,정좌표
1565162,씨가,제주특별자치도 제주시 평전길 10 (삼도일동),33.50079,126.5193,정좌표
1565163,일등본가,"제주특별자치도 제주시 수덕9길 4, 101호 (노형동, 무궁화빌라)",33.48792,126.4765,정좌표
1565243,까투리시민점,"제주특별자치도 제주시 중앙로 137, 1층 (이도일동)",33.50656,126.5252,정좌표
1565244,만궁,제주특별자치도 제주시 중앙로 451-3 (아라이동),33.48346,126.5439,정좌표
1565299,촌놈,제주특별자치도 제주시 원노형남1길 36 (노형동),33.48388,126.4841,정좌표
1565403,우창갈비,제주특별자치도 제주시 원노형3길 6 (노형동),33.48669,126.4853,정좌표
1565413,해모루,"제주특별자치도 제주시 월랑로4길 6, 1층 (노형동)",33.48788,126.4785,정좌표
1565701,소영,제주특별자치도 제주시 삼무로9길 16 (연동),33.4923,126.4946,정좌표
1565704,일품양평해장국봉개점,"제주특별자치도 제주시 번영로 546 (봉개동,(동부관광도로542))",33.48758,126.599,정좌표
1565730,제주정지,"제주특별자치도 제주시 서해안로 480, 1층 (용담삼동)",33.51893,126.4904,정좌표
1566255,태백산맥,"제주특별자치도 제주시 다랑곶7길 31 (노형동,태화주택101호(다랑굿8로47))",33.49114,126.4793,정좌표
1566256,거부,제주특별자치도 제주시 제원4길 3 (연동),33.48635,126.4888,정좌표
1566258,종로3가,"제주특별자치도 제주시 북성로 5 (삼도이동,(북성로9))",33.51554,126.5238,정좌표
1566305,짚동가리쌩주시청점,"제주특별자치도 제주시 신성로13길 6, 1~2층 (이도이동)",33.49944,126.529,정좌표
1566312,미술관에서,"제주특별자치도 제주시 독짓골2길 17, 102호 (도남동)",33.49087,126.5301,정좌표
1566314,통김치찌개,"제주특별자치도 제주시 원노형10길 20, 1층 105호 (노형동)",33.48402,126.4858,정좌표
1566340,탐라요정신제주점,"제주특별자치도 제주시 연동7길 31, 2층 (연동)",33.49693,126.5012,정좌표
1566357,세안아구찜,"제주특별자치도 제주시 신대로20길 12 (연동,(사장4로16))",33.48387,126.4951,정좌표
1566373,제주오빠네만두,"제주특별자치도 제주시 동문로4길 18, 1층 (일도일동)",33.51225,126.5273,정좌표
1566463,베이징훠궈양꼬치,"제주특별자치도 제주시 칠성로길 31-1 (일도일동,(칠성2로27))",33.51457,126.5262,정좌표
1566466,시골길,"제주특별자치도 제주시 연동13길 9 (연동,(은남2로13))",33.49647,126.5006,정좌표
1567994,그릴쪽갈비,"제주특별자치도 제주시 광양13길 9, 1층 (이도이동)",33.49907,126.5314,정좌표
1567999,막창,"제주특별자치도 제주시 연동9길 29 (연동,(은남4로20))",33.49684,126.5011,정좌표
1568001,삼부자초밥,"제주특별자치도 제주시 금산5길 9 (화북일동,(진서로13))",33.52403,126.565,정좌표
1568004,가담국수,제주특별자치도 제주시 월랑로10길 21 (노형동),33.49031,126.4776,정좌표
1568039,고니,제주특별자치도 제주시 신대로 119 (연동),33.48658,126.4968,정좌표
1568043,원풍해장국,제주특별자치도 제주시 조천읍 함덕24길 6-6,33.53941,126.675,정좌표
1568073,강명선샤브샤브,제주특별자치도 제주시 귀아랑길 14 (연동),33.49224,126.4973,정좌표
1568138,안전,제주특별자치도 제주시 사라봉길 4 (건입동),33.51443,126.5392,정좌표
1568240,서부두한라,제주특별자치도 제주시 서부두길 8 (건입동),33.51709,126.528,정좌표
1568245,학사,"제주특별자치도 제주시 서문로4길 13-2, 137호 (용담일동)",33.51135,126.5179,정좌표
1568255,영미,제주특별자치도 제주시 신산로2길 9 (일도일동),33.51245,126.5309,정좌표
1568435,송탄부대찌개집,제주특별자치도 제주시 신대로12길 11 (연동),33.48856,126.4952,정좌표
1568462,참맛나흑돼지,제주특별자치도 제주시 신대로8길 29 (연동),33.49184,126.4936,정좌표
1568485,왕고모네국수,제주특별자치도 제주시 신산로 77 (일도이동),33.50696,126.5348,정좌표
1568487,노형호수,"제주특별자치도 제주시 월랑로4길 31 (노형동,(월랑1로43))",33.4895,126.4801,정좌표
1568603,벅스,제주특별자치도 제주시 신광로 48 (연동),33.48778,126.4898,정좌표
1568605,파라디스코,"제주특별자치도 제주시 광양8길 17, 1층 (이도이동)",33.49969,126.5276,정좌표
1568612,신화파전,제주특별자치도 제주시 신대로14길 49 (연동),33.48771,126.4912,정좌표
1568617,요망,제주특별자치도 제주시 조천읍 신북로 536-1,33.54141,126.6671,정좌표
1568635,산내들,제주특별자치도 제주시 서광로4길 16 (오라일동),33.49865,126.514,정좌표
1568824,신동양,제주특별자치도 제주시 임항로 284 (건입동),33.5156,126.5382,정좌표
1568840,천궁,제주특별자치도 제주시 서부두길 26 (건입동),33.51852,126.5285,정좌표
1568845,미도락,제주특별자치도 제주시 서부두남길 9 (일도일동),33.51495,126.5275,정좌표
1568848,윤가네뼈다귀,제주특별자치도 제주시 화남로 53 (화북일동),33.51334,126.5637,정좌표
1568851,수목원,"제주특별자치도 제주시 연화로 57 (연동,(과원1로35))",33.47651,126.4874,정좌표
1568911,비에이치씨인제점,제주특별자치도 제주시 고마로 129 (일도이동),33.50313,126.5426,정좌표
1568943,화제집중,"제주특별자치도 제주시 다랑곶길 19 (노형동,(다랑굿로27))",33.48802,126.48,정좌표
1568948,간또일도점,"제주특별자치도 제주시 고마로 145-1, 1층 (일도이동)",33.50179,126.5434,정좌표
1568958,베지근국수,"제주특별자치도 제주시 동문로 6-8, 1층 (일도일동)",33.51221,126.527,정좌표
1568973,성심각,제주특별자치도 제주시 도남로15길 4-6 (도남동),33.49095,126.5289,정좌표
1568993,해상,"제주특별자치도 제주시 연삼로 507 (이도이동,(연삼로525))",33.50089,126.5434,정좌표
1569073,도두,제주특별자치도 제주시 도두3길 48 (도두일동),33.50398,126.4675,정좌표
1569085,태선,제주특별자치도 제주시 중앙로23길 2 (이도일동),33.50684,126.5253,정좌표
1569150,대봉,"제주특별자치도 제주시 일주서로 7330 (외도일동,(연도로683))",33.4927,126.4304,정좌표
1569162,참치라이더,제주특별자치도 제주시 은남3길 1 (연동),33.48713,126.4955,정좌표
1569167,우도통닭,제주특별자치도 제주시 우도면 우도로 180,33.50828,126.9536,정좌표
1569168,족족족,제주특별자치도 제주시 신성로 90 (도남동),33.49602,126.5289,정좌표
1569171,추억공감,"제주특별자치도 제주시 월랑로4길 15 (노형동, 제1호)",33.48862,126.4787,정좌표
1569176,르부이부이,"제주특별자치도 제주시 사라봉7길 32, 1층 101호 (건입동, 성원연립)",33.51541,126.5395,정좌표
1569209,달아별아,제주특별자치도 제주시 가령로4길 26 (이도이동),33.49795,126.5355,정좌표
1569212,오월수산장어집,제주특별자치도 제주시 신대로12길 35 (연동),33.48863,126.4928,정좌표
1569226,독도는우리땅,제주특별자치도 제주시 은남길 30 (연동),33.48711,126.4956,정좌표
1569234,나니와,제주특별자치도 제주시 연동3길 36 (연동),33.49739,126.5009,정좌표
1569242,한라마루,제주특별자치도 제주시 산천단동1길 20 (아라일동),33.44961,126.5573,정좌표
1569265,주민상회노형점,"제주특별자치도 제주시 다랑곶2길 12, 1층 (노형동)",33.48818,126.4789,정좌표
1569274,삼무삼계탕,제주특별자치도 제주시 신대로10길 55 (연동),33.49081,126.4907,정좌표
1569276,토대력올레점,제주특별자치도 제주시 고마로 136 (이도이동),33.50236,126.5425,정좌표
1569290,국민닭발,"제주특별자치도 제주시 연동13길 9 (연동,(은남2로13))",33.49647,126.5006,정좌표
1569297,비비큐신제주연동점,"제주특별자치도 제주시 신대로20길 34, 1층 (연동)",33.48385,126.4928,정좌표
1569328,춘천명동닭갈비일도점,제주특별자치도 제주시 고마로 131 (일도이동),33.50298,126.5427,정좌표
1569333,유달산,제주특별자치도 제주시 중앙로1길 16 (건입동),33.51616,126.5264,정좌표
1569354,금화정육식당,제주특별자치도 제주시 도령로11길 23 (연동),33.49245,126.4864,정좌표
1569395,동천숫불갈비,제주특별자치도 제주시 조천읍 신북로 201,33.53529,126.6348,정좌표
1569401,천금,"제주특별자치도 제주시 북성로 7, 1층 (삼도이동)",33.51557,126.5237,정좌표
1570850,정통옛날손,제주특별자치도 제주시 진남로4길 21 (화북일동),33.52184,126.564,정좌표
1570851,연예인,제주특별자치도 제주시 삼무로11길 36 (연동),33.49042,126.4957,정좌표
1570873,재벌,"제주특별자치도 제주시 도령로7길 20 (연동,신광아파트106호(성신4로9))",33.49079,126.4844,정좌표
1571052,막창먹는놈본점,제주특별자치도 제주시 도남로 52 (도남동),33.49567,126.527,정좌표
1571059,황포돛대,"제주특별자치도 제주시 연삼로 474 (이도이동,(연삼로494))",33.49882,126.5408,정좌표
1571060,윤재커피,"제주특별자치도 제주시 중앙로12길 1, 1층 (이도일동)",33.51184,126.5241,정좌표
1571258,앞뱅디,제주특별자치도 제주시 선덕로 32 (연동),33.48537,126.4999,정좌표
1571418,부촌,제주특별자치도 제주시 도남로6길 1 (도남동),33.49635,126.5247,정좌표
1571421,한방약순대,제주특별자치도 제주시 중앙로26길 7 (삼도이동),33.50555,126.5246,정좌표
1571425,유일,제주특별자치도 제주시 광양7길 13 (이도이동),33.50101,126.5307,정좌표
1571472,외도식당,제주특별자치도 제주시 도근내길 33 (외도이동),33.49233,126.4346,정좌표
1571486,소라,"제주특별자치도 제주시 서부두길 18-2, 1~3층 (건입동)",33.51792,126.5284,정좌표
1571602,유명야시장,제주특별자치도 제주시 서부두길 6 (건입동),33.51701,126.528,정좌표
1571617,오뚜기,제주특별자치도 제주시 용남길 27 (용담일동),33.50974,126.5139,정좌표
1571729,만복,"제주특별자치도 제주시 서문로4길 13-2, 140호 (용담일동)",33.51135,126.5179,정좌표
1571730,토크쇼이도점,"제주특별자치도 제주시 남광로 9 (이도이동,(남광로11))",33.49257,126.5371,정좌표
1571732,제일식당,제주특별자치도 제주시 추자면 추자로 16-2,33.96364,126.2972,정좌표
1571784,또장군,"제주특별자치도 제주시 신대로10길 32 (연동,(성두4로46))",33.49103,126.4933,정좌표
1571801,남촌,제주특별자치도 제주시 서광로 174 (오라일동),33.49993,126.5153,정좌표
1571802,한라,제주특별자치도 제주시 광양9길 19 (이도이동),33.50035,126.5318,정좌표
1572170,옛골,"제주특별자치도 제주시 광양8길 1-6, 2층 (이도이동)",33.49959,126.5294,정좌표
1572177,낭푼이닭한마리,제주특별자치도 제주시 광양13길 6-4 (이도이동),33.49845,126.5313,정좌표
1572187,맛있다고소문난집,"제주특별자치도 제주시 고마로9길 4 (일도이동,(인화3로18))",33.51015,126.5397,정좌표
1572190,양촌,"제주특별자치도 제주시 연동1길 10 (연동,(연제3로14))",33.48909,126.4866,정좌표
1572191,도리골토종닭,제주특별자치도 제주시 조천읍 남조로 1772-8,33.42624,126.6751,정좌표
1572225,오동도,제주특별자치도 제주시 중앙로1길 18 (건입동),33.51614,126.5265,정좌표
1572235,소달구지,"제주특별자치도 제주시 정든로 27 (이도이동,(정든길60))",33.49722,126.5416,정좌표
1572236,해장길,"제주특별자치도 제주시 신대로12길 7, 1층 (연동)",33.48855,126.4955,정좌표
1572280,뱃머리,제주특별자치도 제주시 임항로 43 (건입동),33.51691,126.5293,정좌표
1572284,멕시카나치킨용담점,제주특별자치도 제주시 서사로 10 (용담일동),33.51158,126.5192,정좌표
1572286,거마가든,제주특별자치도 제주시 금월길 105 (아라이동),33.48034,126.5542,정좌표
1572289,초원식당,제주특별자치도 제주시 조천읍 신북로 598,33.53964,126.6732,정좌표
1572593,미송식탁,제주특별자치도 제주시 삼무로11길 36 (연동),33.49042,126.4957,정좌표
1572626,부산서면양곱창,"제주특별자치도 제주시 연동8길 8, 1층 (연동)",33.49659,126.5013,정좌표
1572640,두루두루,"제주특별자치도 제주시 삼무로3길 14 (연동,(성두5로22))",33.49047,126.4944,정좌표
1572684,흑돼지가있는풍경노형점,제주특별자치도 제주시 진군1길 27 (노형동),33.47887,126.4792,정좌표
1572699,솔참치,"제주특별자치도 제주시 연동8길 32 (연동,(도호1로42))",33.49659,126.5013,정좌표
1572704,고집돌우럭제주공항점,제주특별자치도 제주시 임항로 30 (건입동),33.51626,126.5281,정좌표
1575431,연정,제주특별자치도 제주시 신광로10길 29 (연동),33.48379,126.4868,정좌표
1575620,투다리신제주점,"제주특별자치도 제주시 신대로16길 52 (연동,(연중6로13))",33.48705,126.491,정좌표
1575628,장인곱창,제주특별자치도 제주시 연동8길 8 (연동),33.49659,126.5013,정좌표
1575637,어우렁국수,제주특별자치도 제주시 광양9길 23 (이도이동),33.50058,126.5321,정좌표
1575645,24시얼큰시원생고기김치찌개노형점,"제주특별자치도 제주시 수덕5길 5 (노형동,(수덕5로7))",33.48694,126.4773,정좌표
1575682,달빛무리,제주특별자치도 제주시 삼무로3길 18 (연동),33.49056,126.4941,정좌표
1575690,루스트플레이스인제점,제주특별자치도 제주시 고마로 103 (일도이동),33.50529,126.5416,정좌표
1575756,넉둥베기고사리육개장,"제주특별자치도 제주시 서문로 9-1, 1층 (용담일동)",33.50985,126.5126,정좌표
1576109,스페샬한라점,"제주특별자치도 제주시 정존11길 35 (노형동,삼환2차아파트 나동10(노형초등길35))",33.48618,126.4742,정좌표
1576112,교래향,제주특별자치도 제주시 조천읍 비자림로 638,33.43506,126.6763,정좌표
1576434,미스터스위츠,"제주특별자치도 제주시 서광로5길 9 (용담일동,(호수2로13))",33.50101,126.5142,정좌표
1576462,어촌,제주특별자치도 제주시 신성로 63 (도남동),33.49562,126.5264,정좌표
1576463,감수촌,"제주특별자치도 제주시 지석13길 7, 1층 (삼양이동)",33.52176,126.5851,정좌표
1576473,아서원,"제주특별자치도 제주시 서사로6길 2, 1층 (삼도일동)",33.50822,126.5195,정좌표
1577193,제주함덕저팔계깡통연탄구이,제주특별자치도 제주시 조천읍 신북로 531,33.5417,126.6667,정좌표
1577963,호수아귀찜,"제주특별자치도 제주시 중앙로 137-2, 1층 (이도일동)",33.50646,126.5253,정좌표
1577965,차돌집,제주특별자치도 제주시 신대로10길 29 (연동),33.49068,126.4935,정좌표
1578024,대관령,"제주특별자치도 제주시 신대로16길 56 (연동,(연중6로5))",33.48705,126.4905,정좌표
1578025,진이,"제주특별자치도 제주시 516로 3109 (아라일동,(516도로49))",33.45135,126.5515,정좌표
1578029,아성,제주특별자치도 제주시 신성로 59 (도남동),33.49566,126.5258,정좌표
1578037,대일,제주특별자치도 제주시 서광로32길 24 (이도이동),33.49857,126.5289,정좌표
1578043,맛나,"제주특별자치도 제주시 동광로1길 32 (이도일동,(광양초등길58))",33.5033,126.5279,정좌표
1578070,보경,"제주특별자치도 제주시 흥운길 18 (용담이동,(용운로38))",33.51053,126.5115,정좌표
1578110,자매예술국수,제주특별자치도 제주시 서사로 75 (삼도이동),33.50567,126.5202,정좌표
1578112,베이스노트,"제주특별자치도 제주시 선덕로5길 21, 1층 (연동)",33.48774,126.5,정좌표
1578122,포동정식,"제주특별자치도 제주시 문송길 18, 1층 (연동)",33.48823,126.4971,정좌표
1578132,오솔길,제주특별자치도 제주시 임항로 264 (건입동),33.51739,126.5382,정좌표
1578142,할망곰탕집,"제주특별자치도 제주시 용해로 65 (용담이동,(용해로67))",33.51165,126.5034,정좌표
1578151,이쯔모,제주특별자치도 제주시 연동4길 12 (연동),33.49723,126.5008,정좌표
1578152,오일삼삼,제주특별자치도 제주시 도남로 72 (도남동),33.49398,126.5277,정좌표
1578162,노가네전이랑국수,"제주특별자치도 제주시 신광로8길 3, 1층 (연동)",33.4868,126.4895,정좌표
1578164,춘월맛집,"제주특별자치도 제주시 도두항서길 5, 1,2층 (도두일동)",33.5049,126.4662,정좌표
1578174,슈퍼보틀,"제주특별자치도 제주시 은남1길 46, 1~2층 (연동)",33.48944,126.491,정좌표
1578184,제주동백을담다,"제주특별자치도 제주시 구산로 41, 1층 (아라일동)",33.48394,126.5395,정좌표
1578192,크라운호프연동점,"제주특별자치도 제주시 신대로 125, 1층 (연동)",33.48601,126.4968,정좌표
1578202,만나집밥,"제주특별자치도 제주시 동광로21길 7, 1층 (일도이동)",33.50994,126.5421,정좌표
1578204,프렌즈타임,"제주특별자치도 제주시 청사로 9, 1층 (도남동)",33.4901,126.52,정좌표
1578214,진달래냉면,"제주특별자치도 제주시 원노형로 35, 1층 101호 (노형동, 송우수자인아파트)",33.48559,126.4851,정좌표
1578223,흑화당제주제원점,"제주특별자치도 제주시 신광로6길 1, 1층 (연동)",33.4877,126.4895,정좌표
1578243,처갓집양념치킨노형점,"제주특별자치도 제주시 월랑북길 10, 1층 (노형동)",33.49076,126.4753,정좌표
1578253,오부자갈비탕,"제주특별자치도 제주시 금월길 104, 1층 (아라이동)",33.47986,126.5536,정좌표
1578326,명륜진사갈비일도점,"제주특별자치도 제주시 동광로 106, 1층 (일도이동)",33.50581,126.5388,정좌표
1578349,원조호수아구찜,"제주특별자치도 제주시 다랑곶4길 20, 1층 (노형동)",33.48853,126.4802,정좌표
1578352,술쳐먹었으면,"제주특별자치도 제주시 건주로4길 6-4, 제주 아빌로스 1층 108호 (도련일동)",33.51628,126.5803,정좌표
1578353,정직한통닭삼도점,"제주특별자치도 제주시 무근성7길 28, 1층 (삼도이동)",33.51481,126.521,정좌표
1578365,육수당제주봉개점,"제주특별자치도 제주시 진목5길 1, 2층 202호 (봉개동)",33.48951,126.5988,정좌표
1578381,통큰갈비연동점,"제주특별자치도 제주시 연삼로 128, 2층 (오라삼동)",33.49273,126.5059,정좌표
1578386,봉골레밥상,"제주특별자치도 제주시 추자면 대서3길 40, 1층",33.96293,126.2946,정좌표
1578387,아다미,"제주특별자치도 제주시 신성로13길 25, 2층 (이도이동)",33.49807,126.5302,정좌표
1578403,순옥이네,"제주특별자치도 제주시 조천읍 함덕로 6, 2층",33.54062,126.674,정좌표
1579255,해조곱창,"제주특별자치도 제주시 월랑로10길 12, 1층 101호 (노형동, 노형위더스빌15차)",33.48955,126.4772,정좌표
1579265,가시어멍회국수,"제주특별자치도 제주시 우도면 우도해안길 508, 1층",33.51972,126.949,정좌표
1579280,동부산가든,"제주특별자치도 제주시 봉개북1길 10, 1층 (봉개동)",33.49112,126.5955,정좌표
1579312,또똣,제주특별자치도 제주시 동화로 12 (화북일동),33.51877,126.5727,정좌표
1579331,푸라닭제주삼화점,"제주특별자치도 제주시 화삼로1길 18, 1층 (화북일동)",33.51477,126.5757,정좌표
1579381,회춘,"제주특별자치도 제주시 조천읍 신북로 489, 1층",33.54313,126.6626,정좌표
1580069,노형바다장어,"제주특별자치도 제주시 광평동로 12, 1층 (노형동)",33.48157,126.4714,정좌표
1580073,국수한상,"제주특별자치도 제주시 남광로 7, 1층 (이도이동)",33.4925,126.537,정좌표
1580117,경성통닭,"제주특별자치도 제주시 연오로 62, 1층 (연동)",33.48783,126.5015,정좌표
1580509,인화동한우,"제주특별자치도 제주시 천수로13길 17, 1층 (일도이동)",33.50714,126.5434,정좌표
1580527,감성카페심지,"제주특별자치도 제주시 칠성로길 8, 1층 (일도일동)",33.51355,126.5239,정좌표
1580530,화정,"제주특별자치도 제주시 선덕로3길 44, 1층 (연동)",33.48846,126.4997,정좌표
1580543,어제보다오늘,"제주특별자치도 제주시 서해안로 68, 1층 (이호일동)",33.50286,126.457,정좌표
1580657,낭푼밥상,"제주특별자치도 제주시 연동6길 28, 1층 (연동, 영일빌라)",33.49695,126.5013,정좌표
1580727,가락동리어카포차외도점,"제주특별자치도 제주시 우령2길 21, 1층 101호 (외도일동, 탑빌라트)",33.48728,126.4317,정좌표
1580729,한라닭강정,"제주특별자치도 제주시 서문로 49, 1층 (용담일동)",33.51132,126.5165,정좌표
1580812,제주평양옥,"제주특별자치도 제주시 청사로 40, 1층 (도남동)",33.48957,126.5232,정좌표
1580850,바움하우스,"제주특별자치도 제주시 서해안로 448, 1,2층 (용담삼동)",33.51769,126.4875,정좌표
1581124,프로파간다,"제주특별자치도 제주시 아란11길 9-13, 1층 (아라일동)",33.46969,126.543,정좌표
1581134,와이엘,"제주특별자치도 제주시 광양10길 23, 1층 제1호 (이도이동)",33.49842,126.5281,정좌표
1581138,갓포아키제주도점,"제주특별자치도 제주시 노연로 80, 메종글래드 제주 1층 (연동)",33.4856,126.4889,정좌표
1581188,정진숯불갈비,제주특별자치도 제주시 평전길 25 (삼도일동),33.50221,126.5191,정좌표
1581197,513텐동,"제주특별자치도 제주시 테우해안로 46, 2층 (내도동)",33.49577,126.44,정좌표
1581349,원조부안집연동점,"제주특별자치도 제주시 신대로16길 41, 1층 2호 (연동)",33.48668,126.4921,정좌표
1581376,일상다반사,"제주특별자치도 제주시 신대로12길 10, 1층 101호 (연동)",33.48884,126.4953,정좌표
1581415,오라단비네커피,"제주특별자치도 제주시 오라로 114, 1층 (오라일동)",33.49436,126.5148,정좌표
1581423,도마도숯불갈비,"제주특별자치도 제주시 서광로 201, 1층 (삼도일동)",33.50032,126.5181,정좌표
1581428,맛조림,"제주특별자치도 제주시 다랑곶길 29, 101동 101호 (노형동, 대성연립주택)",33.48877,126.4807,정좌표
1581477,숙성도실버,"제주특별자치도 제주시 신성로13길 20, 1층 (이도이동)",33.49844,126.5297,정좌표
1581541,탱테일,"제주특별자치도 제주시 원노형5길 19, 에코휴리움 오피스 1층 102호 (노형동)",33.4874,126.4836,정좌표
1581566,누나홀닭함덕점,"제주특별자치도 제주시 조천읍 신북로 543, 1층",33.54166,126.6681,정좌표
1581606,카페모레,"제주특별자치도 제주시 테우해안로 160, 1층 (이호일동)",33.49675,126.4508,정좌표
1581639,햇살머믄꼬마김밥,"제주특별자치도 제주시 우정로13길 14, 1층 (외도일동)",33.4869,126.4324,정좌표
1581645,방방파티,"제주특별자치도 제주시 지석8길 13-22, 2층 (삼양이동)",33.5198,126.5823,정좌표
1581709,조천밀밀면,"제주특별자치도 제주시 조천읍 조와로 366, 1층",33.50409,126.6356,정좌표
1581773,연가갈비,"제주특별자치도 제주시 독짓골2길 4, 1층 (도남동)",33.49173,126.5291,정좌표
1581783,왓섬,"제주특별자치도 제주시 오등4길 3, 나동 1층 (오등동)",33.46632,126.5221,정좌표
1581800,식당마요네즈,"제주특별자치도 제주시 다랑곶3길 18, 1층 (노형동)",33.48891,126.4787,정좌표
1582025,작은언덕의선물,"제주특별자치도 제주시 중산간동로 188-8, 1층 (회천동)",33.50162,126.6107,정좌표
1582045,마미포유카페,"제주특별자치도 제주시 해안마을서4길 131, 2층 (해안동)",33.45081,126.453,정좌표
1582046,봉개소라횟집,"제주특별자치도 제주시 봉개대동8길 9, 1층 (봉개동)",33.48728,126.5974,정좌표
1582055,황금어가,"제주특별자치도 제주시 복지로5길 11, 1~2층 (도남동)",33.48886,126.5246,정좌표
1582095,청빈,"제주특별자치도 제주시 수덕11길 17, 1층 (노형동, 협신빌라)",33.48703,126.4748,정좌표
1582096,북촌삼대갈비건입동점,"제주특별자치도 제주시 동문로 97, 1층 (건입동)",33.51412,126.5371,정좌표
1582099,식전당포,제주특별자치도 제주시 광양14길 17-1 (이도이동),33.49761,126.5293,정좌표
1582111,제주고집,"제주특별자치도 제주시 서해안로 368-10, 1층 (도두이동)",33.51096,126.4848,정좌표
1582847,홍대98돈까스,"제주특별자치도 제주시 아란5길 18, 1층 (아라일동)",33.47512,126.5436,정좌표
1582885,이오리동문점,"제주특별자치도 제주시 산지로 31-1, 1층 (일도일동)",33.51403,126.5289,정좌표
1582892,황룡,"제주특별자치도 제주시 우령8길 8, 1층 (외도일동)",33.49068,126.427,정좌표
1582915,대독장화북점,"제주특별자치도 제주시 일주동로 87, 1층 (화북일동)",33.51462,126.5558,정좌표
1582956,골목정육식당,"제주특별자치도 제주시 연무정길 53, 1층 (건입동)",33.51499,126.5336,정좌표
1582967,혼디,"제주특별자치도 제주시 진군길 19-3, 1층 (노형동)",33.48007,126.4815,정좌표
1582991,야끼니꾸엔순옥상회,"제주특별자치도 제주시 용담로 85-1, 1층 (용담이동)",33.51234,126.512,정좌표
1582992,깡촌흑돼지일도점,"제주특별자치도 제주시 고마로 126, 1층 (이도이동)",33.50321,126.542,정좌표
1583005,훈이네,"제주특별자치도 제주시 조천읍 선교로 460, 1층",33.46497,126.7105,정좌표
1583197,크라운호프제주시청점,"제주특별자치도 제주시 서광로32길 8, 1층 (이도이동)",33.49967,126.5281,정좌표
1583204,빨간집삼화지구점,"제주특별자치도 제주시 화삼로1길 20, A동 1층 (화북일동)",33.51482,126.576,정좌표
1583218,인쌩맥주제주노형점,"제주특별자치도 제주시 다랑곶1길 9, 1층 (노형동)",33.48758,126.4782,정좌표
1583236,제철별미,"제주특별자치도 제주시 원노형3길 28, 1층 (노형동)",33.48678,126.4831,정좌표
1583246,카페바나나함덕점,"제주특별자치도 제주시 조천읍 신북로 491-9, 3층",33.54382,126.6631,정좌표
1584920,가자스크린골프,"제주특별자치도 제주시 우정로 24, 우정빌딩 3층 (외도일동)",33.49072,126.4307,정좌표
1584925,암사동벼락,"제주특별자치도 제주시 우정로4길 35, 지하1층 (외도일동, 네오하임6차)",33.4911,126.4273,정좌표
1584926,위트레이즌,"제주특별자치도 제주시 신성로 82-8, 1층 (도남동)",33.49503,126.5281,정좌표
1585188,요강깨는장어,"제주특별자치도 제주시 신산로 20-1, 1층 (일도이동)",33.51141,126.5315,정좌표
1585212,한짓골갈비,"제주특별자치도 제주시 구남동1길 13, 1층 (이도이동)",33.49156,126.5385,정좌표
1585224,배떡화북삼화점,"제주특별자치도 제주시 진남로 51-1, 1층 (화북일동)",33.52358,126.5656,정좌표
1585227,종로빈대떡,"제주특별자치도 제주시 용담로 122, 1층 (용담일동)",33.50985,126.5146,정좌표
1585238,용당밀면,제주특별자치도 제주시 월랑로6길 23 (노형동),33.48968,126.4787,정좌표
1585241,역전할머니삼화점,"제주특별자치도 제주시 화삼북로 66, 1층 (도련일동)",33.51711,126.5799,정좌표
1585267,오사부양꼬치마라탕,"제주특별자치도 제주시 화삼북로 66, 1층 (도련일동)",33.51711,126.5799,정좌표
1585279,제주주당,"제주특별자치도 제주시 동광로17길 3, 1층 (일도이동)",33.50732,126.5395,정좌표
1585475,임당수횟집,"제주특별자치도 제주시 테우해안로 46, 1층 (내도동)",33.49577,126.44,정좌표
1585493,더시그니처,"제주특별자치도 제주시 신광로 47, 2층 (연동)",33.48776,126.4903,정좌표
1585798,1974한식뷔페,"제주특별자치도 제주시 연북로 92, 진현빌딩 2층 201호 (연동)",33.4815,126.4912,정좌표
1585799,귤낭,"제주특별자치도 제주시 고사마루길 69, 1층 (노형동)",33.4749,126.4731,정좌표
1585804,퍼블릭하우스빈스,"제주특별자치도 제주시 수덕로 69, 1층 (노형동)",33.48442,126.4706,정좌표
1585805,더찬,"제주특별자치도 제주시 신설로11길 7, 1층 (아라이동)",33.49192,126.5442,정좌표
1585813,외도리빙스크린골프,"제주특별자치도 제주시 우정로15길 44, 4층 (외도일동)",33.48842,126.4327,정좌표
1585816,맵찜,"제주특별자치도 제주시 조천읍 선교로 519, 1층",33.45958,126.7121,정좌표
1586260,나들목,"제주특별자치도 제주시 우도면 우도해안길 73, 1층",33.49303,126.951,정좌표
1586388,뽕스차이나,"제주특별자치도 제주시 아란8길 10, 1층 (아라일동)",33.47357,126.5445,정좌표
1586422,낙지코지,"제주특별자치도 제주시 조천읍 조함해안로 488, 1층",33.54274,126.6649,정좌표
1586534,제주황제물회,"제주특별자치도 제주시 아란7길 20, 1층 (아라일동)",33.4746,126.5433,정좌표
1586575,고양옥,"제주특별자치도 제주시 연신로 78, 1층 (이도이동)",33.49454,126.5481,정좌표
1586637,삼양장원,"제주특별자치도 제주시 일주동로 394, 1층 (삼양이동)",33.52112,126.5871,정좌표
1586917,루스트플레이스시청점,"제주특별자치도 제주시 중앙로 230-1, 1층 (이도이동)",33.49897,126.5298,정좌표
1586994,제주돈대패삼겹살,"제주특별자치도 제주시 지석9길 5, 1층 (삼양이동)",33.52178,126.5827,정좌표
1587006,화목원,"제주특별자치도 제주시 연화남길 41, A동 1층 (연동)",33.47258,126.4885,정좌표
1589310,산전수전,"제주특별자치도 제주시 중앙로24길 20, 1층 (삼도이동)",33.50611,126.523,정좌표
1589313,삼무해장국밥,"제주특별자치도 제주시 신대로10길 22, 101호 (연동)",33.49098,126.4944,정좌표
1589314,춘심이네2호점,"제주특별자치도 제주시 1100로 3114, 1층 (노형동)",33.46441,126.4853,정좌표
1589469,엄마뼈해장국,"제주특별자치도 제주시 성화로7길 22, 1층 (용담이동)",33.51205,126.5054,정좌표
1589476,장어통일노형점,"제주특별자치도 제주시 남녕로 47 (노형동,(남녕로67))",33.49156,126.4797,정좌표
1589483,제주포램,"제주특별자치도 제주시 국기중길 4 (연동,(국기1로 2))",33.48066,126.491,정좌표
1589494,라멘신주쿠,"제주특별자치도 제주시 노형로 407, 520호 (노형동)",33.48582,126.4783,정좌표
1589502,본가제주아라점,"제주특별자치도 제주시 간월동로 6, 1층 (아라이동)",33.48503,126.5435,정좌표
1589537,보리밥과수제비,"제주특별자치도 제주시 가령로 61-1, 1층 (이도이동)",33.49895,126.5371,정좌표
1589587,청정식당,"제주특별자치도 제주시 천수로6길 29, 1층 (이도이동)",33.50102,126.5432,정좌표
1589596,함덕쉼팡,"제주특별자치도 제주시 조천읍 조함해안로 584, 1층",33.54401,126.674,정좌표
1589650,우뚝,"제주특별자치도 제주시 탑동로 117, 1층 (삼도이동)",33.51485,126.5179,정좌표
1589652,죠스떡볶이제주제원점,제주특별자치도 제주시 신광로 48 (연동),33.48778,126.4898,정좌표
1589683,탑만석궁식당,"제주특별자치도 제주시 무근성7길 1, 1층 (삼도이동)",33.51301,126.5198,정좌표
1589684,난타5000연동신광점,"제주특별자치도 제주시 성신로 24, 1층 (연동)",33.49185,126.4852,정좌표
1589691,밥부터먹자,"제주특별자치도 제주시 용두암길 2, 1층 (용담이동)",33.51458,126.5109,정좌표
1589715,테이스트제주,"제주특별자치도 제주시 탑동로 115-2, 1층 (삼도이동)",33.5149,126.5178,정좌표
1589716,포도원흑돼지,제주특별자치도 제주시 1100로 3155 (노형동),33.46818,126.4847,정좌표
1589837,맛깔참죽,제주특별자치도 제주시 신성로 77 (도남동),33.49562,126.5276,정좌표
1589848,고보배국밥,제주특별자치도 제주시 남광북3길 24 (이도이동),33.49513,126.5366,정좌표
1589855,완이네가정식뷔페,"제주특별자치도 제주시 연삼로 546, 1층 (일도이동)",33.50226,126.5474,정좌표
1589856,연태만,"제주특별자치도 제주시 중앙로21길 10, 1층 (이도일동)",33.50811,126.5253,정좌표
1589952,온오프,"제주특별자치도 제주시 우도면 우도해안길 876, 1층",33.51292,126.9613,정좌표
1590415,비에이치씨삼화점,"제주특별자치도 제주시 건주로4길 34, 1층 102호 (도련일동)",33.51676,126.5794,정좌표
1590497,지지지,"제주특별자치도 제주시 신대로 104, A,B동 1층 (연동)",33.48798,126.4959,정좌표
1591635,현주네치킨,제주특별자치도 제주시 정존15길 32 (노형동),33.48766,126.4768,정좌표
1591648,봉개주몽,"제주특별자치도 제주시 번영로 483 (봉개동,(동부관광도로467))",33.49127,126.5939,정좌표
1591651,그랜드부민,"제주특별자치도 제주시 연북로 378, 1층 (도남동)",33.48035,126.5218,정좌표
1591654,테트리스찜닭신제주점,"제주특별자치도 제주시 연북로 45 (노형동,메르헨하우스2)",33.48231,126.4863,정좌표
1591660,페리카나치킨조천점,제주특별자치도 제주시 조천읍 조함해안로 10,33.53879,126.6388,정좌표
1591670,먹자,제주특별자치도 제주시 남녕로8길 3-2 (연동),33.49229,126.48,정좌표
1591674,은희네해장국2호점,"제주특별자치도 제주시 연북로 178 (연동,외1필지(1층))",33.4814,126.5003,정좌표
1591851,가락국수,제주특별자치도 제주시 연동9길 25 (연동),33.49684,126.5011,정좌표
1591860,가이,"제주특별자치도 제주시 연동8길 29, 110호 (연동,풀하우스)",33.49659,126.5013,정좌표
1591861,사랑방,제주특별자치도 제주시 신대로16길 37-1 (연동),33.48666,126.4924,정좌표
1591915,마라신화마라탕신라점,"제주특별자치도 제주시 노연로 61, 104호 (연동)",33.48618,126.4868,정좌표
1591960,몬테알반,"제주특별자치도 제주시 월랑로4길 3, 3층 (노형동)",33.48784,126.478,정좌표
1591962,아빠가만든찜,제주특별자치도 제주시 동문로 103-2 (건입동),33.51421,126.5377,정좌표
1591992,산오름,제주특별자치도 제주시 서광로 246 (삼도일동),33.49954,126.5227,정좌표
1592046,바른고깃집,제주특별자치도 제주시 수덕5길 24 (노형동),33.48606,126.4757,정좌표
1592047,돈까스군오므라이스양,제주특별자치도 제주시 다랑곶길 32 (노형동),33.48858,126.4812,정좌표
1592064,제주빛깔,"제주특별자치도 제주시 조천읍 조함해안로 29, 1층",33.53958,126.6369,정좌표
1592070,예스맘치킨피자,"제주특별자치도 제주시 동제원길 81, 1층 (화북일동)",33.52191,126.5609,정좌표
1592078,희랑김밥,"제주특별자치도 제주시 신대로13길 18, 1층 (연동)",33.4875,126.4984,정좌표
1592093,럭키라운지펍,"제주특별자치도 제주시 중앙로 222, 7층 (이도이동)",33.49975,126.5295,정좌표
1592095,굽네치킨신촌점,"제주특별자치도 제주시 조천읍 신북로 99, 1층",33.53578,126.624,정좌표
1592113,서양주점1399,"제주특별자치도 제주시 국기로 14, 상가동 202호,203호 (연동, 대림이편한세상아파트)",33.48055,126.4896,정좌표
1592118,미스터곰,"제주특별자치도 제주시 서해안로 162, 1층 (도두일동)",33.50383,126.4663,정좌표
1592123,돈고팡,"제주특별자치도 제주시 서해안로 248, 1층 (도두일동)",33.50893,126.4722,정좌표
1592321,리듬,"제주특별자치도 제주시 무근성7길 11, 1층 (삼도이동)",33.5138,126.5199,정좌표
1592400,강윤구스시야,"제주특별자치도 제주시 화삼북로 135, 2층 (삼양이동)",33.51729,126.5877,정좌표
1592425,초원오리,제주특별자치도 제주시 연동14길 10 (연동),33.49618,126.5007,정좌표
1592426,남문숯불바베큐앤치킨정실점,"제주특별자치도 제주시 아연로 149, 101호 (오라이동)",33.47246,126.5074,정좌표
1592436,퐁낭그늘,"제주특별자치도 제주시 성신로 30 (연동,가형 101호)",33.49231,126.4849,정좌표
1592462,할망네돔베고기,"제주특별자치도 제주시 우정로8길 6, 101호 (외도일동)",33.48944,126.4302,정좌표
1592604,양양밥집,"제주특별자치도 제주시 신대로18길 7, 1층 (연동)",33.48454,126.4954,정좌표
1592608,가미돈,"제주특별자치도 제주시 오도길 10-2, 1층 (이호이동)",33.49435,126.4599,정좌표
1592612,수까락,"제주특별자치도 제주시 한천로 33, 1층 (용담이동)",33.50214,126.5091,정좌표
1592656,솔지,제주특별자치도 제주시 월랑로 88 (노형동),33.4926,126.4725,정좌표
1595104,오래해장국,"제주특별자치도 제주시 서해안로 168, 1층 (도두일동)",33.50419,126.4666,정좌표
1595124,육회한집,"제주특별자치도 제주시 서광로 229, 1층 (삼도일동)",33.50006,126.521,정좌표
1595136,촵촵,"제주특별자치도 제주시 신설로9길 8-1, 1층 (이도이동)",33.49352,126.5454,정좌표
1595163,달떡볶이신제주점,"제주특별자치도 제주시 제원1길 23, 106호 (연동)",33.48917,126.4869,정좌표
1595217,고수참치,"제주특별자치도 제주시 용화로 49, 1층 (용담이동)",33.50968,126.5089,정좌표
1595235,포커페이스,"제주특별자치도 제주시 신광로 63, 2층 (연동)",33.48649,126.4902,정좌표
1595239,슈퍼두펍,"제주특별자치도 제주시 조천읍 신북로 471, 1층",33.54362,126.6608,정좌표
1595251,최고밥상,"제주특별자치도 제주시 은남길 18, 1층 (연동)",33.4883,126.4957,정좌표
1595257,이모밥상,"제주특별자치도 제주시 연북로 173, 1층 (연동)",33.48188,126.4999,정좌표
1595530,만선바다,"제주특별자치도 제주시 삼무로1길 6, 1층 (연동)",33.49097,126.4893,정좌표
1595567,주력,"제주특별자치도 제주시 서광로32길 16 (이도이동,(1층))",33.49924,126.5284,정좌표
1595597,대성아귀찜신제주점,제주특별자치도 제주시 원노형10길 38 (노형동),33.4828,126.4862,정좌표
1595626,보라네,"제주특별자치도 제주시 추자면 추자로 96, 1층",33.95955,126.2963,정좌표
1595634,흑돼지가있는풍경,제주특별자치도 제주시 진군남4길 7-8 (노형동),33.47535,126.4806,정좌표
1596170,돌담촌,"제주특별자치도 제주시 도남로 134, 1층 (도남동)",33.48883,126.5299,정좌표
1596180,불타는갈매기아라점,"제주특별자치도 제주시 중앙로 601, 1층 (아라일동)",33.47017,126.5465,정좌표
1596193,친구집해물포차,"제주특별자치도 제주시 우정로7길 30, 1층 (외도일동)",33.48912,126.4341,정좌표
1596217,우도148,"제주특별자치도 제주시 우도면 우도로 148, 1층",33.50579,126.9539,정좌표
1596232,스시앤,"제주특별자치도 제주시 고산동산5길 21-1, 105호 (이도이동)",33.49656,126.5346,정좌표
1596265,룡천왕갈비탕,"제주특별자치도 제주시 공설로 23, 1층 (오라일동)",33.49792,126.5169,정좌표
1596303,치타,제주특별자치도 제주시 신광로4길 7 (연동),33.48873,126.489,정좌표
1596335,아맛나,"제주특별자치도 제주시 다랑곶길 19 (노형동,(다랑굿로 27))",33.48802,126.48,정좌표
1596338,한치비곱창,"제주특별자치도 제주시 건주로3길 11, 1층 (도련일동)",33.51613,126.5814,정좌표
1596347,더돌코롬카페,"제주특별자치도 제주시 우정로 85, 1층 (외도일동)",33.48513,126.4311,정좌표
1596370,청년다방노형점,"제주특별자치도 제주시 한라대학로 80, 1층 (노형동)",33.47614,126.4788,정좌표
1596417,신미민물장어,"제주특별자치도 제주시 신설로9길 48, 1층 (이도이동)",33.4944,126.5479,정좌표
1596477,저팔계콧구멍,제주특별자치도 제주시 다랑곶길 19 (노형동),33.48802,126.48,정좌표
1596480,60계치킨제주노형점,"제주특별자치도 제주시 다랑곶1길 16, 109호 (노형동,노형세기6차아파트)",33.48817,126.4782,정좌표
1596505,푸라닭연동점,"제주특별자치도 제주시 성신로1길 23, 1층 (연동)",33.49194,126.4879,정좌표
1596537,모슬포해물탕,"제주특별자치도 제주시 선덕로5길 18, 2층 (연동)",33.48826,126.4998,정좌표
1596538,막쇠시청점,"제주특별자치도 제주시 서광로32길 36-1, 1층 (이도이동)",33.49757,126.5296,정좌표
1596548,고사리식당,"제주특별자치도 제주시 조천읍 번영로 1680, 1층",33.45284,126.7075,정좌표
1597808,신이내린닭신제주신이점,"제주특별자치도 제주시 국기로 50, 1층 (연동)",33.47795,126.4911,정좌표
1597838,더한근,제주특별자치도 제주시 다랑곶6길 48 (노형동),33.49094,126.479,정좌표
1597962,낙지육회제주탕탕이,"제주특별자치도 제주시 진남로6길 38-1 (화북일동,(1층))",33.52213,126.5655,정좌표
1597982,봉하깡통구이,"제주특별자치도 제주시 삼무로3길 36 (연동,(성두5로62))",33.49052,126.492,정좌표
1598000,사라숯불구이,"제주특별자치도 제주시 서사로 109, 1층 (삼도일동)",33.50267,126.5201,정좌표
1598003,꺼멍도새기,"제주특별자치도 제주시 동문로4길 9, 1-33,34,2-14,15,1-26,1-31,32호 (일도일동, 동문공설시장)",33.51209,126.5282,정좌표
1604159,카페더비어,"제주특별자치도 제주시 신설로7길 7, 1층 (아라이동)",33.49257,126.5437,정좌표
1604182,대아갈비,제주특별자치도 제주시 연동4길 6-2 (연동),33.49723,126.5008,정좌표
1604184,루스트플레이스칠성로점,"제주특별자치도 제주시 중앙로7길 3, 2층 (일도일동)",33.515,126.5253,정좌표
1604273,우도아름다운소풍,"제주특별자치도 제주시 우도면 우도해안길 446, 1층",33.51488,126.9495,정좌표
1604356,장모식탁,"제주특별자치도 제주시 연신로 51, 1층 (이도이동)",33.49685,126.5469,정좌표
1604497,탐나는불고기와부대찌개,"제주특별자치도 제주시 우정로 44, 1층 (외도일동)",33.48897,126.4307,정좌표
1604505,마모루,"제주특별자치도 제주시 광양13길 10-1, 1층 101호 (이도이동)",33.49885,126.5315,정좌표
1604598,어떤하루,"제주특별자치도 제주시 고마로13길 26-1, 1층 (일도이동)",33.50957,126.5421,정좌표
1604608,미스터킴팝,"제주특별자치도 제주시 노형8길 17, 1층 (노형동)",33.48397,126.479,정좌표
1604630,제주오겹살왕돌구이집,"제주특별자치도 제주시 중앙로 538, 1층 (아라일동)",33.47527,126.5448,정좌표
1604653,뉴봄봄김밥,"제주특별자치도 제주시 건주로4길 10-4, 1층 (도련일동)",33.51642,126.5799,정좌표
1604667,신조,"제주특별자치도 제주시 우정로5길 4, 1층 (외도일동)",33.4902,126.4312,정좌표
1604680,오풍미족발삼화점,"제주특별자치도 제주시 화삼북로 87, 상가동 101, 102호 (삼양이동)",33.51831,126.583,정좌표
1604684,영규촘닭갈비,"제주특별자치도 제주시 아란7길 3-7, 1층 102호 (아라일동)",33.47376,126.5451,정좌표
1604693,인덕원꼬마김밥,"제주특별자치도 제주시 우정로15길 21, 1층 (외도일동)",33.48667,126.4325,정좌표
1604697,페리카나치킨삼양도련점,"제주특별자치도 제주시 삼봉로 115 (도련일동,(삼봉로143))",33.51125,126.5895,정좌표
1604706,조가네소머리국밥,"제주특별자치도 제주시 동문로4길 9, 2-11,2-12,2-13호 (일도일동)",33.51209,126.5282,정좌표
1604720,봄촌,"제주특별자치도 제주시 연북로 166, 1~2층 (연동)",33.48143,126.4992,정좌표
1604731,한소낭,제주특별자치도 제주시 동광로1길 28 (이도일동),33.50307,126.5284,정좌표
1604755,함덕피자클래스,제주특별자치도 제주시 조천읍 함덕16길 14,33.54054,126.6675,정좌표
1604849,오젠정식,"제주특별자치도 제주시 명림로 220, 1층 (봉개동)",33.46741,126.6105,정좌표
1604870,제주사자,"제주특별자치도 제주시 도남로17길 21, 101호 (도남동)",33.49098,126.5308,정좌표
1604884,푸라닭제주터미널점,"제주특별자치도 제주시 남성로2길 7, 1층 (용담일동)",33.50139,126.5138,정좌표
1604901,비에이치씨용담점,"제주특별자치도 제주시 성화로 26, 1층 (용담이동)",33.51216,126.5056,정좌표
1604911,홍대개미,"제주특별자치도 제주시 노형8길 19, 2층 (노형동)",33.48394,126.4792,정좌표
1605129,오태식해바라기치킨도남점,제주특별자치도 제주시 도남로 21-1 (도남동),33.49808,126.5257,정좌표
1605140,명태어장외도점,"제주특별자치도 제주시 우정로 34, 1층 (외도일동)",33.4899,126.4307,정좌표
1605162,전농로의오후,"제주특별자치도 제주시 전농로 75, 1층 (삼도이동)",33.50451,126.5212,정좌표
1605163,함덕족발스로운,"제주특별자치도 제주시 조천읍 함덕18길 1, 1층",33.5408,126.669,정좌표
1605399,김밥천국광양대학로점,제주특별자치도 제주시 광양14길 1 (이도이동),33.49826,126.5304,정좌표
1605484,풍류마당,제주특별자치도 제주시 고마로 70 (일도이동),33.50818,126.5398,정좌표
1605504,푸라닭신제주점,"제주특별자치도 제주시 원노형로 36, 103,104호 (노형동)",33.48551,126.4847,정좌표
1605546,루스트플레이스외도점,"제주특별자치도 제주시 우정로 80, 1층 (외도일동)",33.48567,126.4307,정좌표
1605640,제주어멍통갈치,제주특별자치도 제주시 서해안로 372 (용담삼동),33.51167,126.4842,정좌표
1606222,삼바리회센타,제주특별자치도 제주시 도남로7길 35 (도남동),33.49702,126.5272,정좌표
1606242,또또,"제주특별자치도 제주시 성신로1길 11 (연동,(성신1로9))",33.49132,126.4868,정좌표
1606332,동네분식,"제주특별자치도 제주시 도남로12길 14, 1층 (도남동)",33.49293,126.527,정좌표
1606333,흑돈시범이네,"제주특별자치도 제주시 광평동로 65, 1층 (노형동)",33.4848,126.467,정좌표
1606357,맘스터치연동점,"제주특별자치도 제주시 삼무로 59, 1층 (연동)",33.49005,126.493,정좌표
1606681,동향치킨,제주특별자치도 제주시 조천읍 신북로 214,33.53529,126.6361,정좌표
1606697,피자홍플러스,"제주특별자치도 제주시 연수로4길 19, 1층 (일도이동)",33.5037,126.5448,정좌표
1606827,할매보리밥,"제주특별자치도 제주시 절물2길 29, 1층 (외도일동)",33.49023,126.4325,정좌표
1606842,정실마당,"제주특별자치도 제주시 아연로 193-7 (오라이동,(아연로412))",33.46907,126.5103,정좌표
1606843,카페정관헌,"제주특별자치도 제주시 박성내서길 6, 1층 (이도이동)",33.49241,126.5407,정좌표
1606903,제주올레냉면,"제주특별자치도 제주시 광평동로 19, 1층 (노형동)",33.48191,126.4704,정좌표
1607179,귀빈반점,제주특별자치도 제주시 정원로 53-1 (노형동),33.47713,126.4776,정좌표
1607202,부가네얼큰이일도점,제주특별자치도 제주시 신설로11길 57 (이도이동),33.49443,126.5482,정좌표
1607362,복희해장국,제주특별자치도 제주시 임항로 29 (건입동),33.51666,126.5281,정좌표
1607394,바다를본돼지2호점,"제주특별자치도 제주시 정존15길 42, 1층 (노형동)",33.48816,126.4762,정좌표
1607519,봉구비어노형점,"제주특별자치도 제주시 다랑곶1길 16, 상가동 109호 (노형동,노형세기6차아파트)",33.48817,126.4782,정좌표
1607526,슬기,제주특별자치도 제주시 사라봉7길 36 (건입동),33.51513,126.5396,정좌표
1607567,헝그리닭발포차시청,제주특별자치도 제주시 신성로 102 (이도이동),33.49663,126.5299,정좌표
1607575,걸작떡볶이제주노형점,"제주특별자치도 제주시 노형9길 7, 1층 (노형동)",33.48379,126.4773,정좌표
1607616,충만치킨제주시청점,"제주특별자치도 제주시 광양10길 5, 3층 (이도이동)",33.49913,126.5295,정좌표
1607620,금항아리,"제주특별자치도 제주시 임항로 267, 101호 (건입동)",33.51685,126.5387,정좌표
1607631,서울집,"제주특별자치도 제주시 신산로 44-1, 1층 (일도이동)",33.50949,126.5327,정좌표
1607635,연동대게회타운,"제주특별자치도 제주시 신대로 125, 1층 (연동)",33.48601,126.4968,정좌표
1607824,별오름탑동점,"제주특별자치도 제주시 임항로 42, 2층 (건입동)",33.51646,126.5294,정좌표
1607865,주비,"제주특별자치도 제주시 도리로 84, 1층 (이호일동)",33.50005,126.4608,정좌표
1608165,영성반점,"제주특별자치도 제주시 진군길 1-1, 1층 (노형동)",33.48099,126.4812,정좌표
1608185,오션스위츠블루오션,"제주특별자치도 제주시 탑동해안로 74, 201호 (삼도이동)",33.51827,126.5231,정좌표
1608198,파크가든,"제주특별자치도 제주시 명림로 575-107, 1층 (회천동)",33.449,126.6374,정좌표
1608215,주왕,제주특별자치도 제주시 수덕9길 86-4 (노형동),33.48314,126.4699,정좌표
1608239,차돌,"제주특별자치도 제주시 남광로 65, 109동 102호 (이도이동, 혜성상가)",33.49603,126.5415,정좌표
1608243,제주향미,제주특별자치도 제주시 연동4길 12-2 (연동),33.49723,126.5008,정좌표
1608245,상구비어노형점,"제주특별자치도 제주시 월랑로10길 12, 101호 (노형동, 노형위더스빌)",33.48955,126.4772,정좌표
1608248,삼겹구이,"제주특별자치도 제주시 서광로 225, 1층 (삼도일동)",33.50006,126.5206,정좌표
1608258,반청반담,"제주특별자치도 제주시 구남동2길 22, 1층 (이도이동)",33.48966,126.5357,정좌표
1608262,안평,"제주특별자치도 제주시 선사로6길 15, 1층 (삼양일동)",33.52501,126.5872,정좌표
1608270,맘스터치치킨노형점,"제주특별자치도 제주시 광평동로 66 (노형동,(광평동로 66)중흥S크래스상가 101호)",33.48506,126.4676,정좌표
1608280,오메오메본점,"제주특별자치도 제주시 서해안로 191, 1층 (도두일동)",33.50585,126.4688,정좌표
1608330,점보,"제주특별자치도 제주시 서해안로 208-1, 1층 (도두일동)",33.50681,126.4698,정좌표
1608337,공설길,"제주특별자치도 제주시 공설로9길 14, 1층 (오라일동)",33.49681,126.5194,정좌표
1608338,로화룡양꼬치,"제주특별자치도 제주시 고마로 130, 1층 (이도이동)",33.50287,126.5422,정좌표
1608373,더헤이븐,"제주특별자치도 제주시 제원4길 10-1, 1~2층 (연동)",33.48665,126.4883,정좌표
1608396,카페밀에드,"제주특별자치도 제주시 용담로7길 2, 1층 (용담이동)",33.51278,126.5106,정좌표
1608433,멕시카나치킨법원점,"제주특별자치도 제주시 오복2길 31-14, 1층 (이도이동)",33.49366,126.5378,정좌표
1608434,호맥시청점,"제주특별자치도 제주시 서광로32길 15, 1층 (이도이동)",33.49932,126.5286,정좌표
1608435,통큰돼지,"제주특별자치도 제주시 용문로 134, 1층 (용담이동)",33.50677,126.5093,정좌표
1608459,충칭호모두샤브샤브,"제주특별자치도 제주시 신대로20길 46, 101호 (연동)",33.48392,126.4915,정좌표
1608462,앙뚜아네트용담점,"제주특별자치도 제주시 서해안로 671, 지하1층 (용담삼동)",33.51607,126.509,정좌표
1609350,고랫물집,"제주특별자치도 제주시 진동로 73, 1층 (화북일동)",33.52529,126.5679,정좌표
1609351,까투리꼬치구이행복점,"제주특별자치도 제주시 고마로 58 (일도이동,(고마로80))",33.50908,126.5394,정좌표
1609352,월궁,"제주특별자치도 제주시 산천단동2길 20 (아라일동, 제1호)",33.44974,126.5584,정좌표
1609356,해심초,"제주특별자치도 제주시 다랑곶6길 5 (노형동,(다랑굿7로7))",33.48817,126.4818,정좌표
1609396,케이하우스,"제주특별자치도 제주시 노연로 61 (연동,101호,102호)",33.48618,126.4868,정좌표
1609405,이도시장통닭,제주특별자치도 제주시 구남로 47 (이도이동),33.49103,126.5349,정좌표
1609434,거문오름꿈의숲,제주특별자치도 제주시 조천읍 선교로 201-24,33.48636,126.702,정좌표
1609436,굽네치킨외도점,제주특별자치도 제주시 우정로18길 12 (외도일동),33.48509,126.4296,정좌표
1609443,다희네민물장어,"제주특별자치도 제주시 우령8길 58, 1층 (외도일동)",33.48611,126.4272,정좌표
1609452,간이역법원점,제주특별자치도 제주시 남광북3길 30 (이도이동),33.49553,126.5372,정좌표
1609454,하와이새우트럭제주점,"제주특별자치도 제주시 노형13길 16, 2층 (노형동)",33.48256,126.4783,정좌표
1609489,돼지촌,"제주특별자치도 제주시 원노형남1길 28, 1층 (노형동)",33.48383,126.4834,정좌표
1609905,대어호,"제주특별자치도 제주시 연동4길 12, 1층 (연동)",33.49723,126.5008,정좌표
1609911,우리스크린,"제주특별자치도 제주시 우령남길 16, 1층 (외도일동)",33.48284,126.4304,정좌표
1609915,누룩대통령,"제주특별자치도 제주시 연동11길 24, 1층 (연동)",33.49665,126.5008,정좌표
1609918,북촌손만두제주법원점,"제주특별자치도 제주시 중앙로 326, 1층 (이도이동)",33.49205,126.5357,정좌표
1609933,탭하우스더코너,"제주특별자치도 제주시 도령로 27, 103호 (노형동)",33.48783,126.4819,정좌표
1609949,삼다칼국수,제주특별자치도 제주시 문송1길 2 (연동),33.48802,126.4976,정좌표
1609962,버무리떡볶이일도점,"제주특별자치도 제주시 고마로 71, 101호 (일도이동)",33.50807,126.5404,정좌표
1609970,코지코너,"제주특별자치도 제주시 동문로 46, 1층 (일도일동)",33.51303,126.5316,정좌표
1610008,땅콩펜션,"제주특별자치도 제주시 우도면 영일길 156-12, 1층",33.50116,126.9675,정좌표
1610027,본디국수,"제주특별자치도 제주시 중앙로 276, 1층 (이도이동)",33.49543,126.5323,정좌표
1610070,일과삶사이틈,"제주특별자치도 제주시 서광로32길 27-3, 1층 (이도이동)",33.49849,126.5294,정좌표
1610114,돈테일러익스프레스,"제주특별자치도 제주시 신성로 19, 1층 (도남동)",33.49633,126.5217,정좌표
1610141,우렝이보쌈,"제주특별자치도 제주시 우정로15길 42-1, 1층 (외도일동)",33.48842,126.4329,정좌표
1610200,진이칼국수,"제주특별자치도 제주시 남성로 154, 1층 (삼도이동)",33.50909,126.5216,정좌표
1610210,곰집,"제주특별자치도 제주시 구남로8길 27, 1층 (이도이동)",33.4897,126.5378,정좌표
1610370,추사랑,"제주특별자치도 제주시 우령4길 1, 1층 (외도일동)",33.48866,126.4304,정좌표
1610380,투다리파워점,"제주특별자치도 제주시 화삼로1길 5, 1층 (화북일동)",33.51476,126.5744,정좌표
1610386,조정순나주곰탕,"제주특별자치도 제주시 남성로 124, 1층 1호 (삼도일동)",33.50878,126.5185,정좌표
1610387,비비큐삼화점,"제주특별자치도 제주시 화삼북로 143, 1층 (삼양이동)",33.51727,126.5883,정좌표
1610395,면사랑,제주특별자치도 제주시 신성로 109 (이도이동),33.49734,126.5304,정좌표
1610407,한일관,"제주특별자치도 제주시 삼봉로2길 66 (삼양이동,(막동산1로51))",33.51954,126.5808,정좌표
1610410,우도면파전리,"제주특별자치도 제주시 우도면 우도해안길 388, 1층",33.51246,126.9448,정좌표
1610417,나도,"제주특별자치도 제주시 조천읍 신북로 521, 1층",33.54194,126.6655,정좌표
1610429,숙성정육식당,"제주특별자치도 제주시 신광로 36, 1층 (연동)",33.48898,126.4897,정좌표
1610444,부가네얼큰이신시가지점,"제주특별자치도 제주시 연화로 41, 1층 (연동)",33.47814,126.4874,정좌표
1610480,24시뼈다귀탕신제주점,제주특별자치도 제주시 삼무로 47 (연동),33.4901,126.4918,정좌표
1610507,오마이양대창외도점,"제주특별자치도 제주시 우정로 20, 1층 (외도일동)",33.49109,126.4306,정좌표
1610576,아카이브우도,"제주특별자치도 제주시 우도면 우도해안길 804, 1층",33.51398,126.957,정좌표
1610578,달사막,"제주특별자치도 제주시 조천읍 함덕로 26, 1층",33.54196,126.6724,정좌표
1610692,코코테로1996,"제주특별자치도 제주시 조천읍 조함해안로 528, 1층",33.54249,126.6692,정좌표
1610816,꼬꼬아찌숯불치킨서사라점,"제주특별자치도 제주시 서광로 226, 1층 (삼도일동)",33.49945,126.5206,정좌표
1610838,삼화배달통,제주특별자치도 제주시 건주로4길 32-1 (도련일동),33.51667,126.5791,정좌표
1610855,용이반점,제주특별자치도 제주시 서광로4길 8 (오라일동),33.49927,126.5141,정좌표
1610856,굽네치킨연동점,"제주특별자치도 제주시 연동10길 4, 1층 (연동)",33.49704,126.5006,정좌표
1610896,서문올레,"제주특별자치도 제주시 서문로4길 13-2, 139호 (용담일동,서문공설시장)",33.51135,126.5179,정좌표
1610898,타니,"제주특별자치도 제주시 신설로 40-11, 1층 (아라이동)",33.49208,126.544,정좌표
1610900,광령,"제주특별자치도 제주시 용화로 60-1 (용담이동, 외 2필지)",33.50917,126.5099,정좌표
1610901,이비가짬뽕제주1호이호점,"제주특별자치도 제주시 도공로 154-7, 1층 (이호이동)",33.49439,126.4679,정좌표
1610940,억이네,"제주특별자치도 제주시 동광로19길 7 (일도이동,(인화북2로152))",33.5091,126.5411,정좌표
1610942,고마로포차,제주특별자치도 제주시 고마로 63 (일도이동),33.50866,126.5401,정좌표
1610945,햇살가득돌담집,"제주특별자치도 제주시 조천읍 함대로 25-1, 1층",33.54155,126.6582,정좌표
1611057,김영미재첩해장국,"제주특별자치도 제주시 구남로8길 4-17, 1층 (이도이동)",33.49002,126.5347,정좌표
1611097,나주닭집용담점,"제주특별자치도 제주시 용화로 34, 1층 (용담이동)",33.50971,126.5073,정좌표
1611100,춘천명동닭갈비서사라점,"제주특별자치도 제주시 서사로 110-1, 1층 (삼도일동)",33.50258,126.5196,정좌표
1611108,칠돈가,"제주특별자치도 제주시 서천길 1, 1층 (용담이동)",33.50232,126.5107,정좌표
1614108,탐라맥닭탐라맥반석닭구이,"제주특별자치도 제주시 신산로 24, 1층 (일도이동)",33.51105,126.5317,정좌표
1614127,함스치킨앤숯불바베큐,"제주특별자치도 제주시 서문로 25, 1층 (용담일동)",33.51036,126.5139,정좌표
1614137,조마루뼈다귀아라지구점,"제주특별자치도 제주시 중앙로 490, 1층 (아라일동)",33.47948,126.5434,정좌표
1614174,갈비향,"제주특별자치도 제주시 연사3길 10, 1층 (오라이동)",33.48815,126.512,정좌표
1614198,어림향,"제주특별자치도 제주시 서사로24길 22, 1층 (삼도일동)",33.49855,126.5178,정좌표
1614204,황구촌,"제주특별자치도 제주시 신대로10길 14 (연동,(성두4로18))",33.49096,126.4952,정좌표
1614240,먹자국수,제주특별자치도 제주시 신산로 63 (일도이동),33.50816,126.534,정좌표
1614242,산내들맛집,제주특별자치도 제주시 조천읍 남조로 2337,33.47312,126.6576,정좌표
1614254,제주돈명가,"제주특별자치도 제주시 원남6길 27, 1층 (도남동)",33.487,126.5302,정좌표
1614264,비비큐신연동점,"제주특별자치도 제주시 연화로1길 15 (연동,(연화1로1))",33.47871,126.4889,정좌표
1614344,대원가,"제주특별자치도 제주시 도남로16길 15, 101호 (도남동,재영샤르빌)",33.49155,126.5269,정좌표
1614461,제주돈2호점,"제주특별자치도 제주시 인다2길 22, 1층 (아라일동)",33.47591,126.5497,정좌표
1614469,이정돈돼야지,"제주특별자치도 제주시 설촌로 8, 1층 (삼양이동)",33.52214,126.5816,정좌표
1614477,수영밥상본점,"제주특별자치도 제주시 우령안1길 29-1, 1층 (외도일동)",33.4861,126.4296,정좌표
1614568,난타5000피자조천점,"제주특별자치도 제주시 조천읍 신북로 88, 101호",33.53518,126.623,정좌표
1614588,자담치킨조천점,"제주특별자치도 제주시 조천읍 신북로 88, 101호",33.53518,126.623,정좌표
1614610,투접시족발외도점,"제주특별자치도 제주시 우정로15길 23, 1층 (외도일동)",33.48678,126.4324,정좌표
1614612,육번정육식당,"제주특별자치도 제주시 오현길 88, 2층 (이도일동)",33.51254,126.5255,정좌표
1614654,새손갈비,제주특별자치도 제주시 광양7길 7 (이도이동),33.50072,126.5301,정좌표
1614659,별미맛동태,제주특별자치도 제주시 중앙로 275-1 (이도이동),33.49608,126.5332,정좌표
1614675,도두항반점,"제주특별자치도 제주시 도공로 4-2 (도두일동, 제1호)",33.50611,126.4648,정좌표
1614699,전주토속청국장,제주특별자치도 제주시 귀아랑길 9 (연동),33.49261,126.4976,정좌표
1614713,느루온,"제주특별자치도 제주시 신설로9길 33, 지하1층 (이도이동)",33.49509,126.5469,정좌표
1614789,바른한우,제주특별자치도 제주시 화삼북로2길 9 (화북일동),33.51642,126.5767,정좌표
1614793,도라지,"제주특별자치도 제주시 연삼로 128, 1층 (오라삼동)",33.49273,126.5059,정좌표
1615557,아라주는엄마치킨,제주특별자치도 제주시 산천단동3길 13-2 (아라일동),33.44905,126.5587,정좌표
1615576,빨간집연동점,제주특별자치도 제주시 신대로 126 (연동),33.48617,126.4961,정좌표
1615588,도갈비,"제주특별자치도 제주시 한라대학로 85 (노형동,프라임빌 102호)",33.47652,126.4793,정좌표
1615728,우도동굴도남점,제주특별자치도 제주시 도남로 6 (삼도일동),33.49949,126.525,정좌표
1615730,호야치킨앤닭강정 노형점,제주특별자치도 제주시 정존11길 22 (노형동),33.48576,126.4758,정좌표