Column1,name,address,Latitude,Longitude,상태
0,설레임,"제주특별자치도 제주시 애월읍 일주서로 5999-1, 2층",33.4471343,126.3057656,정좌표
82608,해물섬,"제주특별자치도 제주시 애월읍 애월로11길 19, 1층",33.4659677,126.3206294,정좌표
82696,엄지흑돼지,"제주특별자치도 제주시 애월읍 일주서로 6701, 1층",33.4718805,126.3681801,정좌표
82828,비금향,"제주특별자치도 제주시 애월읍 항몽로 133, 1층",33.4725624,126.4093289,정좌표
82842,우미노식탁,"제주특별자치도 제주시 애월읍 금성5길 42-24, 1층",33.4478775,126.3012418,정좌표
83106,모슬포항부두식당2호점,"제주특별자치도 제주시 애월읍 애월로 33, 1층",33.4659319,126.3192857,정좌표
83370,한양뼈감탕,제주특별자치도 제주시 애월읍 하귀로 38,33.4800276,126.4012957,정좌표
83420,달빛해녀촌횟집,제주특별자치도 제주시 애월읍 애월해안로 270,33.4683238,126.3401314,정좌표
83440,즐거운밥상,"제주특별자치도 제주시 애월읍 광성로 249, 1층",33.4601827,126.4339961,정좌표
83442,곽지가,제주특별자치도 제주시 애월읍 일주서로 6025,33.4487544,126.307815,정좌표
83462,연다라,"제주특별자치도 제주시 애월읍 하가로 167-2, 1층",33.4552718,126.3482713,정좌표
83642,솔향바다가든,"제주특별자치도 제주시 애월읍 일주서로 6113, 지하1층",33.4565568,126.309107,정좌표
83662,바이탈,"제주특별자치도 제주시 애월읍 애월해안로 664, 지하1층",33.4782235,126.3665625,정좌표
83668,애월리식당,"제주특별자치도 제주시 애월읍 애월해안로 907, 1층",33.484835,126.3925123,정좌표
83688,별인애월,"제주특별자치도 제주시 애월읍 신용로 25, 1층",33.4687216,126.3668421,정좌표
83708,키친앤정지,"제주특별자치도 제주시 애월읍 일주서로 5990, 1층",33.4461141,126.3055907,정좌표
83828,애월짬뽕,"제주특별자치도 제주시 애월읍 유수암평화5길 15-22, 1층",33.4227938,126.4053905,정좌표
83848,애월꼴통돼지,"제주특별자치도 제주시 애월읍 애월로7길 10, 1층",33.4651308,126.3191439,정좌표
83854,일품순두부하귀점,"제주특별자치도 제주시 애월읍 하귀9길 18, 1층",33.4826863,126.415916,정좌표
83874,애월오누이,"제주특별자치도 제주시 애월읍 애월로9길 54, 나동 1층",33.4666642,126.3188712,정좌표
83894,추닭집하귀점,제주특별자치도 제주시 애월읍 하광로 37,33.4714582,126.4186381,정좌표
83914,광령힐식당,"제주특별자치도 제주시 애월읍 광령남7길 1, 나동 1층",33.4469975,126.4322086,정좌표
83918,골든팝,"제주특별자치도 제주시 애월읍 하귀로 30, 1층 제1호",33.4799386,126.4006906,정좌표
83932,하늘만큼땅만큼,"제주특별자치도 제주시 애월읍 가문동상4길 5, 2층",33.4846961,126.3876815,정좌표
84076,칠돈가유수암점,"제주특별자치도 제주시 애월읍 유수암평화5길 8, 1층",33.424382,126.4051687,정좌표
84096,한끼국밥하귀외도점,"제주특별자치도 제주시 애월읍 하귀동남1길 2-5, 1층",33.4841816,126.4123496,정좌표
84114,용철이네횟집,"제주특별자치도 제주시 애월읍 하귀동남1길 25, 1층",33.48518,126.4146088,정좌표
84134,스나쿠타카,"제주특별자치도 제주시 애월읍 일주서로 7063, 1층",33.4836002,126.4040726,정좌표
84154,육장갈비하귀점,"제주특별자치도 제주시 애월읍 하광로 19, 1층",33.4621944,126.4227085,정좌표
84174,황동차이나,"제주특별자치도 제주시 애월읍 장소로 88, 1층",33.4343134,126.3827145,정좌표
84194,맘스터치제주관광대점,"제주특별자치도 제주시 애월읍 광령중길 133-2, 1층 104호",33.4538948,126.4351433,정좌표
84354,마트료식당,"제주특별자치도 제주시 애월읍 유수암로 138, 1층",33.4322292,126.4015501,정좌표
84374,연월,"제주특별자치도 제주시 애월읍 고하상로 102, 1층",33.4570309,126.3469195,정좌표
84394,하귀포장마차,제주특별자치도 제주시 애월읍 항몽로 27,33.4811919,126.405453,정좌표
84398,하귀1629,"제주특별자치도 제주시 애월읍 하귀12길 22, 1층",33.4863013,126.4087743,정좌표
84506,순여네국수,"제주특별자치도 제주시 애월읍 고하상로 125-1, 1층",33.4554941,126.3492544,정좌표
84514,통큰뼈감탕,"제주특별자치도 제주시 애월읍 하귀동남1길 50-9, 1층",33.48518,126.4146088,정좌표
84578,구엄애초밥,"제주특별자치도 제주시 애월읍 애월해안로 715, 지하1층",33.4840282,126.3774019,정좌표
84630,엄가네,"제주특별자치도 제주시 애월읍 일주서로 6281, 1층",33.4621806,126.3252437,정좌표
84674,애월포구횟집,"제주특별자치도 제주시 애월읍 애월로11길 22, 2층",33.4600513,126.3113009,정좌표
85090,기찬밥상,제주특별자치도 제주시 애월읍 광성로 293,33.4610064,126.4386947,정좌표
302158,뿔난돼지,"제주특별자치도 제주시 애월읍 고내로7길 45, 1층",33.4665819,126.3370935,정좌표
302662,송화,"제주특별자치도 제주시 애월읍 유수암평화5길 20, 1층",33.424382,126.4051687,정좌표
302830,파랑카페,"제주특별자치도 제주시 애월읍 유수암평화5길 53-2, 1층",33.424382,126.4051687,정좌표
302962,화끈한얼큰이,제주특별자치도 제주시 애월읍 하귀로 50,33.4801883,126.4025752,정좌표
303010,애월밥집,제주특별자치도 제주시 애월읍 애월로 114,33.4644325,126.3194381,정좌표
303052,연화반점,"제주특별자치도 제주시 애월읍 하가로 215, 1층",33.4587799,126.3533392,정좌표
303168,돈삼겹하귀점,"제주특별자치도 제주시 애월읍 하귀9길 52, 1층",33.4826863,126.415916,정좌표
303300,주관이네,"제주특별자치도 제주시 애월읍 천덕로 45, 1층",33.4446794,126.310259,정좌표
303306,제주돈아고내점,"제주특별자치도 제주시 애월읍 애월해안로 212-1, 1층",33.4782235,126.3665625,정좌표
303512,꽃밥,제주특별자치도 제주시 애월읍 일주서로 6059,33.4515529,126.3085533,정좌표
303714,도도돈까스,"제주특별자치도 제주시 애월읍 광령중길 133-1, 101동 1층 101~102호",33.4538948,126.4351433,정좌표
303790,오맛짱치킨,"제주특별자치도 제주시 애월읍 평화로 2175, 지하1층 제1호",33.4135888,126.3946902,정좌표
303810,장인의집,"제주특별자치도 제주시 애월읍 애월로19길 31, 1층",33.4657644,126.326928,정좌표
309468,어클락,"제주특별자치도 제주시 애월읍 고성북동길 18, 1층",33.4628364,126.4181246,정좌표
309536,느영나영해장국,제주특별자치도 제주시 애월읍 항몽로 33,33.4808697,126.4057827,정좌표
309556,하귀동태찌개,"제주특별자치도 제주시 애월읍 하귀로 63, 1층",33.4809631,126.4038595,정좌표
309562,밥먹자,제주특별자치도 제주시 애월읍 평화로 2535-2,33.435485,126.4220965,정좌표
309682,와썹비치하우스,"제주특별자치도 제주시 애월읍 곽지1길 30, 1층",33.4488627,126.3042586,정좌표
309702,뜨락,"제주특별자치도 제주시 애월읍 하귀동남2길 1, 1층",33.4806472,126.4124765,정좌표
309766,하귀비바리,제주특별자치도 제주시 애월읍 하귀9길 11,33.4830763,126.4136997,정좌표
309786,어멍이뽑는막국수,제주특별자치도 제주시 애월읍 하귀동남3길 6,33.4849584,126.4155823,정좌표
309806,종이시계,"제주특별자치도 제주시 애월읍 애월해안로 899, 2~3층",33.4853375,126.3918721,정좌표
309826,태희곽지,제주특별자치도 제주시 애월읍 곽지3길 27,33.4493508,126.3044233,정좌표
309846,하귀애애,"제주특별자치도 제주시 애월읍 하귀로 43-2, 1층",33.4805276,126.4021784,정좌표
309860,윈드스톤,"제주특별자치도 제주시 애월읍 광성로 272, 1층",33.4603788,126.4361793,정좌표
309880,맛의고수,"제주특별자치도 제주시 애월읍 애월로 29, 지하1층",33.4623497,126.3103487,정좌표
310040,애월집,"제주특별자치도 제주시 애월읍 애월해안로 690, 지하1층",33.482065,126.3756375,정좌표
310060,서황,"제주특별자치도 제주시 애월읍 장소로 205-2, 1층",33.4348196,126.3800658,정좌표
310080,탄트라,"제주특별자치도 제주시 애월읍 애월해안로 394, 지하2층",33.4782235,126.3665625,정좌표
310094,에코힐글램핑,"제주특별자치도 제주시 애월읍 광령평화8길 22, 1층",33.4349896,126.4419166,정좌표
310114,솔또롱밥집,"제주특별자치도 제주시 애월읍 하귀로 34, 1층",33.4800007,126.4008917,정좌표
310124,애월한아름식당,"제주특별자치도 제주시 애월읍 애원로 41, 2층",33.460321,126.3215331,정좌표
310130,교촌치킨애월해안도로점,"제주특별자치도 제주시 애월읍 고내로7길 44, 101호",33.4665388,126.3374418,정좌표
310150,오후여섯시,"제주특별자치도 제주시 애월읍 곽지9길 10, 1층",33.444932,126.326157,정좌표
310170,광령치킨,"제주특별자치도 제주시 애월읍 광성로 284, 1층",33.4604957,126.4376583,정좌표
310190,도레아,"제주특별자치도 제주시 애월읍 하소로 5, 1층 제1호",33.4795069,126.3999992,정좌표
310208,노형한빛식당,"제주특별자치도 제주시 애월읍 유수암평화5길 88, 1층",33.424382,126.4051687,정좌표
310228,쿠오모,"제주특별자치도 제주시 애월읍 구엄동1길 7, 1층",33.4756784,126.3778351,정좌표
310248,블루사이공,"제주특별자치도 제주시 애월읍 중산간서로 6333, 2층",33.4577429,126.4081487,정좌표
310268,쏘렐라,"제주특별자치도 제주시 애월읍 애상로 87, 1층",33.457827,126.332473,정좌표
310288,소문난맛집,"제주특별자치도 제주시 애월읍 애월해안로 945-2, 1층",33.4836152,126.3965099,정좌표
310308,어머니의뜻을담다단지,"제주특별자치도 제주시 애월읍 하귀2길 66, 1층",33.4893386,126.4119402,정좌표
310328,마틸다,"제주특별자치도 제주시 애월읍 고내1길 33, 1층",33.4657599,126.334254,정좌표
310348,노라바,"제주특별자치도 제주시 애월읍 구엄길 100, 1층",33.4828309,126.3764312,정좌표
310368,후카후카,"제주특별자치도 제주시 애월읍 항파두리로 148, 1층",33.4520718,126.4077366,정좌표
310388,요시노,"제주특별자치도 제주시 애월읍 고성남서길 7, 1층",33.4285926,126.4220938,정좌표
310408,따뜻한밥상,"제주특별자치도 제주시 애월읍 곽지1길 3-2, 1층",33.446402,126.305155,정좌표
310428,칠사돈한담점,"제주특별자치도 제주시 애월읍 애월로 37, 1층",33.4621883,126.3123305,정좌표
310654,마농애월점,"제주특별자치도 제주시 애월읍 애월해안로 881, 1층",33.4782235,126.3665625,정좌표
310658,애월국수,"제주특별자치도 제주시 애월읍 애월로 106-1, 1층 제1호",33.4644349,126.318555,정좌표
310694,바삭애월해안도로점,"제주특별자치도 제주시 애월읍 애월해안로 724, 1층",33.4840035,126.3782131,정좌표
310946,숯불덮밥화리,제주특별자치도 제주시 애월읍 유수암평화5길 30,33.4242534,126.4058831,정좌표
311064,탐라해동밥상,"제주특별자치도 제주시 애월읍 광상로 323-16, 1층",33.4425732,126.3989656,정좌표
311112,굽네치킨애월점,"제주특별자치도 제주시 애월읍 고내로11길 30, 2층",33.4631085,126.3388615,정좌표
311132,제주갈매기,"제주특별자치도 제주시 애월읍 하광로 17, 1층",33.4621944,126.4227085,정좌표
311152,자담치킨하귀점,"제주특별자치도 제주시 애월읍 하귀9길 45, 102호",33.4827335,126.4164924,정좌표
311172,잇수다,"제주특별자치도 제주시 애월읍 고내로7길 46-1, 1층",33.466902,126.3376403,정좌표
311192,홀가분가든,"제주특별자치도 제주시 애월읍 광령중길 133-2, 1층",33.4538948,126.4351433,정좌표
311212,산들촌,"제주특별자치도 제주시 애월읍 평화로 2751, 1층",33.4222395,126.4092532,정좌표
311216,화돗,"제주특별자치도 제주시 애월읍 하광로 15, 1층",33.4621944,126.4227085,정좌표
311236,칠사돈,"제주특별자치도 제주시 애월읍 애월해안로 906, 1층",33.4847302,126.3921125,정좌표
311256,임순이네,"제주특별자치도 제주시 애월읍 곽지1길 26-7, 1층 제3호",33.4488627,126.3042586,정좌표
311276,신제주촌오리,제주특별자치도 제주시 애월읍 가문동길 27-6,33.4848359,126.3930326,정좌표
311296,가호,"제주특별자치도 제주시 애월읍 가문동상2길 35, 가동 1층",33.4853633,126.3906957,정좌표
311316,모립,"제주특별자치도 제주시 애월읍 애월로1길 26-7, 1층",33.4629939,126.3097778,정좌표
311336,디오라제,"제주특별자치도 제주시 애월읍 애월해안로 554-8, 오렌지힐 1층",33.4775969,126.3629091,정좌표
311352,하늘김밥창고,"제주특별자치도 제주시 애월읍 일주서로 6705, 1층",33.4720067,126.3684499,정좌표
311372,애월플라워하물,"제주특별자치도 제주시 애월읍 애월해안로 58, 1~2층",33.4782235,126.3665625,정좌표
311384,애월프렌즈,"제주특별자치도 제주시 애월읍 신엄안2길 34, 1층",33.4755071,126.3685627,정좌표
311396,로뎀애가든,"제주특별자치도 제주시 애월읍 애월항로 17, 2층",33.4638695,126.3265501,정좌표
311416,에이엠11,"제주특별자치도 제주시 애월읍 애월해안로 720, 1~2층",33.4839595,126.377939,정좌표
311436,제주반딧불한담애월점,"제주특별자치도 제주시 애월읍 애월로1길 24-11, 1층",33.4624642,126.3102678,정좌표
311456,만지식당,"제주특별자치도 제주시 애월읍 고내로 13-1, 1층",33.4632506,126.3389717,정좌표
311476,죽성오리,제주특별자치도 제주시 애월읍 하귀11길 3-11,33.4830763,126.4136997,정좌표
311482,문개항아리애월점,제주특별자치도 제주시 애월읍 가문동길 38,33.4857824,126.3925353,정좌표
311502,유수암별장미락,"제주특별자치도 제주시 애월읍 유수암평화길 170, 1층",33.4288308,126.4087735,정좌표
311506,몬스터살롱,"제주특별자치도 제주시 애월읍 일주서로 6017, 1층",33.4482531,126.3072817,정좌표
311526,연화키친,"제주특별자치도 제주시 애월읍 상가로 51, 1층",33.4490813,126.3462983,정좌표
311686,심바카레,"제주특별자치도 제주시 애월읍 금성5길 44-16, 1층",33.4482312,126.302319,정좌표
312102,중엄집밥처럼,"제주특별자치도 제주시 애월읍 일주서로 6755, 나동 1층",33.4737148,126.3735697,정좌표
312132,꿈낭,"제주특별자치도 제주시 애월읍 유수암평화5길 32, A동 1층",33.424382,126.4051687,정좌표
312150,베트남쌀국수,"제주특별자치도 제주시 애월읍 광령중길 133-2, 1층",33.4538948,126.4351433,정좌표
312222,한수위,"제주특별자치도 제주시 애월읍 하광로 540-66, 1층",33.4411527,126.4288763,정좌표
312334,씨사이드애월하귀점,"제주특별자치도 제주시 애월읍 하귀14길 5-3, 1층",33.4850161,126.4077531,정좌표
312528,볼륨1603,"제주특별자치도 제주시 애월읍 일주서로 7087-14, 1층",33.4842288,126.4064775,정좌표
312588,장전고을,"제주특별자치도 제주시 애월읍 중산간서로 6010, 1층",33.4470046,126.3747347,정좌표
312598,소랑국수,"제주특별자치도 제주시 애월읍 애월로1길 24-5, 1층",33.4624642,126.3102678,정좌표
312740,곽지곤지암해장국,"제주특별자치도 제주시 애월읍 곽지1길 4, 1층",33.4466795,126.3052733,정좌표
312820,로맨틱새우,"제주특별자치도 제주시 애월읍 곽지1길 12-12, 1층 103호 (곽지어촌계펜션)",33.4480612,126.3055099,정좌표
315212,코코리파이프,"제주특별자치도 제주시 애월읍 하귀6길 22, 1층",33.4887078,126.4145642,정좌표
315508,어촌계회센타,제주특별자치도 제주시 애월읍 애월포구동길 3,33.4658162,126.3218897,정좌표
315532,마시레치킨,제주특별자치도 제주시 애월읍 하귀로 61,33.4808195,126.4036298,정좌표
316124,바다속고등어쌈밥,제주특별자치도 제주시 애월읍 일주서로 7089,33.4842697,126.4068534,정좌표
317184,곤밥보리밥,"제주특별자치도 제주시 애월읍 애원로 70-2, 1층",33.4431304,126.3385993,정좌표
317600,곽지해녀의집,제주특별자치도 제주시 애월읍 곽지11길 27,33.4538292,126.3066334,정좌표
317832,청아돈,제주특별자치도 제주시 애월읍 애월로11길 14,33.4636964,126.3180099,정좌표
317856,초원도야지,"제주특별자치도 제주시 애월읍 하소로 14, 1층",33.4787068,126.3994104,정좌표
317880,떡빙,"제주특별자치도 제주시 애월읍 하귀동남3길 15-15, 1층",33.4849584,126.4155823,정좌표
317882,제주김만복애월점,"제주특별자치도 제주시 애월읍 애월해안로 255, 2층",33.4782235,126.3665625,정좌표
319930,야미부대찌게하귀점,"제주특별자치도 제주시 애월읍 하귀동남3길 7, 1층",33.4835358,126.4131748,정좌표
319964,하귀청마루,제주특별자치도 제주시 애월읍 항몽로 71-1,33.4775698,126.4089878,정좌표
320058,애월튀김간,제주특별자치도 제주시 애월읍 애월로 118,33.4643446,126.3198712,정좌표
320120,잇칸시타,"제주특별자치도 제주시 애월읍 신엄안2길 54-1, 1동 1층",33.4770905,126.3699554,정좌표
320818,애월성,제주특별자치도 제주시 애월읍 애월로7길 2,33.4647427,126.3197753,정좌표
320880,홍스랜드,제주특별자치도 제주시 애월읍 어음13길 25-45,33.3981204,126.352168,정좌표
321312,달빛제주,"제주특별자치도 제주시 애월읍 애월해안로 929, 가동 2층",33.4782235,126.3665625,정좌표
321462,비비큐하귀애월점,"제주특별자치도 제주시 애월읍 애월해안로 991, 1층",33.4782235,126.3665625,정좌표
321524,송이,제주특별자치도 제주시 애월읍 곽지8길 12-1,33.4487082,126.3086558,정좌표
321564,청수냉면,제주특별자치도 제주시 애월읍 하귀9길 12,33.4871453,126.4093484,정좌표
321616,모리노아루요,"제주특별자치도 제주시 애월읍 하소로 769-58, 아동 1층",33.418384,126.4001215,정좌표
321752,호커센터,제주특별자치도 제주시 애월읍 애월로11길 25-2,33.4669387,126.3203654,정좌표
322958,해삼궁,"제주특별자치도 제주시 애월읍 평화로 1976, 1층",33.400203,126.3798207,정좌표
323034,팩토리스토리,"제주특별자치도 제주시 애월읍 일주서로 6083, 1층",33.4547078,126.3083167,정좌표
323498,성안식당,제주특별자치도 제주시 애월읍 애월로11길 5,33.4647956,126.3201572,정좌표
323914,애월등대집,"제주특별자치도 제주시 애월읍 애월해안로 56, 1층",33.4670965,126.3203656,정좌표
323956,소길역,"제주특별자치도 제주시 애월읍 소길2길 53, 1층",33.4419011,126.370287,정좌표
324190,피자그리기앤파닭,"제주특별자치도 제주시 애월읍 일주서로 6214, 1층",33.4603612,126.3181141,정좌표
324286,브로치킨,제주특별자치도 제주시 애월읍 고내로13길 79,33.4711863,126.3472928,정좌표
324322,리틀줄리,"제주특별자치도 제주시 애월읍 곽지1길 9, 1층",33.4469439,126.3046315,정좌표
324340,광평도새기촌본점,"제주특별자치도 제주시 애월읍 구엄동3길 64, 1층",33.4792685,126.3810461,정좌표
325604,탐라면,"제주특별자치도 제주시 애월읍 애월로 37, 1층",33.4621883,126.3123305,정좌표
327284,애월할망네,"제주특별자치도 제주시 애월읍 중산간서로 5632, 1층",33.4470046,126.3747347,정좌표
327348,카페어떤오후,"제주특별자치도 제주시 애월읍 상가북6길 13, 1층",33.4511382,126.3458599,정좌표
327420,고래밥,"제주특별자치도 제주시 애월읍 애월로 93-1, 1층",33.4649048,126.3174412,정좌표
327448,삼일해장국,제주특별자치도 제주시 애월읍 하귀9길 14,33.4826863,126.415916,정좌표
327632,블라썸1407,"제주특별자치도 제주시 애월읍 고하상로 103, 1층",33.4569306,126.3475934,정좌표
327724,애월회센터,"제주특별자치도 제주시 애월읍 신엄9길 72-11, 1층",33.4773551,126.3683507,정좌표
327850,17번가,"제주특별자치도 제주시 애월읍 항몽로 17, 1층",33.4598766,126.412214,정좌표
327854,퐁낭집,"제주특별자치도 제주시 애월읍 유수암로 36, 1층",33.4395837,126.4026069,정좌표
327866,제주애월회관,제주특별자치도 제주시 애월읍 애월로 38,33.4655339,126.3203113,정좌표
328248,낮갈치밤돼지,"제주특별자치도 제주시 애월읍 신엄7길 9, 1층",33.472592,126.3664905,정좌표
328426,스시애월,"제주특별자치도 제주시 애월읍 애월로9길 50-3, 1층",33.4665125,126.3193173,정좌표
328714,명리동식당애월점,제주특별자치도 제주시 애월읍 애월해안로 384-8,33.4728044,126.3494447,정좌표
328958,투썸플레이스곽지과물해변점,"제주특별자치도 제주시 애월읍 곽지3길 26, A동 1층",33.4486337,126.3059886,정좌표
329344,에피소드,"제주특별자치도 제주시 애월읍 하귀동남1길 19, 1층",33.48518,126.4146088,정좌표
329594,시루애월,제주특별자치도 제주시 애월읍 하소로 449,33.4426654,126.3918782,정좌표
329906,고스트타운,제주특별자치도 제주시 애월읍 부룡수길 35-14,33.4760526,126.3568775,정좌표
330218,호식이두마리치킨애월읍내점,"제주특별자치도 제주시 애월읍 애월로11길 11, 1층",33.4654439,126.3203652,정좌표
330262,디딤팡,"제주특별자치도 제주시 애월읍 장전로 63, 다동 1층",33.4619478,126.3295244,정좌표
330264,애월바당국수,"제주특별자치도 제주시 애월읍 애월해안로 34, 1층",33.4782235,126.3665625,정좌표
330408,그마니네,제주특별자치도 제주시 애월읍 일주서로 7219,33.4893844,126.4193291,정좌표
330640,대호해물가든,"제주특별자치도 제주시 애월읍 항몽로 134, 1~2층",33.4725115,126.4090103,정좌표
330688,와썹,"제주특별자치도 제주시 애월읍 곽지1길 30, 1층 제1호",33.4488627,126.3042586,정좌표
330832,고집78,"제주특별자치도 제주시 애월읍 부룡수길 50, 1층",33.4746076,126.3577962,정좌표
330860,봉성식당,"제주특별자치도 제주시 애월읍 봉성로 66, 1층",33.4186696,126.3126809,정좌표
331242,트라이브,"제주특별자치도 제주시 애월읍 애월로 11, 제2동 1층",33.4600513,126.3113009,정좌표
331662,하귀밀면,"제주특별자치도 제주시 애월읍 하광로 15, 1층",33.4621944,126.4227085,정좌표
331706,머구리,"제주특별자치도 제주시 애월읍 가문동길 63, 1층",33.4875675,126.3912843,정좌표
331738,큰맘할매순대국제주곽지점,"제주특별자치도 제주시 애월읍 곽지1길 3, 1층 2호",33.4462688,126.3048414,정좌표
331794,다다의작은공간,제주특별자치도 제주시 애월읍 광상로 528-1,33.4414143,126.3779121,정좌표
331846,맛있는밥집,"제주특별자치도 제주시 애월읍 하광로 392, 1층 1호",33.4621944,126.4227085,정좌표
331858,회가서쪽에서뜨겠네,"제주특별자치도 제주시 애월읍 애월로 12, 1층",33.4654486,126.3206426,정좌표
332532,목수포차,"제주특별자치도 제주시 애월읍 고내북동길 51-22, 1층",33.4690303,126.3419283,정좌표
332604,허황후김치찜,"제주특별자치도 제주시 애월읍 해암이길 186, 1층",33.4202883,126.3328561,정좌표
332608,하귀당구카페,"제주특별자치도 제주시 애월읍 하귀9길 23, 3층",33.4826863,126.415916,정좌표
332648,애월해송수산물회센타,"제주특별자치도 제주시 애월읍 애월로11길 23, 1층",33.4663286,126.3205148,정좌표
333196,애월하와이,"제주특별자치도 제주시 애월읍 신엄안3길 99, 1층",33.4736903,126.3608227,정좌표
333212,하미,"제주특별자치도 제주시 애월읍 애월북서길 54, 1층",33.4662251,126.3107458,정좌표
334444,무수천골프,"제주특별자치도 제주시 애월읍 평화로 2847, 1층",33.4572212,126.4423119,정좌표
334464,어음밥집,"제주특별자치도 제주시 애월읍 어림비로 393-1, 1층",33.4020841,126.3392178,정좌표
334488,모아나디쉬,"제주특별자치도 제주시 애월읍 일주서로 7087-12, 1층",33.4847224,126.4063706,정좌표
335954,애월후식,"제주특별자치도 제주시 애월읍 납읍로 21, 1층",33.4389732,126.3302631,정좌표
336122,스시아리엔,"제주특별자치도 제주시 애월읍 하귀동남3길 4, 1층",33.4849584,126.4155823,정좌표
336184,제주이와이,"제주특별자치도 제주시 애월읍 하귀로 4, 1층",33.4805276,126.4021784,정좌표
336252,우굼,"제주특별자치도 제주시 애월읍 하소로 611-42, 1층",33.4294575,126.3992538,정좌표
336478,황제중화요리,"제주특별자치도 제주시 애월읍 광령5길 6, 1층",33.460949,126.4358571,정좌표
336518,레이니데이,"제주특별자치도 제주시 애월읍 중산간서로 5384, 1층",33.4308629,126.3202436,정좌표
336534,곽지뽕끌락,"제주특별자치도 제주시 애월읍 일주서로 6001, 1층",33.466277,126.3511114,정좌표
336554,멕시카나광령점,"제주특별자치도 제주시 애월읍 중산간서로 6703, 1층",33.4625695,126.4452044,정좌표
336574,봉구식탁,"제주특별자치도 제주시 애월읍 유수암평화길 14-3, 1층",33.4410845,126.4027191,정좌표
336734,통큰코다리하귀점,"제주특별자치도 제주시 애월읍 하귀9길 19, 1층",33.4826863,126.415916,정좌표
336762,명랑부대찌개,"제주특별자치도 제주시 애월읍 애월로11길 3, 1층",33.4646882,126.3202765,정좌표
336838,레그돌,"제주특별자치도 제주시 애월읍 곽지9길 23, 2층",33.444932,126.326157,정좌표
336892,다운타우너제주애월,"제주특별자치도 제주시 애월읍 애월로1길 24-9, 1동 1~2층",33.4632492,126.3097944,정좌표
338644,제주달,제주특별자치도 제주시 애월읍 가문동길 27-8,33.4847109,126.3928445,정좌표
338684,조식,"제주특별자치도 제주시 애월읍 어림비로 272, 1층",33.4108548,126.330805,정좌표
338782,보말이네,"제주특별자치도 제주시 애월읍 유수암평화5길 51, 가동 1층",33.424382,126.4051687,정좌표
339054,오태식해바라기치킨앤존맛탱,"제주특별자치도 제주시 애월읍 애월해안로 570-3, 지하1층",33.4782235,126.3665625,정좌표
339198,라이진,"제주특별자치도 제주시 애월읍 하광로 463-1, 1층",33.4498906,126.4290876,정좌표
339288,빅,"제주특별자치도 제주시 애월읍 하귀로23길 1, 1층",33.4801321,126.4029022,정좌표
339304,혁이네식당,"제주특별자치도 제주시 애월읍 광령남3길 9, 1층",33.4505474,126.4319823,정좌표
339712,상하이,"제주특별자치도 제주시 애월읍 유수암서길 22, 1층",33.429504,126.3944844,정좌표
342400,정가네,제주특별자치도 서귀포시 안덕면 소기왓로 7,33.235672,126.3676591,정좌표
342520,양자강,"제주특별자치도 서귀포시 안덕면 화순중앙로54번길 10, 2층",33.2473678,126.3349284,정좌표
343888,그레이그로브,제주특별자치도 서귀포시 안덕면 형제해안로 70,33.2258451,126.2999006,정좌표
344640,어멍국수,제주특별자치도 서귀포시 안덕면 화순로 101,33.2465587,126.335771,정좌표
344676,서광우리집식당,제주특별자치도 서귀포시 안덕면 녹차분재로59번길 8,33.2905253,126.3006556,정좌표
344850,카페두가시,제주특별자치도 서귀포시 안덕면 대평감산로 9,33.2354639,126.3667768,정좌표
345222,바당칼국수,제주특별자치도 서귀포시 안덕면 형제해안로 22,33.2279732,126.3042898,정좌표
345702,난드르깡통구이,제주특별자치도 서귀포시 안덕면 대평감산로 14,33.2361322,126.3670047,정좌표
346146,다와매운갈비찜,제주특별자치도 서귀포시 안덕면 녹차분재로59번길 6,33.2906338,126.3009476,정좌표
347976,산드레,제주특별자치도 서귀포시 안덕면 녹차분재로 193,33.2923161,126.2996588,정좌표
349101,마린68,제주특별자치도 서귀포시 안덕면 사계남로 197,33.2308153,126.3083575,정좌표
349125,까사디노아,제주특별자치도 서귀포시 안덕면 대평로 42,33.2374039,126.3631949,정좌표
349331,블루오션,"제주특별자치도 서귀포시 안덕면 사계남로 102, 1,2층",33.230173,126.3018116,정좌표
349403,페를로,"제주특별자치도 서귀포시 안덕면 덕수회관로74번길 33, 1층",33.2566272,126.3065103,정좌표
350235,빽가한우불고기,"제주특별자치도 서귀포시 안덕면 덕수회관로61번길 40, 1층",33.2527415,126.3096582,정좌표
350347,돈키호테,"제주특별자치도 서귀포시 안덕면 화순로 82, 1층",33.247413,126.3373621,정좌표
350395,산방산우리동네,제주특별자치도 서귀포시 안덕면 산방로 289,33.2386241,126.3146142,정좌표
350509,뼈해장순대해장돈풍년,제주특별자치도 서귀포시 안덕면 사계남로21번길 13,33.2299383,126.2944628,정좌표
350513,고할망네,제주특별자치도 서귀포시 안덕면 사계남로 159-1,33.2285158,126.3070598,정좌표
350617,광성식당,제주특별자치도 서귀포시 안덕면 화순해안로106번길 12,33.2379287,126.3366308,정좌표
351673,덕수아이흑돼지,제주특별자치도 서귀포시 안덕면 덕수회관로 88,33.2546732,126.3078152,정좌표
351801,서광로타리,제주특별자치도 서귀포시 안덕면 화순서서로 492-9,33.2859356,126.3031716,정좌표
351937,쌍둥이기사식당,제주특별자치도 서귀포시 안덕면 동광로 164,33.3104382,126.3413657,정좌표
351949,호가,제주특별자치도 서귀포시 안덕면 화순중앙로 64,33.2464921,126.335916,정좌표
352069,우와국수,제주특별자치도 서귀포시 안덕면 한창로 146,33.2903783,126.3538589,정좌표
353509,알동네집화순점,"제주특별자치도 서귀포시 안덕면 화순로 6, 1층",33.2459446,126.3313846,정좌표
355397,산들티카페,"제주특별자치도 서귀포시 안덕면 화순중앙로54번길 10, 1층",33.2473678,126.3349284,정좌표
355401,커피프렌즈촬영지,"제주특별자치도 서귀포시 안덕면 중산간서로 2026, 1층",33.288682,126.3072932,정좌표
355731,카멜리아힐피크닉,"제주특별자치도 서귀포시 안덕면 병악로 166, 1층,2층",33.2901143,126.3684044,정좌표
355927,카페덕수리2180,제주특별자치도 서귀포시 안덕면 덕수동로25번길 42-8,33.258457,126.3074139,정좌표
355995,원앤온리,제주특별자치도 서귀포시 안덕면 산방로 141,33.23923,126.3192943,정좌표
365769,뷰스트,"제주특별자치도 서귀포시 안덕면 형제해안로 30, 지하1층, 1~3층",33.231847,126.314641,정좌표
368009,치킨과바람피자화순점,제주특별자치도 서귀포시 안덕면 화순로 101,33.2465587,126.335771,정좌표
368033,화순산방산올레,제주특별자치도 서귀포시 안덕면 화순로 135,33.24625,126.3319099,정좌표
368045,올레길회센타,"제주특별자치도 서귀포시 안덕면 화순재남로 5, 1층 102호",33.2467315,126.3319769,정좌표
368161,순천미향제주산방산본점,제주특별자치도 서귀포시 안덕면 사계남로216번길 24-73,33.2356687,126.3125597,정좌표
370801,맛짱분식,제주특별자치도 서귀포시 안덕면 화순로 94,33.2469182,126.3363639,정좌표
370807,홀가분키친,제주특별자치도 서귀포시 안덕면 창천중앙로 53-18,33.2674847,126.3678412,정좌표
370825,마노르블랑,"제주특별자치도 서귀포시 안덕면 일주서로2100번길 46, 1층",33.2542427,126.2946508,정좌표
376137,서광춘희,제주특별자치도 서귀포시 안덕면 화순서동로 367,33.2833393,126.3316897,정좌표
376665,올레마당,제주특별자치도 서귀포시 안덕면 사계남로 224,33.2331477,126.3088244,정좌표
381153,외갓집아구찜,"제주특별자치도 서귀포시 안덕면 병악로 28, 1층",33.2889938,126.3701172,정좌표
381221,돗통,제주특별자치도 서귀포시 안덕면 사계북로41번길 189,33.2450192,126.2983614,정좌표
381721,새물국수,제주특별자치도 서귀포시 안덕면 화순해안로 63,33.2412161,126.3336256,정좌표
382381,돈아돈아숯불구이,제주특별자치도 서귀포시 안덕면 화순로 87,33.2467704,126.3371704,정좌표
382387,서귀포시축협축산물플라자한우전문식당,제주특별자치도 서귀포시 안덕면 중산간서로 1914-3,33.2904786,126.3183659,정좌표
382635,초이,"제주특별자치도 서귀포시 안덕면 덕수서로 7, 1층",33.2544207,126.3036015,정좌표
382967,네네치킨화순안덕점,제주특별자치도 서귀포시 안덕면 일주서로 1449,33.2542427,126.2946508,정좌표
383123,코소롱,"제주특별자치도 서귀포시 대정읍 에듀시티로 148, 1층 103호 (삼정지에듀상가)",33.279669,126.2771757,정좌표
383243,꼬끼오옛날통닭,제주특별자치도 서귀포시 대정읍 신영로 112,33.2217854,126.2542758,정좌표
383387,자금성,제주특별자치도 서귀포시 대정읍 상모로 318,33.222679,126.2555098,정좌표
402035,블랑로쉐,"제주특별자치도 서귀포시 대정읍 가파로 241, 1,2층",33.1743589,126.2712056,정좌표
402155,보말이야기,제주특별자치도 서귀포시 대정읍 도원로 7,33.2767255,126.1714121,정좌표
403397,홍돈,제주특별자치도 서귀포시 대정읍 노을해안로 104,33.2437635,126.2179824,정좌표
414149,오젠,제주특별자치도 서귀포시 대정읍 송악관광로177번길 253,33.2135659,126.2929992,정좌표
414257,EQ치킨,제주특별자치도 서귀포시 대정읍 상모로289번길 16-6,33.2228289,126.2573239,정좌표
414273,캔버스,"제주특별자치도 서귀포시 대정읍 영어도시로 67, 1층",33.2798179,126.2737676,정좌표
414375,마라도포장마차,제주특별자치도 서귀포시 대정읍 하모상가로 26,33.2214136,126.2516852,정좌표
414381,정원야간회센타,제주특별자치도 서귀포시 대정읍 하모상가로 34-3,33.2213786,126.2525955,정좌표
414405,산동산,제주특별자치도 서귀포시 대정읍 중산간서로 2660,33.267345,126.2550138,정좌표
414423,가파도용궁정식,제주특별자치도 서귀포시 대정읍 가파로67번길 7,33.1663761,126.2730014,정좌표
414933,트라몬토제주모슬포본점,제주특별자치도 서귀포시 대정읍 하모항구로 38,33.2174692,126.2498802,정좌표
416379,모슬포회센터,"제주특별자치도 서귀포시 대정읍 하모항구로 56-1, 1층",33.2184108,126.2508719,정좌표
416415,박김식당,"제주특별자치도 서귀포시 대정읍 영락중동로 30, 1층",33.2588613,126.2117715,정좌표
416959,전철우고향랭면,"제주특별자치도 서귀포시 대정읍 형제해안로 316, 1층",33.2071934,126.2903538,정좌표
417075,해주소반,"제주특별자치도 서귀포시 대정읍 글로벌에듀로 370, 105,106호",33.2268151,126.2522254,정좌표
419315,하모리밥,제주특별자치도 서귀포시 대정읍 최남단해안로125번길 42,33.2134742,126.2617634,정좌표
419397,낭꾸러기,제주특별자치도 서귀포시 대정읍 가파로 233,33.1710594,126.2731193,정좌표
419445,갈비가맛있다,"제주특별자치도 서귀포시 대정읍 글로벌에듀로 370, 135호,136호동 1층",33.2268151,126.2522254,정좌표
419489,장가네일품순두부모슬포점,제주특별자치도 서귀포시 대정읍 신영로 59,33.2208982,126.2494623,정좌표
419585,송악산도식후경,제주특별자치도 서귀포시 대정읍 형제해안로 318,33.2069506,126.2903317,정좌표
419717,순희네,제주특별자치도 서귀포시 대정읍 영서중로 59,33.2213107,126.2576204,정좌표
419725,불타는명태조림,제주특별자치도 서귀포시 대정읍 상모로 289,33.222978,126.2582595,정좌표
419729,소라소라,제주특별자치도 서귀포시 대정읍 형제해안로 318,33.2069506,126.2903317,정좌표
419861,나무식탁,제주특별자치도 서귀포시 대정읍 도원로 214,33.2780987,126.1916359,정좌표
422645,제주식스어클락,제주특별자치도 서귀포시 대정읍 신영로 33,33.2227662,126.2481121,정좌표
422677,송악산해물라면오빠네본가,"제주특별자치도 서귀포시 대정읍 형제해안로 296, 1층",33.2083197,126.2910436,정좌표
423363,샤브왕영어마을점,"제주특별자치도 서귀포시 대정읍 글로벌에듀로 382, B104,B105호",33.2268151,126.2522254,정좌표
423379,카페아모르파티,"제주특별자치도 서귀포시 대정읍 상모대서로 43-2, 1층",33.2267645,126.2581169,정좌표
424135,춘자네식당,제주특별자치도 서귀포시 대정읍 가파로67번길 96-1,33.1737256,126.2697515,정좌표
424159,날외15,제주특별자치도 서귀포시 대정읍 일과대수로 15,33.2397062,126.2320462,정좌표
424335,소문난우리정식뷔페,"제주특별자치도 서귀포시 대정읍 보성구억로 208, 1층",33.2707813,126.2784527,정좌표
424591,맘스터치 대정점,제주특별자치도 서귀포시 대정읍 상모로 302,33.2231616,126.2570728,정좌표
424695,미영이네,제주특별자치도 서귀포시 대정읍 하모항구로 42,33.2176507,126.2499045,정좌표
427705,산방흑돼지순대대정점,"제주특별자치도 서귀포시 대정읍 하모항구로6번길 28, 1층",33.2188383,126.250742,정좌표
427709,유채꽃향기처럼,제주특별자치도 서귀포시 대정읍 보성구억로 220,33.2701192,126.2785591,정좌표
428141,신모슬포포구식당,제주특별자치도 서귀포시 대정읍 최남단해안로 119,33.2114583,126.2566077,정좌표
428209,청루봉평메밀막국수전문점,제주특별자치도 서귀포시 대정읍 일주서로 2215,33.2488584,126.2814719,정좌표
428625,도니장어,"제주특별자치도 서귀포시 대정읍 상모로 248, 1층",33.2244328,126.2625514,정좌표
428633,꼬지사께모슬포점,제주특별자치도 서귀포시 대정읍 신영로 98-1,33.2208096,126.2535476,정좌표
428637,25시해장국,"제주특별자치도 서귀포시 대정읍 최남단해안로125번길 6, 1층",33.2139586,126.2573973,정좌표
429789,롯데리아모슬포점,제주특별자치도 서귀포시 대정읍 최남단해안로 13,33.2195093,126.2525008,정좌표
430189,요리하는김선장,제주특별자치도 서귀포시 대정읍 최남단해안로 37,33.2172336,126.2526168,정좌표
430457,신호등,제주특별자치도 서귀포시 대정읍 동일하모로 178,33.2257171,126.2501687,정좌표
430505,옥돔식당,제주특별자치도 서귀포시 대정읍 신영로36번길 62,33.2199418,126.2490877,정좌표
431817,영자네국밥,제주특별자치도 서귀포시 대정읍 영서중로13번길 5,33.2215641,126.2549517,정좌표
431837,최고야보리밥정식,"제주특별자치도 서귀포시 대정읍 신영로36번길 69-3, 1층",33.2204817,126.2486908,정좌표
431897,갑부순대국,"제주특별자치도 서귀포시 대정읍 상모로 285, 1층",33.2229422,126.2587869,정좌표
431933,제주콩순옥,제주특별자치도 서귀포시 대정읍 신영로 129-2,33.2234062,126.2549022,정좌표
431997,푸라닭대정점,제주특별자치도 서귀포시 대정읍 하모항구로6번길 26,33.2187983,126.2517756,정좌표
432085,불란지,제주특별자치도 서귀포시 대정읍 하모중앙로 46-6,33.2245387,126.2518322,정좌표
434773,막창먹는놈대정점,제주특별자치도 서귀포시 대정읍 신영로 129-3,33.2234552,126.2549291,정좌표
434791,하르방밀면,제주특별자치도 서귀포시 대정읍 동일하모로 229,33.2258848,126.2558227,정좌표
435703,민들레칼국수,제주특별자치도 서귀포시 대정읍 영서중로 6,33.2208746,126.254517,정좌표
435715,우성식당,제주특별자치도 서귀포시 대정읍 영서중로19번길 14,33.2224389,126.2556819,정좌표
436123,비에이치씨제주모슬포점,제주특별자치도 서귀포시 대정읍 최남단해안로 1,33.2202844,126.2522944,정좌표
436279,보말과풍경,제주특별자치도 서귀포시 대정읍 하모중앙로 17,33.2266286,126.2528666,정좌표
436651,페리카나모슬포점,"제주특별자치도 서귀포시 대정읍 상모대서로 25, 1층",33.2253156,126.2567608,정좌표
436687,굿밥,제주특별자치도 서귀포시 대정읍 글로벌에듀로145번길 40,33.2268151,126.2522254,정좌표
436693,산방식당,제주특별자치도 서귀포시 대정읍 하모이삼로 62,33.223395,126.2543017,정좌표
438185,동복리해녀잠수촌,제주특별자치도 제주시 구좌읍 구좌해안로 32,33.5551836,126.71916,정좌표
438303,머물다정식,"제주특별자치도 제주시 구좌읍 월정중길 20, 1층",33.5570683,126.791935,정좌표
438349,제인웰빙하우스,제주특별자치도 제주시 구좌읍 해맞이해안로 1852,33.5222084,126.8980519,정좌표
441721,그계절,"제주특별자치도 제주시 구좌읍 한동로 119, 1동 1층",33.5318164,126.8185803,정좌표
442133,이스트키친,"제주특별자치도 제주시 구좌읍 해맞이해안로 2486-21, 카동 1층",33.5291668,126.8538817,정좌표
442207,지붕위제주바다,"제주특별자치도 제주시 구좌읍 평대2길 17, 1층",33.5325767,126.8377169,정좌표
443231,김녕함바그집,"제주특별자치도 제주시 구좌읍 김녕로21길 9, 1층",33.5567627,126.7554115,정좌표
443295,송가네식당,"제주특별자치도 제주시 구좌읍 중산간동로 2245-1, 1층",33.4721763,126.7825734,정좌표
443313,세화야참,"제주특별자치도 제주시 구좌읍 세화3길 4, 1층",33.5236888,126.8560851,정좌표
443317,달치즈,"제주특별자치도 제주시 구좌읍 해녀박물관길 35, 1층",33.5241707,126.8620995,정좌표
443335,대복해장국,"제주특별자치도 제주시 구좌읍 김녕로 132, 1층",33.554971,126.7521909,정좌표
443355,영월갈비,제주특별자치도 제주시 구좌읍 김녕로 95,33.5543473,126.7482823,정좌표
443365,세화갈비,제주특별자치도 제주시 구좌읍 구좌로 39,33.5235711,126.8558348,정좌표
443385,아녜스의앞치마,"제주특별자치도 제주시 구좌읍 행원로5길 25, 1동 1층",33.5555865,126.8054561,정좌표
443405,평대시간이공이오,"제주특별자치도 제주시 구좌읍 해맞이해안로 1156-6, 1층",33.5291668,126.8538817,정좌표
443425,두꺼비집,"제주특별자치도 제주시 구좌읍 해맞이해안로 1422-7, 1층",33.5291668,126.8538817,정좌표
443445,고래의바다,"제주특별자치도 제주시 구좌읍 해맞이해안로 2340, 2층",33.492186,126.9096931,정좌표
443465,한동밥상,"제주특별자치도 제주시 구좌읍 한동로 153, 1층",33.5296627,126.8161486,정좌표
443469,장터횟집,"제주특별자치도 제주시 구좌읍 김녕로 88-1, 2층",33.5573814,126.7522424,정좌표
443487,장터밥집,"제주특별자치도 제주시 구좌읍 김녕로 88-1, 1층",33.5547973,126.7488496,정좌표
443507,바다를바라보면,"제주특별자치도 제주시 구좌읍 월정1길 47-1, 1층",33.5562274,126.793166,정좌표
443667,세화리움,"제주특별자치도 제주시 구좌읍 해녀박물관길 29, 1층",33.523525,126.863486,정좌표
444167,평대성게국수,"제주특별자치도 제주시 구좌읍 해맞이해안로 1172, 1층",33.5291668,126.8538817,정좌표
444855,렌소,"제주특별자치도 제주시 구좌읍 상도북4길 3, 제2동 1층",33.5200888,126.865719,정좌표
444887,송당해장국,제주특별자치도 제주시 구좌읍 중산간동로 2270,33.4710708,126.7851332,정좌표
444987,종달리엔심야식당,"제주특별자치도 제주시 구좌읍 종달로7길 15, 1층",33.4918684,126.898191,정좌표
445327,이여도산아,제주특별자치도 제주시 구좌읍 세평항로 46-4,33.5267849,126.8556816,정좌표
445359,우리두리,제주특별자치도 제주시 구좌읍 김녕로 173,33.5562298,126.7562411,정좌표
452159,쪼끌락,"제주특별자치도 제주시 구좌읍 김녕로21길 21, 제1호",33.5577318,126.7552547,정좌표
453111,청파식당횟집,제주특별자치도 제주시 구좌읍 세평항로 12,33.5244994,126.8536448,정좌표
459767,한거리푸줏간,"제주특별자치도 제주시 구좌읍 월정3길 49, 1층",33.5553596,126.7945055,정좌표
460019,괜찮은술책,"제주특별자치도 제주시 구좌읍 종달로 60-12, 1층",33.4920946,126.8955485,정좌표
460127,만월당,"제주특별자치도 제주시 구좌읍 월정1길 56, 1층",33.5561414,126.7930377,정좌표
485279,월정리맛집춘식탁,"제주특별자치도 제주시 구좌읍 월정7길 61, 1층 제2호",33.5551354,126.7952818,정좌표
485813,제주하늘래,"제주특별자치도 제주시 구좌읍 선유로 47, 1층",33.5489176,126.7392759,정좌표
485873,5길,"제주특별자치도 제주시 구좌읍 평대5길 40, 1층",33.5318334,126.842243,정좌표
487739,한라산도야지세화점,제주특별자치도 제주시 구좌읍 세평항로 46-8,33.5266782,126.85595,정좌표
487843,외갓집밥상,"제주특별자치도 제주시 구좌읍 일주동로 2841, 1층",33.5314441,126.8206181,정좌표
487855,월정리카페더블유728,"제주특별자치도 제주시 구좌읍 월정1길 101, 1층",33.5553375,126.7963128,정좌표
488023,어등포해녀촌,"제주특별자치도 제주시 구좌읍 행원로13길 131, 1층",33.5570082,126.8118893,정좌표
488299,세화야,"제주특별자치도 제주시 구좌읍 세평항로 38, 1층",33.5261548,126.8546643,정좌표
488373,섬나라횟집,제주특별자치도 제주시 구좌읍 해맞이해안로 1404,33.5291668,126.8538817,정좌표
488439,만물식당,"제주특별자치도 제주시 구좌읍 세평항로 46-6, 1층",33.5267627,126.8558218,정좌표
488935,낙천주의자들,"제주특별자치도 제주시 구좌읍 세화7길 28, 1동 1층",33.5231924,126.8604234,정좌표
489225,소라횟집,"제주특별자치도 제주시 구좌읍 해맞이해안로 1240-3, 1층",33.5324146,126.8463585,정좌표
489425,세화마구간,"제주특별자치도 제주시 구좌읍 면수길 49, 다동 1층",33.5248076,126.8652797,정좌표
489567,베이글림림,"제주특별자치도 제주시 구좌읍 월정1길 27, 나동 1층",33.5562274,126.793166,정좌표
489629,구르미스시카페,"제주특별자치도 제주시 구좌읍 해맞이해안로 1248, 1층",33.5291668,126.8538817,정좌표
489719,미풍해장국구좌세화점,"제주특별자치도 제주시 구좌읍 세화1길 25, 1층",33.5256835,126.8546573,정좌표
489725,그릉그릉파스타가게,"제주특별자치도 제주시 구좌읍 구좌로 31, 1층",33.5236205,126.8549288,정좌표
489745,쑝쑝돈까스제주구좌점,제주특별자치도 제주시 구좌읍 구좌로 43,33.5235008,126.8562232,정좌표
489765,월정리달이뜨는식탁,"제주특별자치도 제주시 구좌읍 월정1길 14, 1층",33.5562274,126.793166,정좌표
489785,벵디,"제주특별자치도 제주시 구좌읍 해맞이해안로 1108, 1층",33.5377667,126.8372139,정좌표
489805,숙자네숟가락젓가락,제주특별자치도 제주시 구좌읍 세평항로 45-2,33.5274415,126.8549344,정좌표
489825,세화족발,"제주특별자치도 제주시 구좌읍 해맞이해안로 1460, 2층",33.5244174,126.8613857,정좌표
489845,쯔루네,"제주특별자치도 제주시 구좌읍 김녕로1길 90, 제2호",33.5572557,126.7524725,정좌표
489865,명천,제주특별자치도 제주시 구좌읍 구좌로 10,33.5234059,126.8526937,정좌표
489885,동복뚝배기,"제주특별자치도 제주시 구좌읍 동복로 30-2, 1층",33.5531846,126.7093486,정좌표
489905,이디,"제주특별자치도 제주시 구좌읍 해녀박물관길 33-2, 제1동 1층",33.523525,126.863486,정좌표
491345,백년가야밀면,"제주특별자치도 제주시 구좌읍 일주동로 3111, 1층",33.5314441,126.8206181,정좌표
492857,카페제주동네,제주특별자치도 제주시 구좌읍 종달로5길 23,33.4932812,126.8986983,정좌표
492877,오늘식당,"제주특별자치도 제주시 구좌읍 일주동로 2966, 1층",33.5314441,126.8206181,정좌표
492881,대수굴식당,"제주특별자치도 제주시 구좌읍 대수길 10-4, 1동 1층",33.5361149,126.8394287,정좌표
492901,종달부부,"제주특별자치도 제주시 구좌읍 종달로1길 124-4, 제2동 1층",33.4959391,126.9082605,정좌표
492921,세컨드스토리,"제주특별자치도 제주시 구좌읍 월정1길 1, 1층",33.5520913,126.7910846,정좌표
492941,괜찮아,"제주특별자치도 제주시 구좌읍 해녀박물관길 27, 1층",33.5234279,126.8624058,정좌표
492961,마니,"제주특별자치도 제주시 구좌읍 해맞이해안로 1112, 1층",33.5375069,126.8375756,정좌표
493081,해맞이카페,"제주특별자치도 제주시 구좌읍 해맞이해안로 466, 1층",33.5291668,126.8538817,정좌표
493101,월정리유메이우동,"제주특별자치도 제주시 구좌읍 월정3길 52, 1층 제1호",33.5553643,126.7948091,정좌표
493121,따소롬,"제주특별자치도 제주시 구좌읍 월정1길 72-1, 1층",33.5572691,126.7938479,정좌표
493331,본초불닭발김녕점,제주특별자치도 제주시 구좌읍 김녕로 80,33.5541903,126.7467609,정좌표
493371,세화그때그집,"제주특별자치도 제주시 구좌읍 세평항로 43, 1층",33.5261548,126.8546643,정좌표
494167,정한가든,제주특별자치도 제주시 구좌읍 세화1길 6,33.5241096,126.854495,정좌표
494183,레이식당,"제주특별자치도 제주시 구좌읍 해맞이해안로 1156-5, 제2호",33.5359307,126.839765,정좌표
494315,짜장앤짬뽕,"제주특별자치도 제주시 구좌읍 일주동로 2023, 1층",33.5314441,126.8206181,정좌표
494335,고래날다,"제주특별자치도 제주시 구좌읍 월정3길 53-7, 1층",33.5561885,126.7943529,정좌표
494355,월정리갈비밥,"제주특별자치도 제주시 구좌읍 월정7길 46, 1층 제1호",33.5548185,126.7969015,정좌표
494375,바다향기,제주특별자치도 제주시 구좌읍 행원로1길 32,33.5548917,126.8000825,정좌표
499863,니모스토리,"제주특별자치도 제주시 구좌읍 김녕로17길 33-1, 1층",33.5582612,126.7541067,정좌표
499883,종달수다뜰,제주특별자치도 제주시 구좌읍 용눈이오름로 8,33.4918686,126.893156,정좌표
499903,모다,"제주특별자치도 제주시 구좌읍 구좌해안로 52-13, A동 1층",33.5561229,126.7205363,정좌표
499939,치킨과바람피자,"제주특별자치도 제주시 구좌읍 구좌로 91, 1층",33.521876,126.861331,정좌표
500215,흙먹는고양이,"제주특별자치도 제주시 구좌읍 계룡길 26-20, 1층",33.5381975,126.8358544,정좌표
500375,하도테이블,"제주특별자치도 제주시 구좌읍 하도9길 72, E동 1층",33.5141491,126.8877209,정좌표
500395,얼랑핀칙하도야,"제주특별자치도 제주시 구좌읍 해맞이해안로 1588-42, 1층",33.5291668,126.8538817,정좌표
500415,릴로,"제주특별자치도 제주시 구좌읍 종달로 60-12, 1층",33.4920946,126.8955485,정좌표
500435,담백,"제주특별자치도 제주시 구좌읍 해맞이해안로 518, 1층",33.5291668,126.8538817,정좌표
500455,서울촌놈인제주김녕점,"제주특별자치도 제주시 구좌읍 해맞이해안로 140, 1~2층",33.5291668,126.8538817,정좌표
500475,세화통닭,"제주특별자치도 제주시 구좌읍 세화1길 8, 1층",33.5242314,126.8546011,정좌표
500491,세평맛집,제주특별자치도 제주시 구좌읍 세평항로 1,33.5238501,126.8527535,정좌표
500499,만조식당,제주특별자치도 제주시 구좌읍 평대13길 54,33.5270421,126.8546383,정좌표
500509,장안해물칼국수,"제주특별자치도 제주시 구좌읍 김녕로 173, 1층",33.5562298,126.7562411,정좌표
500529,섬노예,제주특별자치도 제주시 구좌읍 세화2길 3,33.5231847,126.8558743,정좌표
500549,레드썬셋,"제주특별자치도 제주시 구좌읍 구좌해안로 16, 1층",33.5570179,126.7278068,정좌표
500677,지미스테이,"제주특별자치도 제주시 구좌읍 하도15길 153-3, 1층",33.5148156,126.8960812,정좌표
500837,차우,"제주특별자치도 제주시 구좌읍 월정1길 10, 1층",33.5530132,126.791046,정좌표
500857,바미아일랜드,"제주특별자치도 제주시 구좌읍 해맞이해안로 474-1, 1층",33.5291668,126.8538817,정좌표
501219,편안한맛집,제주특별자치도 제주시 구좌읍 김녕로 106,33.5542246,126.7494406,정좌표
501285,민경이네어등포해녀촌,"제주특별자치도 제주시 구좌읍 해맞이해안로 830, 1층",33.5593822,126.7931782,정좌표
501737,종달아구찜,"제주특별자치도 제주시 구좌읍 종달논길 48, 1층",33.4928117,126.9001419,정좌표
501781,윤스타피자앤파스타,"제주특별자치도 제주시 구좌읍 문주란로1길 74-20, 1층",33.5248874,126.8842862,정좌표
502371,행원바당손칼국수,"제주특별자치도 제주시 구좌읍 해맞이해안로 820, 1동 1층",33.5291668,126.8538817,정좌표
502459,모다정,제주특별자치도 제주시 구좌읍 세평항로 26,33.5255713,126.8544176,정좌표
505131,그초록,"제주특별자치도 제주시 구좌읍 행원로7길 23-16, 1층",33.5564111,126.8064452,정좌표
505645,월정에뜬닭,"제주특별자치도 제주시 구좌읍 해맞이해안로 460, 1층",33.5556406,126.7958901,정좌표
505695,마니해장국,"제주특별자치도 제주시 구좌읍 일주동로 2431, 1층",33.5314441,126.8206181,정좌표
505707,세화잠수촌,제주특별자치도 제주시 구좌읍 해맞이해안로 1391,33.5545797,126.7993253,정좌표
505755,하도1940,"제주특별자치도 제주시 구좌읍 해맞이해안로 1681-3, 1층",33.5276726,126.8825022,정좌표
505863,길리,"제주특별자치도 제주시 구좌읍 월정1길 65, 1층",33.5566513,126.7937413,정좌표
506049,순희밥상,제주특별자치도 제주시 구좌읍 종달로5길 38,33.4928739,126.899942,정좌표
506137,신미국밥,제주특별자치도 제주시 구좌읍 김녕로 108,33.5543286,126.7496437,정좌표
506193,열두마루,제주특별자치도 제주시 구좌읍 한동로1길 38,33.5356983,126.8254619,정좌표
506431,바당지기동복점,"제주특별자치도 제주시 구좌읍 일주동로 1754, 1층",33.5532513,126.7196972,정좌표
506457,아로미에식당,제주특별자치도 제주시 구좌읍 세평항로 46-12,33.5269861,126.8560945,정좌표
506479,소금밭,"제주특별자치도 제주시 구좌읍 종달동길 29-3, 1층",33.4914879,126.9028617,정좌표
506487,빠삭,"제주특별자치도 제주시 구좌읍 월정3길 53-2, 1층",33.5559973,126.7949942,정좌표
506537,영아네맛집,제주특별자치도 제주시 구좌읍 구좌로 46,33.5231278,126.8563552,정좌표
506561,빨간맛집세화점,"제주특별자치도 제주시 구좌읍 구좌로 46, 1층",33.5231278,126.8563552,정좌표
506585,제주담식당,제주특별자치도 제주시 구좌읍 비자림로 1575,33.4683292,126.7739707,정좌표
506635,임풍해장국,"제주특별자치도 제주시 구좌읍 김녕로 141, B동 101호",33.5555934,126.7531231,정좌표
506705,라쿤하우스,"제주특별자치도 제주시 구좌읍 김녕로17길 22-10, 1층",33.5575787,126.7546442,정좌표
506791,바당앤콩밭발효카페,"제주특별자치도 제주시 구좌읍 한동로 27, 1층",33.537265,126.8245741,정좌표
506793,두문포갈치,"제주특별자치도 제주시 구좌읍 해맞이해안로 2286, 1층",33.5291668,126.8538817,정좌표
506927,본전,제주특별자치도 제주시 구좌읍 세평항로 24,33.5254289,126.8543269,정좌표
506959,바다는안보여요,제주특별자치도 제주시 구좌읍 종달로5길 31-1,33.4933215,126.8994833,정좌표
507019,월정포구,"제주특별자치도 제주시 구좌읍 월정1길 70-16, 1층",33.5569096,126.7939703,정좌표
507065,돼지앤,"제주특별자치도 제주시 구좌읍 세화1길 33, 1층",33.5262327,126.8551702,정좌표
507067,한울타리한우정육식당,"제주특별자치도 제주시 구좌읍 송당서길 5, 1층",33.4764906,126.7882841,정좌표
507155,요레,"제주특별자치도 제주시 구좌읍 해맞이해안로 1450-1, 1층",33.5240588,126.8612475,정좌표
507189,삼다버거,"제주특별자치도 제주시 구좌읍 선유로 80, 1층",33.54818,126.7359591,정좌표
507391,우미정,제주특별자치도 제주시 구좌읍 세화2길 7,33.523002,126.8561071,정좌표
507471,포세화,"제주특별자치도 제주시 구좌읍 구좌로 46, 1층",33.5231278,126.8563552,정좌표
507533,제주삼다장앤장충동왕족발,"제주특별자치도 제주시 구좌읍 비자숲길 15, 1동 1층",33.495364,126.8120934,정좌표
508259,다래향2호점,"제주특별자치도 제주시 구좌읍 세화1길 4, 1층",33.5265212,126.856318,정좌표
508471,헛간,"제주특별자치도 제주시 구좌읍 덕평로 9-8, 1층",33.4841817,126.7461723,정좌표
508509,평대앓이,"제주특별자치도 제주시 구좌읍 비자림로 2718-3, 1층",33.467852,126.7724183,정좌표
508657,브릭스제주,"제주특별자치도 제주시 구좌읍 김녕로2길 6, 1층",33.5546239,126.7430191,정좌표
508685,수필하우스,제주특별자치도 제주시 구좌읍 종달논길 50-1,33.4929529,126.8996021,정좌표
508687,욜로펜션카페,"제주특별자치도 제주시 구좌읍 문주란로 58, 1동 1층",33.5223661,126.8834726,정좌표
508703,세러데이아일랜드,"제주특별자치도 제주시 구좌읍 평대7길 51, 1층",33.5325407,126.8441262,정좌표
509639,야미야미치킨,"제주특별자치도 제주시 구좌읍 월정3길 52, 1층",33.5553643,126.7948091,정좌표
509759,어멍이해녀,"제주특별자치도 제주시 구좌읍 해맞이해안로 2244, 1층",33.5246476,126.8599392,정좌표
510027,오스모시스,"제주특별자치도 제주시 구좌읍 해맞이해안로 1026, 1동 1층",33.5404929,126.8307706,정좌표
510107,한라산,"제주특별자치도 제주시 구좌읍 면수1길 48, 2동 1층",33.5247614,126.8629928,정좌표
511601,영희네우럭명가,"제주특별자치도 제주시 구좌읍 세화1길 27, 1층",33.5254154,126.855013,정좌표
513649,풍미독서,"제주특별자치도 제주시 구좌읍 세화합전2길 7, 1층 1호",33.5137935,126.8591021,정좌표
514097,오조파스타앤피자,"제주특별자치도 제주시 구좌읍 해녀박물관길 30, 1층",33.5238469,126.8627755,정좌표
514209,구슬함박,"제주특별자치도 제주시 구좌읍 해맞이해안로 1460, 세화팬션 숨비 1층",33.5160918,126.8632246,정좌표
514275,비자림휴게소,"제주특별자치도 제주시 구좌읍 비자숲길 62, 비자림 1층",33.484272,126.8064793,정좌표
514315,흙소담,"제주특별자치도 제주시 구좌읍 해맞이해안로 2484, 1층 107호",33.5291668,126.8538817,정좌표
514355,섭섭이네,"제주특별자치도 제주시 구좌읍 중산간동로 2261, 1층",33.4715704,126.7844075,정좌표
514729,우드스탁,"제주특별자치도 제주시 구좌읍 월정7길 52, 1~2층",33.5553068,126.7966793,정좌표
523429,한라식당,제주특별자치도 제주시 구좌읍 김녕로 99-1,33.5542816,126.7488346,정좌표
524329,비자림 양푼이 국수,"제주특별자치도 제주시 구좌읍 비자림로 2235-2, 1층",33.467852,126.7724183,정좌표
524357,유니온제주,"제주특별자치도 제주시 구좌읍 해맞이해안로 486, B103호",33.5291668,126.8538817,정좌표
524849,바당지기,"제주특별자치도 제주시 구좌읍 해맞이해안로 480, 1층",33.5593822,126.7931782,정좌표
526257,인손,"제주특별자치도 제주시 구좌읍 세화4길 10, 1층",33.5227733,126.8556461,정좌표
526467,페어리제주,"제주특별자치도 제주시 구좌읍 해맞이해안로 1486, 1층",33.5249042,126.8642192,정좌표
526635,술의식물원,"제주특별자치도 제주시 구좌읍 중산간동로 2253, 1층",33.471814,126.7837769,정좌표
526803,에그써티제주점,"제주특별자치도 제주시 구좌읍 해맞이해안로 820, 2동 1층",33.5291668,126.8538817,정좌표
526879,제주로움,"제주특별자치도 제주시 구좌읍 월정3길 14, 2층",33.5554342,126.7966183,정좌표
527079,돌담넘는고양이,"제주특별자치도 제주시 구좌읍 해맞이해안로 2478, 나동 1층",33.5291668,126.8538817,정좌표
527121,철이네정육식당,제주특별자치도 제주시 구좌읍 종달로 53,33.4934377,126.8967303,정좌표
527163,월정리곳간,"제주특별자치도 제주시 구좌읍 해맞이해안로 584-2, 1층",33.5563575,126.8068338,정좌표
527251,카페청굴물,"제주특별자치도 제주시 구좌읍 김녕로1길 75-1, 1층",33.5577761,126.751232,정좌표
527391,부가네얼큰이구좌세화점,제주특별자치도 제주시 구좌읍 구좌로 8,33.5215282,126.8574235,정좌표
527407,넘은봄,"제주특별자치도 제주시 구좌읍 김녕로1길 75-1, 1층",33.5577761,126.751232,정좌표
527487,빗소리,"제주특별자치도 제주시 구좌읍 김녕로 151, 1층",33.5556556,126.7540181,정좌표
527671,금송당,"제주특별자치도 제주시 구좌읍 중산간동로 2262, 1층",33.4713153,126.7843218,정좌표
527725,흑족발집,제주특별자치도 제주시 구좌읍 일주동로 3141,33.5425771,126.8122604,정좌표
528749,윤슬,"제주특별자치도 제주시 구좌읍 김녕로17길 30, 1~2층",33.5578479,126.7544228,정좌표
529565,곱창에미치다,"제주특별자치도 제주시 한경면 두신로 39, 2동 1층",33.3468437,126.1823411,정좌표
529667,모살왓,제주특별자치도 제주시 한경면 두신로 21-28,33.3446775,126.181486,정좌표
529777,미식가,제주특별자치도 제주시 한경면 노을해안로 1146,33.308255,126.1647061,정좌표
529797,열두달,"제주특별자치도 제주시 한경면 용수길 37, 1층",33.3223998,126.1701912,정좌표
529817,웃뜨르항아리,"제주특별자치도 제주시 한경면 중산간서로 3705, 1층",33.33543,126.2565711,정좌표
529837,그린사이공,"제주특별자치도 제주시 한경면 두신로 38, 1층",33.3464024,126.1832343,정좌표
529857,쉘브르,"제주특별자치도 제주시 한경면 일주서로 4533-11, 1층",33.3654338,126.1989556,정좌표
530001,인디에어,"제주특별자치도 제주시 한경면 두모11길 51, 1층",33.356885,126.1825953,정좌표
530021,마루나,"제주특별자치도 제주시 한경면 금등4길 11, 1층",33.3619265,126.195894,정좌표
530041,당산봉,제주특별자치도 제주시 한경면 고산로 59,33.306206,126.1786239,정좌표
530061,휴식공간,"제주특별자치도 제주시 한경면 낙수로 85, 1층",33.3283528,126.2307993,정좌표
530253,제주돔베막국수,제주특별자치도 제주시 한경면 고산로 35,33.3041465,126.1794537,정좌표
530537,저지리498맛나게드시게,제주특별자치도 제주시 한경면 중산간서로 3793,33.3422665,126.2558086,정좌표
530977,한라당몰국수,제주특별자치도 제주시 한경면 중산간서로 3645,33.3301746,126.2550713,정좌표
531257,한양동식당,"제주특별자치도 제주시 한경면 용금로 501, 1층 2호",33.3366069,126.2336296,정좌표
531313,미온당,제주특별자치도 제주시 한경면 중산간서로 3594,33.3258701,126.2526613,정좌표
531433,수월식당,제주특별자치도 제주시 한경면 고산로 32,33.3039323,126.1797276,정좌표
531445,지서개식당,"제주특별자치도 제주시 한경면 한경해안로 77, 1층",33.3328723,126.1697983,정좌표
531491,아방도르다,"제주특별자치도 제주시 한경면 두신로 68, 1층",33.3489619,126.182803,정좌표
531651,뿌떡,"제주특별자치도 제주시 한경면 용수1길 4, 1층",33.3220484,126.1688595,정좌표
531661,명동식도락,"제주특별자치도 제주시 한경면 녹차분재로 530, 1층",33.3257082,126.2552516,정좌표
531821,달아래팥,"제주특별자치도 제주시 한경면 낙수로 148, 1층",33.3240679,126.2291082,정좌표
531841,서쪽하늘,"제주특별자치도 제주시 한경면 한장중길 24-3, 1층 제1호",33.289235,126.1662584,정좌표
531861,물통식당,제주특별자치도 제주시 한경면 명이5길 20,33.3190367,126.2707855,정좌표
532449,청수청년곱창,"제주특별자치도 제주시 한경면 연명로 344, 1층",33.3020455,126.2589933,정좌표
532469,가자고산,제주특별자치도 제주시 한경면 용고로 76,33.3014513,126.1793106,정좌표
532479,양가형제,"제주특별자치도 제주시 한경면 청수동8길 3, 1층",33.3073725,126.2540944,정좌표
532499,맛있는폴부엌,제주특별자치도 제주시 한경면 녹차분재로 568,33.3244002,126.2558172,정좌표
532519,황토가든,"제주특별자치도 제주시 한경면 두조로 260, 1층",33.3430426,126.2096635,정좌표
532521,진달래식당,"제주특별자치도 제주시 한경면 용수3길 38, 1층",33.3246505,126.1659485,정좌표
532601,수월봉가마솥순대국,"제주특별자치도 제주시 한경면 고산서2길 18, 1층",33.3007773,126.1777823,정좌표
532621,저바다에누워,"제주특별자치도 제주시 한경면 판조로 3-5, 제2동 1~2층",33.351183,126.216621,정좌표
532641,요나스,"제주특별자치도 제주시 한경면 신한로 17, 1층",33.3496635,126.185099,정좌표
532661,판포어촌계직영펜션식당,"제주특별자치도 제주시 한경면 일주서로 4542, 1층",33.3414039,126.1898997,정좌표
532695,한질에칼국수,제주특별자치도 제주시 한경면 두신로 76,33.3497362,126.1831059,정좌표
532717,탐라반상,제주특별자치도 제주시 한경면 녹차분재로 462,33.3148365,126.2734488,정좌표
533085,트레이712,"제주특별자치도 제주시 한경면 용금로 858, 1층",33.3351221,126.226991,정좌표
533121,채훈이네해장국,제주특별자치도 제주시 한경면 두신로 69,33.3493211,126.182527,정좌표
533583,뚱보아저씨,"제주특별자치도 제주시 한경면 중산간서로 3651, 1층",33.3306389,126.2554594,정좌표
534427,세가름,"제주특별자치도 제주시 한경면 신한로 20, 나동",33.349418,126.1850181,정좌표
534459,아찌국밥,제주특별자치도 제주시 한경면 고산로 34,33.3040485,126.1797177,정좌표
534511,청은국수,"제주특별자치도 제주시 한경면 두신로 70, 1층",33.3491053,126.1828064,정좌표
534563,풍차와전복,"제주특별자치도 제주시 한경면 두모5길 59, 1층",33.3564038,126.1821222,정좌표
534767,바람과언덕,"제주특별자치도 제주시 한경면 노을해안로 1203-4, 1층",33.3071297,126.1684779,정좌표
534785,중국집마씸,"제주특별자치도 제주시 한경면 두신로 78, 1층",33.3498359,126.1832048,정좌표
535043,고산함지박,제주특별자치도 제주시 한경면 고락로 4,33.3033042,126.1801143,정좌표
535077,대물식당,"제주특별자치도 제주시 한경면 노을해안로 1169, 1층",33.308573,126.1657849,정좌표
535207,제주오름과바당,"제주특별자치도 제주시 한경면 녹차분재로 531, 1층",33.3244002,126.2558172,정좌표
535333,돈뜰,"제주특별자치도 제주시 한경면 녹차분재로 619, 1층",33.3257082,126.2552516,정좌표
535585,아파트먼트커피,"제주특별자치도 제주시 한경면 청수서2길 96, 1층",33.3113329,126.2447042,정좌표
535589,연리지가든,"제주특별자치도 제주시 한경면 두조로 190-20, 다동 1층",33.3444986,126.2027639,정좌표
535781,인판포,제주특별자치도 제주시 한경면 일주서로 4533-21,33.3654338,126.1989556,정좌표
535801,저지오름반점,제주특별자치도 제주시 한경면 중산간서로 3649,33.3304855,126.2553218,정좌표
535895,제비상회,"제주특별자치도 제주시 한경면 신한로 45, 1층",33.3484293,126.1876328,정좌표
535935,백일,제주특별자치도 제주시 한경면 두신로 88,33.3505996,126.1837067,정좌표
535951,춤추는짜장,"제주특별자치도 제주시 한경면 일주서로 4187, 1층 1호",33.3402228,126.1818428,정좌표
535961,가보카,"제주특별자치도 제주시 한경면 명이2길 31, 1층",33.3173958,126.264702,정좌표
535983,장수촌,제주특별자치도 제주시 한경면 고산서2길 18,33.3007773,126.1777823,정좌표
536226,이누팬,"제주특별자치도 제주시 한경면 고산로 33-3, 1층",33.3038593,126.1789271,정좌표
536262,바람과노을,"제주특별자치도 제주시 한경면 노을해안로 1150, 2층",33.3085269,126.1646779,정좌표
536306,토리,"제주특별자치도 제주시 한경면 녹차분재로 626, 1층",33.3244002,126.2558172,정좌표
537881,더애월김치찌개전문점저지점,제주특별자치도 제주시 한경면 저지12길 99,33.3397466,126.261347,정좌표
538053,노을안에풍차,"제주특별자치도 제주시 한경면 한경해안로 360, 1층",33.3368816,126.1647341,정좌표
538117,해문달술,"제주특별자치도 제주시 한경면 노을해안로 1174, 차귀낚시점 1층",33.3080639,126.1655615,정좌표
538181,우리집아점,"제주특별자치도 제주시 한림읍 한림로 242, 1층",33.387882,126.2332862,정좌표
538365,몽실이네,제주특별자치도 제주시 한림읍 한림로 669-1,33.414972,126.2645636,정좌표
538397,모이모이,제주특별자치도 제주시 한림읍 귀덕8길 39,33.4406593,126.2898087,정좌표
538807,칠일칠팔,제주특별자치도 제주시 한림읍 문화길 5,33.4141919,126.2621603,정좌표
538825,두마리찜닭두찜제주한림점,제주특별자치도 제주시 한림읍 한림중앙로 41,33.4111115,126.2655863,정좌표
538845,마당집,"제주특별자치도 제주시 한림읍 한림로12길 1-4, 1층",33.415472,126.2655641,정좌표
538883,대문집,제주특별자치도 제주시 한림읍 한림로 484,33.4026902,126.2519622,정좌표
538903,돈지정가든,제주특별자치도 제주시 한림읍 금악로 1-1,33.3574905,126.295638,정좌표
538909,제주도민상회본점,제주특별자치도 제주시 한림읍 한림로3길 8,33.4132616,126.260303,정좌표
540347,돌갱이네집,"제주특별자치도 제주시 한림읍 한림로 329-6, 1층",33.393627,126.2399044,정좌표
540367,야미야미한림점,제주특별자치도 제주시 한림읍 명랑로 10,33.4144928,126.2659416,정좌표
540371,고향숯불막창한림점,"제주특별자치도 제주시 한림읍 한림로4길 31, 1층",33.4103808,126.2632295,정좌표
540391,금능이모네,"제주특별자치도 제주시 한림읍 금능길 55, 1층",33.3881374,126.2294884,정좌표
540411,누산타라,"제주특별자치도 제주시 한림읍 한림로 649-1, 1층",33.4140322,126.2626655,정좌표
540415,제주코,"제주특별자치도 제주시 한림읍 중산간서로 4494, 1층",33.3726752,126.2845786,정좌표
540435,콩마루순두부짬뽕,"제주특별자치도 제주시 한림읍 한림로 638, 1층",33.4131707,126.2619205,정좌표
540455,돈해상,"제주특별자치도 제주시 한림읍 귀덕11길 39, 1층",33.4461793,126.2960732,정좌표
540475,사형제,"제주특별자치도 제주시 한림읍 한림상로 273, 1~2층",33.4224146,126.2663991,정좌표
540495,오늘은고기한림점,"제주특별자치도 제주시 한림읍 한림중앙로 46, 1층",33.4044889,126.2697728,정좌표
540515,민경이네,제주특별자치도 제주시 한림읍 비양도길 275,33.4064952,126.2311994,정좌표
540535,수구레해장국5호점,제주특별자치도 제주시 한림읍 한림로3길 8-9,33.4138845,126.260941,정좌표
540563,새하네식탁,"제주특별자치도 제주시 한림읍 한림해안로 460, 1층",33.4367966,126.2704561,정좌표
540875,이서순대국밥,제주특별자치도 제주시 한림읍 한림해안로 162,33.4166615,126.2633377,정좌표
540967,비양도,제주특별자치도 제주시 한림읍 한림로 167,33.3860678,126.2258574,정좌표
541303,독개물항,"제주특별자치도 제주시 한림읍 한림로 478, 1층",33.4018706,126.2516959,정좌표
544427,한림바다생태체험마을,제주특별자치도 제주시 한림읍 한림해안로 200,33.4197809,126.2628316,정좌표
544735,대금,제주특별자치도 제주시 한림읍 옹포1길 6,33.4025174,126.2510864,정좌표
544763,뼈대감,제주특별자치도 제주시 한림읍 한림중앙로 61-2,33.4094157,126.2663542,정좌표
545075,남성해장국,제주특별자치도 제주시 한림읍 한림상로 230,33.4188203,126.268211,정좌표
545151,금수강산바다장어,제주특별자치도 제주시 한림읍 사가동길 17,33.4156209,126.2629994,정좌표
545163,영림흑돼지가든,제주특별자치도 제주시 한림읍 한수풀로 30,33.4177892,126.266104,정좌표
545255,제주하늘집,"제주특별자치도 제주시 한림읍 한림로 475, 지1층",33.3989324,126.2421759,정좌표
546459,페리카나한림분점,제주특별자치도 제주시 한림읍 한림중앙로 3-1,33.4143077,126.2649541,정좌표
546483,한림족발,"제주특별자치도 제주시 한림읍 한림상로 219, 1층",33.4178678,126.2679859,정좌표
546583,도르르김밥,"제주특별자치도 제주시 한림읍 일주서로 5903-6, 1층",33.4449056,126.2966756,정좌표
546683,착한스시,"제주특별자치도 제주시 한림읍 협재2길 18, 동양빌리지 1층",33.3923698,126.2416493,정좌표
547767,한림국수집,제주특별자치도 제주시 한림읍 한림상로 158,33.412296,126.2689984,정좌표
547823,옹포바다,"제주특별자치도 제주시 한림읍 옹포1길 24, 1층",33.4038406,126.2517757,정좌표
548327,투존치킨협재점,제주특별자치도 제주시 한림읍 한림로 127,33.3852479,126.2212993,정좌표
548387,씨리얼제주,"제주특별자치도 제주시 한림읍 명랑로 26, 1층",33.414175,126.267655,정좌표
548717,오태식해바라기치킨한림점,"제주특별자치도 제주시 한림읍 대림4길 20, 101호",33.4194328,126.2661745,정좌표
548783,백부장집,"제주특별자치도 제주시 한림읍 한림중앙로 64, 1층",33.4089912,126.265851,정좌표
548907,모래알,제주특별자치도 제주시 한림읍 한림로 349-1,33.3945434,126.2409499,정좌표
551985,국수와야식,제주특별자치도 제주시 한림읍 한림로 668,33.4144183,126.2645499,정좌표
552033,한림옹포왕코다리전문점,"제주특별자치도 제주시 한림읍 한림해안로 8, 103호",33.3895279,126.2392884,정좌표
552191,한림도새기,"제주특별자치도 제주시 한림읍 한림상로 149, 1층 1호",33.4120751,126.2679633,정좌표
552313,땅땅치킨한림점,"제주특별자치도 제주시 한림읍 한림상로 146, 1층",33.4116487,126.2681556,정좌표
552385,푸른솔샘,제주특별자치도 제주시 한림읍 중산간서로 4280,33.3568939,126.2948654,정좌표
552461,황칠이야기,"제주특별자치도 제주시 한림읍 옹포6길 5, 1층",33.4031346,126.2526637,정좌표
552481,아이스데이,"제주특별자치도 제주시 한림읍 명월성로 18, 1층",33.504269,126.5410236,정좌표
552501,지희네,제주특별자치도 제주시 한림읍 한림중앙로 26,33.4123031,126.2646629,정좌표
552503,파라토도스,"제주특별자치도 제주시 한림읍 금능길 87, 2~3층",33.3891272,126.2325092,정좌표
558967,수일통닭한림점,"제주특별자치도 제주시 한림읍 한림로 475, 지하1층",33.3989324,126.2421759,정좌표
558987,캘리포니아,"제주특별자치도 제주시 한림읍 금악남1길 8, 1층",33.3570393,126.2983035,정좌표
559051,돌고래식당,"제주특별자치도 제주시 한림읍 한림해안로 139, 한림항 선원복지회관 1층",33.4151701,126.2611176,정좌표
559159,제주협재밥집술집홍대부부,"제주특별자치도 제주시 한림읍 협재4길 9, 1층",33.3945924,126.2424977,정좌표
559179,놀부네,"제주특별자치도 제주시 한림읍 한림남길 4, 1층",33.4116655,126.2685208,정좌표
559199,기똥찬양꼬치,"제주특별자치도 제주시 한림읍 한림로 687, 1층",33.4160916,126.2649401,정좌표
559327,곱창스튜디오,"제주특별자치도 제주시 한림읍 한림로19길 10, 1층",33.4172059,126.2637784,정좌표
559345,수우동,"제주특별자치도 제주시 한림읍 협재1길 11, 1층",33.3965751,126.2425147,정좌표
565993,해물창고,"제주특별자치도 제주시 한림읍 한림북동길 7, 2층 224호",33.4158571,126.2637709,정좌표
566003,호텔샌드,"제주특별자치도 제주시 한림읍 한림로 339, 1층",33.3940557,126.2405094,정좌표
566023,신스버거,"제주특별자치도 제주시 한림읍 월령2길 2, 1층",33.3746401,126.2166188,정좌표
566043,한림대덕,제주특별자치도 제주시 한림읍 한림로5길 17,33.4167713,126.2642302,정좌표
566045,비양,"제주특별자치도 제주시 한림읍 옹포3길 25-2, 1층",33.4053831,126.2520877,정좌표
566065,장수골,제주특별자치도 제주시 한림읍 한림상로 150,33.4118152,126.2683931,정좌표
566081,후원,"제주특별자치도 제주시 한림읍 한림로 503, 1층",33.4041634,126.2529269,정좌표
566101,제주산책,"제주특별자치도 제주시 한림읍 한림로 698, 1층",33.4168891,126.2651092,정좌표
566107,통큰코다리,"제주특별자치도 제주시 한림읍 협재2길 10-1, 1층",33.3917519,126.2419452,정좌표
566467,돈까스집,"제주특별자치도 제주시 한림읍 한림로 655-1, 1층",33.4144376,126.2631573,정좌표
566487,제주미친흑돈,"제주특별자치도 제주시 한림읍 한림해안로 534, 다동 1층",33.43666,126.2748879,정좌표
566507,비타민국수,제주특별자치도 제주시 한림읍 한림로 661,33.4144793,126.2637553,정좌표
566527,비양도봄날,"제주특별자치도 제주시 한림읍 비양도길 62, 1층",33.4049998,126.2253511,정좌표
566531,인제주,"제주특별자치도 제주시 한림읍 명월성로 137-14, 2층",33.3966652,126.2636389,정좌표
566551,협재해물라면쪼꼴락상회,"제주특별자치도 제주시 한림읍 협재4길 9, 1층",33.3945924,126.2424977,정좌표
567015,해담은,제주특별자치도 제주시 한림읍 강구로 70-2,33.4095004,126.2754724,정좌표
567039,제주나무처럼,"제주특별자치도 제주시 한림읍 홍수암로 3-1, 1층",33.3844265,126.2262826,정좌표
567743,가리비안의해적,"제주특별자치도 제주시 한림읍 한림로 335, D동 2층",33.3989324,126.2421759,정좌표
567761,한림협재점교촌치킨,제주특별자치도 제주시 한림읍 한림중앙로 47,33.410585,126.2657086,정좌표
567781,군산아구찜,"제주특별자치도 제주시 한림읍 한림해안로 8, 102호 (씨비양빌리지)",33.4257892,126.2673117,정좌표
567801,협재포항물회,제주특별자치도 제주시 한림읍 한림로 354,33.3947774,126.2416879,정좌표
567821,맹순이네,"제주특별자치도 제주시 한림읍 금능1길 7, 1층",33.3871445,126.2243686,정좌표
567831,바당어부,"제주특별자치도 제주시 한림읍 금능남1길 10-21, 1층",33.385398,126.230536,정좌표
567885,영진보말칼국수제주협재점,제주특별자치도 제주시 한림읍 한림로5길 23,33.4146732,126.2613821,정좌표
567905,섬고래,"제주특별자치도 제주시 한림읍 금능길 65, 1층",33.3884475,126.2301314,정좌표
567925,오리지날로맨스,"제주특별자치도 제주시 한림읍 옹포2길 1, 1~2층",33.3986066,126.2514407,정좌표
567945,한솥도시락제주한림점,"제주특별자치도 제주시 한림읍 한림중앙로 10-1, 1층",33.4137927,126.2644881,정좌표
567965,한림통큰장어,"제주특별자치도 제주시 한림읍 한림로 525, 1층",33.4051949,126.254926,정좌표
567985,풍자네포차,"제주특별자치도 제주시 한림읍 한림로 685-2, 1층",33.4160702,126.2647664,정좌표
567989,오늘은고기제주본점,"제주특별자치도 제주시 한림읍 일주서로 5167, A동 3층",33.4095489,126.2638736,정좌표
568009,아방솟덕,"제주특별자치도 제주시 한림읍 명랑로 36, 1층",33.4141812,126.2684827,정좌표
568013,삼정국수,"제주특별자치도 제주시 한림읍 한림로 662-1, 1층",33.4143004,126.2639835,정좌표
568033,바다그리기,"제주특별자치도 제주시 한림읍 옹포2길 16, 1층",33.399358,126.2500953,정좌표
568393,금촌댁,제주특별자치도 제주시 한림읍 한림로 686-1,33.4160265,126.2653123,정좌표
568413,닐스,"제주특별자치도 제주시 한림읍 일주서로 5153, 가동 1층",33.3933134,126.2559986,정좌표
568433,고향흑돼지,제주특별자치도 제주시 한림읍 한림해안로 29,33.4076187,126.2536768,정좌표
568453,엄지네,"제주특별자치도 제주시 한림읍 한림로15길 6, 1층",33.4164816,126.2643325,정좌표
568457,밥깡패,"제주특별자치도 제주시 한림읍 한림로4길 35, 1층",33.4101259,126.263442,정좌표
568701,안녕협재씨제주협재점,"제주특별자치도 제주시 한림읍 협재1길 55, 1층",33.3989739,126.2454361,정좌표
569777,명랑스낵,"제주특별자치도 제주시 한림읍 한림로 585, 1층",33.4092824,126.2588312,정좌표
570143,도란도란,"제주특별자치도 제주시 한림읍 명월성로 16, 1층",33.3768233,126.2607583,정좌표
570303,청계정원,"제주특별자치도 제주시 한림읍 한림해안로 8, 101호",33.4257892,126.2673117,정좌표
570325,금악국수,"제주특별자치도 제주시 한림읍 한창로 1288, 1동 1층",33.3567737,126.2978672,정좌표
570363,중독불닭,제주특별자치도 제주시 한림읍 한림로 684-1,33.4159487,126.2654203,정좌표
570531,협재칼국수,"제주특별자치도 제주시 한림읍 협재로 3, 1층",33.3968233,126.2445723,정좌표
572391,이면,"제주특별자치도 제주시 한림읍 금능5길 13, 1층",33.3887811,126.2269468,정좌표
572555,니나노제주,"제주특별자치도 제주시 한림읍 수원7길 60-9, 1층",33.4290398,126.2647739,정좌표
572607,배터지는생돈까스한림점,제주특별자치도 제주시 한림읍 한림중앙로 42,33.4109711,126.2652763,정좌표
572635,수타명가,"제주특별자치도 제주시 한림읍 일주서로 5834, 1층",33.4418232,126.2898589,정좌표
572823,록다미,"제주특별자치도 제주시 한림읍 한림로14길 3, 1층",33.4162599,126.2654367,정좌표
572825,일조바다장어,제주특별자치도 제주시 한림읍 한수풀로 19,33.4179794,126.2650047,정좌표
572837,먹고또먹고,"제주특별자치도 제주시 한림읍 한림북동길 13, 1층",33.416298,126.2640964,정좌표
572861,귀덕순우동,"제주특별자치도 제주시 한림읍 한림해안로 514-4, 1층",33.4338604,126.2742831,정좌표
572931,한림매일맛집,"제주특별자치도 제주시 한림읍 한림북동길 11, 1층 1호",33.4161184,126.264086,정좌표
572937,지구촌식당,"제주특별자치도 제주시 한림읍 한수1길 28, 1층",33.4216312,126.2626157,정좌표
572945,행복한엄마밥상,"제주특별자치도 제주시 한림읍 한림로 682, 1층",33.4155021,126.2653346,정좌표
572949,바다위에코끼리,"제주특별자치도 제주시 한림읍 협재1길 27-6, 1층",33.3976864,126.2432576,정좌표
573109,수르르,"제주특별자치도 제주시 한림읍 금능5길 26, 1층",33.3892327,126.2271612,정좌표
573215,일억조,제주특별자치도 제주시 한림읍 한림상로 140,33.4112849,126.267606,정좌표
574511,바다제비,"제주특별자치도 제주시 한림읍 한림로 640, 1층",33.4133125,126.2621284,정좌표
574791,마담나탈리소셜클럽,"제주특별자치도 제주시 한림읍 옹포2길 10, 1층",33.3986066,126.2514407,정좌표
574863,금능낙원,제주특별자치도 제주시 한림읍 금능길 27,33.3874646,126.2262578,정좌표
575065,맘스터치제주한림점,"제주특별자치도 제주시 한림읍 명랑로 2, 1층",33.4146472,126.265186,정좌표
575081,쉼표,"제주특별자치도 제주시 한림읍 한림로 359, 1층",33.3989324,126.2421759,정좌표
579609,부가네얼큰이한림점,제주특별자치도 제주시 한림읍 한림중앙로 21,33.4128413,126.2649865,정좌표
579621,주민상회한림점,제주특별자치도 제주시 한림읍 한림중앙로 31,33.4120056,126.2653772,정좌표
579639,모살,"제주특별자치도 제주시 한림읍 한림로 390, 1층",33.396919,126.244393,정좌표
579699,막창에버섯을쏘시지,제주특별자치도 제주시 한림읍 한림로 685-3,33.4158845,126.2645755,정좌표
579753,여러분,"제주특별자치도 제주시 한림읍 한림로 702, 1층",33.4173125,126.2649578,정좌표
581247,매기의추억,제주특별자치도 제주시 한림읍 한림해안로 595,33.4257892,126.2673117,정좌표
581423,협재해녀의집,제주특별자치도 제주시 한림읍 협재3길 19,33.3988321,126.2440116,정좌표
581997,한림칼국수제주본점,제주특별자치도 제주시 한림읍 한림해안로 141,33.4155701,126.2615642,정좌표
583211,콜라,"제주특별자치도 제주시 한림읍 일주서로 5857, 1~2층",33.4433127,126.2919686,정좌표
583571,칠공삼공,제주특별자치도 제주시 한림읍 한림로17길 16,33.4167044,126.2635067,정좌표
583589,인생밥집,"제주특별자치도 제주시 한림읍 문교길 6, 1층",33.4114405,126.26468,정좌표
583765,문어빵빵,"제주특별자치도 제주시 한림읍 한림로 668, 1층",33.4144183,126.2645499,정좌표
583787,바람수제비,제주특별자치도 제주시 한림읍 한림중앙로 41,33.4111115,126.2655863,정좌표
583821,제주연탄돼지불백,"제주특별자치도 제주시 한림읍 명월성로 12, 1층",33.4073925,126.2656128,정좌표
583859,추의작은집,"제주특별자치도 제주시 한림읍 금능5길 11, 1층",33.3885195,126.2265233,정좌표
583861,강식당,"제주특별자치도 제주시 한림읍 협재1길 39, 2동 1층",33.3984652,126.244076,정좌표
584155,우정,제주특별자치도 제주시 한림읍 한림상로 139,33.411575,126.2672702,정좌표
585371,대유,제주특별자치도 제주시 한림읍 한림해안로 140,33.4152213,126.2618259,정좌표
585467,협재삼춘네횟집,제주특별자치도 제주시 한림읍 한림로 318,33.3921509,126.2395634,정좌표
585605,도란도란행복한시간이흐르는곳,"제주특별자치도 제주시 한림읍 명월성로 16, 1층",33.3768233,126.2607583,인근좌표
585621,협재돈대장,"제주특별자치도 제주시 한림읍 협재2길 8-4, 1층 제2호",33.3921614,126.2405605,정좌표
585769,면차롱,"제주특별자치도 제주시 한림읍 한림로 380, 1층",33.3962806,126.2437481,정좌표
586271,카페오드리,"제주특별자치도 제주시 한림읍 한창로 1294, 제1동 1층",33.3569567,126.2974038,정좌표
586349,오크라,제주특별자치도 제주시 한림읍 귀덕14길 57-2,33.4387969,126.2962272,정좌표
587533,이화수전통육개장제주한림점,제주특별자치도 제주시 한림읍 한림상로 127-6,33.4143543,126.2629319,정좌표
587559,보람순대국밥,제주특별자치도 제주시 한림읍 한림북동길 17,33.416569,126.2639438,정좌표
587579,제주등대아구찜,"제주특별자치도 제주시 한림읍 한림해안로 145-2, 1층",33.4158996,126.261979,정좌표
587715,오만정성,"제주특별자치도 제주시 한림읍 일주서로 5083, 1층",33.389078,126.2504324,정좌표
589043,일등정육식당,제주특별자치도 제주시 한림읍 한림상로 145,33.4118962,126.267869,정좌표
589053,수돈가스,"제주특별자치도 제주시 한림읍 한림로 393, 1층",33.3976481,126.2442493,정좌표
589417,굽네치킨한림점,"제주특별자치도 제주시 한림읍 한림상로 158-1, 1층",33.412296,126.2689984,정좌표
589431,못거리가든,제주특별자치도 제주시 한림읍 한림중앙로 283,33.4044889,126.2697728,정좌표
589449,고랑몰랑들엉몰랑,제주특별자치도 제주시 한림읍 한림상로 107,33.4098484,126.2645483,정좌표
589469,푸라닭제주한림협재점,"제주특별자치도 제주시 한림읍 명랑로 16-1, 1층",33.4143518,126.2666303,정좌표
589517,그륻,"제주특별자치도 제주시 한림읍 귀덕5길 33, 1층 103호",33.4417839,126.2803128,정좌표
589593,바다주옥,"제주특별자치도 제주시 한림읍 한림해안로 279, 1동 1층",33.4257892,126.2673117,정좌표
589597,제주기역,"제주특별자치도 제주시 한림읍 협재1길 19-8, 1층",33.3976259,126.2429375,정좌표
596877,아카렌가,"제주특별자치도 제주시 한림읍 한림중앙로 32, 2층",33.4044889,126.2697728,정좌표
596933,원조수림,"제주특별자치도 제주시 한림읍 한림상로 11, 1층",33.4053421,126.2569331,정좌표
596961,단잠게스트하우스,"제주특별자치도 제주시 한림읍 귀덕14길 56, 2층",33.4390915,126.2959494,정좌표
597061,유주,"제주특별자치도 제주시 한림읍 한림상로 17, 1층",33.405404,126.2574231,정좌표
597371,동명정류장,"제주특별자치도 제주시 한림읍 동명7길 26, 1층",33.3971282,126.2663189,정좌표
597901,배롱정원,"제주특별자치도 제주시 한림읍 협재4길 19, 1층",33.3930352,126.2415929,정좌표
598213,임주현고기국수정식집,"제주특별자치도 제주시 한림읍 한림상로 110, 다동 1층",33.4143543,126.2629319,정좌표
598261,제주프리또,"제주특별자치도 제주시 한림읍 귀덕5길 7, 1층",33.428251,126.2900919,정좌표
598595,서쪽밤,"제주특별자치도 제주시 한림읍 한림로 336, 1층",33.3934131,126.2406243,정좌표
598691,반미신짜오,"제주특별자치도 제주시 한림읍 한림중앙로 26, 1층",33.4123031,126.2646629,정좌표
598707,금능상회해물라면,"제주특별자치도 제주시 한림읍 금능5길 21, 2층",33.3894116,126.2268728,정좌표
599149,동광,"제주특별자치도 제주시 다랑곶길 19 (노형동,(다랑굿로27))",33.4879309,126.4808146,정좌표
599525,꽃담,"제주특별자치도 제주시 선덕로5길 18, 1층 (연동)",33.4882104,126.4998055,정좌표
599592,외도가마솥밥,"제주특별자치도 제주시 우정로6길 11, 1층 (외도일동)",33.4901514,126.4298028,정좌표
599600,북촌카페,"제주특별자치도 제주시 조천읍 일주동로 1360, 1층",33.5402462,126.6847693,정좌표
599608,여자만이네,제주특별자치도 제주시 탑동로 27 (삼도이동),33.5173644,126.5217892,정좌표
599609,일품순두부도청점,제주특별자치도 제주시 문송길 41 (연동),33.4860522,126.4974391,정좌표
599623,청일,제주특별자치도 제주시 월랑로12길 29 (노형동),33.4910517,126.4779664,정좌표
599651,코바코삼화지구점,"제주특별자치도 제주시 화삼로1길 20, 비동 1층 (화북일동)",33.5143764,126.5791822,정좌표
599663,은희네해장국노형점,"제주특별자치도 제주시 원노형로 40, 1층 (노형동)",33.4852312,126.4847347,정좌표
600063,수라상,"제주특별자치도 제주시 연동10길 36 (연동,(도호2로68))",33.4826937,126.4917109,정좌표
600079,출세하는날,제주특별자치도 제주시 용화로10길 1 (용담이동),33.5096203,126.5079879,정좌표
600086,화산양꼬치2호점,"제주특별자치도 제주시 신성로13길 17-1, 2층 (이도이동)",33.4986338,126.5299277,정좌표
600103,세이슌,"제주특별자치도 제주시 서광로32길 34, 1층 (이도이동)",33.4977811,126.5294912,정좌표
600158,혼밥대왕신제주점,"제주특별자치도 제주시 연동4길 6-6 (연동,(용천서1로8))",33.4855203,126.4873603,정좌표
600167,화북공단,"제주특별자치도 제주시 선반로 67, 1층 (화북일동)",33.5153506,126.5653711,정좌표
600181,도나망,"제주특별자치도 제주시 조천읍 일주동로 1208, 2층",33.5393114,126.6638893,정좌표
600805,비비큐삼도점,제주특별자치도 제주시 서사로17길 1 (삼도일동),33.5021105,126.5203321,정좌표
600815,오복뼈갈비,제주특별자치도 제주시 오복4길 20 (이도이동),33.4946982,126.5370682,정좌표
600818,옛집,제주특별자치도 제주시 연동4길 6-3 (연동),33.4852189,126.4877077,정좌표
600938,토방,"제주특별자치도 제주시 천수로 39 (일도이동,(동여중길59))",33.5031961,126.5412493,정좌표
600940,해찬,"제주특별자치도 제주시 금산5길 30-10, 1층 (화북일동)",33.5255625,126.5645792,정좌표
600952,치킨신드롬신제주점,제주특별자치도 제주시 연동10길 4 (연동),33.4853943,126.4918233,정좌표
600953,낚시꾼,제주특별자치도 제주시 신대로16길 37-1 (연동),33.4866718,126.4924855,정좌표
600962,참닭갈비신제주점,제주특별자치도 제주시 신광로4길 1 (연동),33.488735,126.4896328,정좌표
600983,금순이네,"제주특별자치도 제주시 정존1길 31, 1층 (노형동)",33.483222,126.4706011,정좌표
600985,만두랑돈찜,"제주특별자치도 제주시 복지로3길 1-2, 1층 (도남동)",33.4893064,126.5236542,정좌표
601006,화산양꼬치,"제주특별자치도 제주시 서광로32길 18-1, 2층 (이도이동)",33.4989735,126.5286177,정좌표
601014,아살람,제주특별자치도 제주시 중앙로2길 7 (삼도이동),33.5165402,126.524197,정좌표
601110,산지물신제주점,제주특별자치도 제주시 신대로10길 53 (연동),33.4907865,126.4910735,정좌표
601218,도르라갈비,제주특별자치도 제주시 성신로2길 21 (연동),33.492288,126.4874837,정좌표
601222,제이비블랑,"제주특별자치도 제주시 진목5길 1, 2층 201호 (봉개동)",33.4912982,126.5991873,정좌표
601254,향래식당,제주특별자치도 제주시 가령로 41 (이도이동),33.5003837,126.5367778,정좌표
601255,아름,제주특별자치도 제주시 조천읍 교래3길 24,33.4356103,126.6787796,정좌표
601287,신춘하추동,"제주특별자치도 제주시 광양7길 14, 1~2층 (이도이동)",33.5007795,126.5309116,정좌표
601303,들물갈비,제주특별자치도 제주시 임항로 272-1 (건입동),33.5165302,126.5382583,정좌표
601304,길벗,제주특별자치도 제주시 월광로 162 (노형동),33.4925157,126.4750237,정좌표
601316,충세흑돼지정육식당,"제주특별자치도 제주시 조천읍 신북로 188, 1층",33.534661,126.6332472,정좌표
601348,유노,"제주특별자치도 제주시 흥운길 19, 1층 (용담이동)",33.5107091,126.5114111,정좌표
601355,연동마라도,제주특별자치도 제주시 신광로8길 3 (연동),33.4868335,126.4895539,정좌표
601462,간이역정동역점,제주특별자치도 제주시 원노형로 43 (노형동),33.4848062,126.4850745,정좌표
601463,야무진냄비,제주특별자치도 제주시 용문로 144-1 (용담이동),33.5075754,126.5096987,정좌표
601464,미나리,"제주특별자치도 제주시 삼무로11길 34 (연동,(삼무1로 9))",33.4905415,126.4957637,정좌표
601824,예소담,제주특별자치도 제주시 조천읍 신북로 544,33.5411266,126.6677813,정좌표
602046,막창상회용담본점,제주특별자치도 제주시 흥운길 16 (용담이동),33.5103093,126.5115234,정좌표
602051,목포홍탁집,"제주특별자치도 제주시 신대로10길 32 (연동,(성두4로46))",33.4910176,126.4933215,정좌표
602052,돈세상,제주특별자치도 제주시 가령골2길 4 (이도이동),33.504256,126.5375477,정좌표
602059,천둥소리,제주특별자치도 제주시 원남6길 5 (도남동),33.4888231,126.5294867,정좌표
602068,나성갈비제주화북점,제주특별자치도 제주시 일주동로 260 (화북일동),33.5200652,126.5731982,정좌표
602090,진지상,"제주특별자치도 제주시 다랑곶길 10 (노형동,(다랑굿로 14) 101호)",33.4879309,126.4808146,정좌표
602114,이가촌,"제주특별자치도 제주시 연북로 164, 1~2층 (연동)",33.4814289,126.4990004,정좌표
602156,이도국밥,제주특별자치도 제주시 남광로 7 (이도이동),33.4924789,126.5370195,정좌표
602163,삼대국수회관신제주점,제주특별자치도 제주시 신대로20길 32 (연동),33.4838361,126.4932802,정좌표
602295,자연뜨락,제주특별자치도 제주시 연화로2길 16-1 (연동),33.4772933,126.4890418,정좌표
602328,제주김만복본점,"제주특별자치도 제주시 오라로 41, 1동 1층 (오라삼동)",33.4968071,126.5111965,정좌표
603848,노가리점빵,"제주특별자치도 제주시 고마로 38, 1층 (일도이동)",33.5106302,126.5387783,정좌표
603849,우정양꼬치,제주특별자치도 제주시 우정로13길 9 (외도일동),33.4870765,126.4321791,정좌표
603859,동문카페,"제주특별자치도 제주시 중앙로 26, 1,2층 (건입동)",33.5159542,126.5245793,정좌표
603873,경일낙지,"제주특별자치도 제주시 다랑곶길 30, 1층 (노형동)",33.4884542,126.481045,정좌표
604007,통큰순대집,"제주특별자치도 제주시 동광로1길 32, 제40, 41호 (이도일동)",33.5032944,126.527915,정좌표
604010,태양상회,"제주특별자치도 제주시 중앙로2길 31, 1층 (삼도이동)",33.5171926,126.5216748,정좌표
604019,칠성포차제원점,"제주특별자치도 제주시 신대로14길 51, 2층 (연동)",33.4877006,126.4910151,정좌표
604024,웅지,제주특별자치도 제주시 진군중길 16 (노형동),33.4775532,126.4794074,정좌표
604027,덤장돌삼겹,"제주특별자치도 제주시 서해안로 500, 1~2층 (용담삼동)",33.5193867,126.4925543,정좌표
604138,후레쉬돈까스,"제주특별자치도 제주시 서광로2길 33, 1층 (오라일동)",33.4984073,126.5139622,정좌표
604150,우돈채,"제주특별자치도 제주시 남광로2길 17-14, 1층 (이도이동)",33.4912229,126.5386148,정좌표
604168,미풍해장국제주항점,"제주특별자치도 제주시 임항로 80, 제4동 1층 (건입동)",33.5183479,126.5387193,정좌표
604210,리하의커리,"제주특별자치도 제주시 조천읍 조천3길 3, 1층",33.5351735,126.6324683,정좌표
604228,더전복,제주특별자치도 제주시 도두항서길 53 (도두일동),33.5052401,126.4639129,정좌표
604331,돈뜨레용담점,제주특별자치도 제주시 서해안로 644 (용담삼동),33.5164234,126.505585,정좌표
604430,교촌치킨제주1호,"제주특별자치도 제주시 삼무로 50, 1층 (연동)",33.4896427,126.4919885,정좌표
604500,더블루,제주특별자치도 제주시 탑동로 66 (삼도이동),33.5185924,126.5175016,정좌표
604526,해양호,"제주특별자치도 제주시 일주서로 7620 (이호이동,(연도로351))",33.4949773,126.4606863,정좌표
604541,2도비어제주연동점,제주특별자치도 제주시 신광로10길 22 (연동),33.4840498,126.487359,정좌표
604547,부비곶뼈해장국,제주특별자치도 제주시 도남로 7 (도남동),33.4992514,126.525305,정좌표
604553,동네마당,제주특별자치도 제주시 노연로 148 (연동),33.4855001,126.4960015,정좌표
604554,티바두마리치킨연동점,제주특별자치도 제주시 성신로2길 19 (연동),33.4921732,126.4872382,정좌표
604559,제주주민센터,"제주특별자치도 제주시 무근성길 46 (삼도이동,(무근성로80))",33.5148351,126.5188896,정좌표
604564,김복남맥주노형점,제주특별자치도 제주시 월랑로 15 (노형동),33.4874249,126.4775403,정좌표
604574,어상,"제주특별자치도 제주시 수덕9길 82-7, 1층 (노형동)",33.4834095,126.4698673,정좌표
604577,푸라닭제주대점,제주특별자치도 제주시 산천단동3길 13 (아라일동),33.4489004,126.5591088,정좌표
604594,중립,"제주특별자치도 제주시 서광로32길 38, 2층 (이도이동)",33.4974851,126.5296932,정좌표
604620,육도담,제주특별자치도 제주시 도남로 59 (도남동),33.4950311,126.5277256,정좌표
604769,삼조삼계탕,"제주특별자치도 제주시 서광로13길 12, 1층 (삼도일동)",33.5010763,126.5179822,정좌표
604789,서울정식뷔페,제주특별자치도 제주시 신대로18길 48 (연동),33.4848565,126.4913388,정좌표
604794,방파제식당,제주특별자치도 제주시 조천읍 조천북1길 35-6,33.5418481,126.634692,정좌표
604818,시청골목집,제주특별자치도 제주시 서광로32길 39-3 (이도이동),33.4975602,126.530245,정좌표
604829,고기마을,"제주특별자치도 제주시 진남로 21-1, 1층 (화북일동)",33.5230714,126.5627808,정좌표
604830,제주돈갈매기,"제주특별자치도 제주시 천수로8길 3, 1층 (일도이동)",33.5027216,126.5431394,정좌표
604840,용연,제주특별자치도 제주시 동한두기길 35 (용담일동),33.5165125,126.5152403,정좌표
604968,그램그램연동점,"제주특별자치도 제주시 신대로20길 56, 1층 (연동)",33.4839009,126.4904548,정좌표
604974,추가네,제주특별자치도 제주시 서사로 176 (오라일동),33.4966233,126.5196281,정좌표
604989,국수천하,제주특별자치도 제주시 서사로 174 (오라일동),33.4967495,126.5196303,정좌표
605002,신성할망,제주특별자치도 제주시 신대로7길 23 (연동),33.4919294,126.4992174,정좌표
605233,제라한,제주특별자치도 제주시 정존1길 33 (노형동),33.483304,126.4704544,정좌표
605501,번영가든,제주특별자치도 제주시 번영로 553 (봉개동),33.4876812,126.6000458,정좌표
605505,괸당집신제주점,제주특별자치도 제주시 신광로4길 9 (연동),33.4887197,126.4888982,정좌표
605540,제주텐동,"제주특별자치도 제주시 중앙로 214, 2~4층 (이도이동)",33.496228,126.5513995,정좌표
605664,유쾌육회,"제주특별자치도 제주시 월랑로 16 (노형동,1층)",33.4876617,126.4778794,정좌표
605701,모던뽀이,"제주특별자치도 제주시 신성로13길 4, 3층 (이도이동)",33.499499,126.5289941,정좌표
605704,한상,"제주특별자치도 제주시 정원로 55, 1층 (노형동)",33.4803463,126.4777974,정좌표
605706,명가돈까스,"제주특별자치도 제주시 태성로2길 30-1, 1층 (일도이동)",33.5007134,126.5475626,정좌표
605717,수구레해장국2호점,제주특별자치도 제주시 비월길 7 (연동),33.4849529,126.4974183,정좌표
605718,도두어부의밥상,"제주특별자치도 제주시 서해안로 181, 1층 (도두일동)",33.5053632,126.4677376,정좌표
605795,털보,제주특별자치도 제주시 조천읍 신북로 554,33.5408887,126.6688789,정좌표
607651,옛날통닭외도점,제주특별자치도 제주시 우정로 62 (외도일동),33.4873197,126.4307362,정좌표
607661,명물,"제주특별자치도 제주시 탑동로11길 2-1, 1~2층 (삼도이동)",33.5166654,126.517019,정좌표
607671,연동둘둘김밥,제주특별자치도 제주시 국기로 21 (연동),33.479767,126.490065,정좌표
607706,현지통아귀찜,"제주특별자치도 제주시 설촌로 12, 1층 (삼양이동)",33.5224988,126.5817017,정좌표
607715,어장관리,제주특별자치도 제주시 귀아랑길 23 (연동),33.4914457,126.4976203,정좌표
607746,조박사,"제주특별자치도 제주시 다랑곶길 10 (노형동,제동프린스빌102(다랑굿4로14))",33.4879309,126.4808146,정좌표
607777,화사랑,제주특별자치도 제주시 서광로32길 10 (이도이동),33.4995797,126.5281953,정좌표
607786,골목집갈비,제주특별자치도 제주시 서사로18길 19 (삼도일동),33.5018635,126.5177708,정좌표
607787,어장군,제주특별자치도 제주시 신대로 72 (연동),33.4909506,126.4962656,정좌표
607820,닭바리,제주특별자치도 제주시 서광로32길 17 (이도이동),33.4992344,126.5287241,정좌표
607827,삼무국수,"제주특별자치도 제주시 삼무로3길 46-1, 1층 (연동)",33.490567,126.491045,정좌표
608636,비비큐용담점,제주특별자치도 제주시 용담로 92 (용담이동),33.5119258,126.5124267,정좌표
608646,연동길,"제주특별자치도 제주시 은남2길 23 (연동,제1호)",33.4881035,126.4934516,정좌표
608656,명품대구막창,제주특별자치도 제주시 연동8길 4 (연동),33.4854546,126.4904817,정좌표
608657,진진,제주특별자치도 제주시 선덕로5길 19 (연동),33.4878975,126.5000993,정좌표
608737,원우정,"제주특별자치도 제주시 다랑곶1길 6 (노형동,(다랑굿1로12))",33.4879309,126.4808146,정좌표
608747,부가네얼큰이삼무점,"제주특별자치도 제주시 삼무로1길 6, 1층 (연동)",33.4909645,126.4893305,정좌표
608753,올리브와뽀빠이,"제주특별자치도 제주시 신광로 32-1 (연동,(신광로44))",33.4882944,126.4898761,정좌표
608755,칼호텔뷔페식당,제주특별자치도 제주시 중앙로 151 (이도일동),33.5030704,126.5285942,정좌표
608765,도남오거리도남점,"제주특별자치도 제주시 도남로6길 16, 1~2층 (도남동)",33.4965521,126.5261342,정좌표
608771,돈마니,"제주특별자치도 제주시 월랑로10길 33, 1층 (노형동)",33.4909959,126.4784882,정좌표
609363,크레베떼,"제주특별자치도 제주시 조천읍 함덕로 28, 2층",33.5419571,126.6723272,정좌표
609383,베스트프렌드,"제주특별자치도 제주시 천수로 68, 110호 (일도이동, 신천지아파트상가)",33.506732,126.5459974,정좌표
609384,(주)삼다도횟집,제주특별자치도 제주시 서해안로 572 (용담삼동),33.5190034,126.4993699,정좌표
609394,현미,"제주특별자치도 제주시 월대6길 17 (외도이동,(월대1로21))",33.4925814,126.4357415,정좌표
609395,조근아지망,제주특별자치도 제주시 우정로 2 (외도일동),33.4924527,126.4299172,정좌표
609405,오름해산물,제주특별자치도 제주시 국기로2길 2-5 (연동),33.4793727,126.4903376,정좌표
609414,일도촌,"제주특별자치도 제주시 천수로8길 7, 1층 (일도이동)",33.5030578,126.5429035,정좌표
609424,여가,"제주특별자치도 제주시 서광로32길 26, 2층 (이도이동)",33.4984196,126.5290457,정좌표
609428,아바이순대,"제주특별자치도 제주시 도남로16길 17 (도남동,1층)",33.491252,126.5271375,정좌표
609914,올레담,"제주특별자치도 제주시 고마로 108-1, 1층 (일도이동)",33.5047741,126.5411173,정좌표
609915,삼대전통고기국수,제주특별자치도 제주시 신대로5길 17 (연동),33.4929576,126.4986605,정좌표
609925,양푼왕갈비,제주특별자치도 제주시 선덕로 14 (연동),33.4854098,126.498071,정좌표
610005,비비큐인제점,"제주특별자치도 제주시 고마로 65, 1층 (일도이동)",33.5085402,126.5402158,정좌표
610014,돌담흑돼지,"제주특별자치도 제주시 연동7길 35, 2층 (연동)",33.4867536,126.4909099,정좌표
610024,다람쥐와도토리,제주특별자치도 제주시 수덕11길 38 (노형동),33.4858742,126.4729947,정좌표
610026,돌하르방신제주점,제주특별자치도 제주시 신대로8길 18 (연동),33.4920141,126.4949065,정좌표
610035,블루레인,"제주특별자치도 제주시 원노형3길 6, 지하1층 (노형동)",33.4866853,126.485384,정좌표
610044,일품연황찜닭,제주특별자치도 제주시 연동1길 14 (연동),33.4887891,126.4866052,정좌표
610046,일도바다장어구이,제주특별자치도 제주시 고마로16길 1 (일도이동),33.5055211,126.5407766,정좌표
610052,뒷골목소주집,제주특별자치도 제주시 도남로7길 39 (도남동),33.4968018,126.5273481,정좌표
610054,서울명동칼국수,제주특별자치도 제주시 조천읍 일주동로 780,33.5309841,126.6247574,정좌표
610072,노량진수산,"제주특별자치도 제주시 신성로 84-1 (도남동,(신성로 67))",33.4955231,126.5266445,정좌표
610079,조개마당,"제주특별자치도 제주시 제원길 8, 1층 (연동)",33.4891939,126.4893354,정좌표
610089,가야성,"제주특별자치도 제주시 남녕로 51 (노형동,(남녕로73))",33.4917262,126.479376,정좌표
610096,제주시새우리,"제주특별자치도 제주시 무근성7길 24, 1층 (삼도이동)",33.514599,126.5207879,정좌표
610106,돌솥마당,제주특별자치도 제주시 고마로16길 8 (일도이동),33.5056193,126.5402368,정좌표
610108,도진식당,제주특별자치도 제주시 국기중길 27 (연동),33.4790482,126.4923411,정좌표
610114,미소가김밥,"제주특별자치도 제주시 고마로 57, 1층 (일도이동)",33.5091788,126.5398617,정좌표
610124,깐깐한족발,제주특별자치도 제주시 한라대학로 86 (노형동),33.4761458,126.4792577,정좌표
610134,아랑,제주특별자치도 제주시 선덕로5길 25 (연동),33.4874494,126.5000263,정좌표
610174,투접시족발도남점,"제주특별자치도 제주시 신성로 69, 1층 (도남동)",33.4955147,126.5268469,정좌표
610175,순조은참치,제주특별자치도 제주시 고마로 148 (이도이동),33.5014736,126.5431162,정좌표
610176,장씨네,"제주특별자치도 제주시 서사로 78 (삼도일동, 제1호)",33.505486,126.5197312,정좌표
610186,통영아귀찜,제주특별자치도 제주시 번영로 535 (봉개동),33.4885432,126.5985342,정좌표
610196,이노우에스시,"제주특별자치도 제주시 과원로 78-1 (연동,(1층))",33.4771542,126.491468,정좌표
610206,복진,제주특별자치도 제주시 승천로 12 (이도이동),33.4966448,126.5386076,정좌표
610208,원호수아구찜,제주특별자치도 제주시 다랑곶5길 14 (노형동),33.489382,126.4799464,정좌표
610214,우도밥상,제주특별자치도 제주시 우도면 우도해안길 170,33.4956438,126.9444234,정좌표
610224,다인양곱창,제주특별자치도 제주시 삼무로3길 40 (연동),33.4905774,126.4916754,정좌표
610234,어멍밥집,제주특별자치도 제주시 중앙로24길 18 (삼도이동),33.5062663,126.5233232,정좌표
610236,굴렁집,제주특별자치도 제주시 조천읍 신북로 537,33.5416511,126.6673415,정좌표
610256,정주네식당,"제주특별자치도 제주시 중앙로1길 22 (건입동,(1층))",33.5161295,126.5271896,정좌표
610266,블랙보틀,제주특별자치도 제주시 광양13길 6 (이도이동),33.4986818,126.5312397,정좌표
610271,아비꼬제주노형점,제주특별자치도 제주시 원노형로 48 (노형동),33.4843479,126.4847479,정좌표
610281,김씨며느리,제주특별자치도 제주시 문송길 25 (연동),33.487539,126.4974543,정좌표
610291,산호반점,제주특별자치도 제주시 우도면 우도해안길 252,33.5074342,126.954269,정좌표
610301,다모인식당,제주특별자치도 제주시 원노형남2길 33 (노형동),33.4827058,126.4845764,정좌표
610303,고기나라야채나라,"제주특별자치도 제주시 중앙로24길 23 (삼도이동,(덕성로35))",33.5058204,126.5228249,정좌표
610310,진주다방,"제주특별자치도 제주시 진군길 42, 1층 (노형동)",33.478363,126.4808242,정좌표
610312,혜화동돈까스극장제주삼화점,"제주특별자치도 제주시 삼봉로 39, 1동 1층 (도련이동)",33.5186213,126.5889811,정좌표
610318,크라운호프제주일도점,"제주특별자치도 제주시 연수로3길 3, 1층 (일도이동, 가나다주택)",33.5024742,126.5432609,정좌표
610328,제주스럽닭,"제주특별자치도 제주시 수덕9길 85, 1층 (노형동)",33.4827694,126.4703788,정좌표
610368,바다사랑채,"제주특별자치도 제주시 테우해안로 132, 1층 (이호일동)",33.4977677,126.44805,정좌표
610378,춤추는돼지,"제주특별자치도 제주시 건주로4길 34, 에이플러스타워 1층 107호 (도련일동)",33.5166785,126.5790859,정좌표
610388,베이징덕,"제주특별자치도 제주시 노연로 25, 금경빌딩 1층 (노형동)",33.4862605,126.4828661,정좌표
610398,올웨이즈,"제주특별자치도 제주시 조천읍 조함해안로 432-19, 1층 101호",33.5448874,126.6621194,정좌표
610400,선장과해녀,"제주특별자치도 제주시 조천읍 조함해안로 432-19, 2층",33.5448874,126.6621194,정좌표
610420,밍떰본점,"제주특별자치도 제주시 남광로2길 43-13, 1층 (이도이동)",33.4893506,126.540243,정좌표
610429,쿠루미,"제주특별자치도 제주시 연문6길 6, 1층 (연동)",33.4926944,126.5012712,정좌표
610430,고집돌우럭함덕점,"제주특별자치도 제주시 조천읍 신북로 491-9, 2층",33.5430312,126.6627219,정좌표
610450,아라스시,"제주특별자치도 제주시 인다9길 8, 1층 (아라일동)",33.4261379,126.5626925,정좌표
610460,노형짬뽕,"제주특별자치도 제주시 월광로 33, 1층 (노형동)",33.4893239,126.4708027,정좌표
610470,명태명가제주점,"제주특별자치도 제주시 연오로 35, 2층 (오라삼동)",33.4846142,126.5015527,정좌표
610480,박여사네,"제주특별자치도 제주시 조천읍 신북로 467-1, 1층",33.5438291,126.6603818,정좌표
610500,도두반점제주사수본점,"제주특별자치도 제주시 서해안로 317, 2층 (도두이동)",33.5055899,126.4897243,정좌표
610510,땅땅치킨조천점,"제주특별자치도 제주시 조천읍 신북로 233, 1층",33.5366857,126.6376487,정좌표
610530,토닥토닥,제주특별자치도 제주시 관덕로15길 7 (일도일동),33.5137998,126.5268072,정좌표
610800,오태식해바라기치킨화북삼양점,"제주특별자치도 제주시 진남로6길 4, 1층 (화북일동)",33.5192097,126.5658725,정좌표
610806,비스듬히,"제주특별자치도 제주시 중앙로11길 1, 2층 203호 (이도일동)",33.5125758,126.5252426,정좌표
610809,제주전유화,"제주특별자치도 제주시 중앙로11길 1, 2층 210호 (이도일동)",33.5125758,126.5252426,정좌표
610810,떡갈비먹젠,"제주특별자치도 제주시 중앙로11길 1, 2층 207호 (이도일동)",33.5125758,126.5252426,정좌표
610820,바론,"제주특별자치도 제주시 신광로1길 14, 1층 (연동)",33.4931034,126.4933597,정좌표
610830,반주,"제주특별자치도 제주시 성신로1길 21, 2층 (연동)",33.4918016,126.4879708,정좌표
610862,서쪽부엌,"제주특별자치도 제주시 중앙로 537, 1층 (아라일동)",33.4814679,126.5411458,정좌표
610872,어디가맨,"제주특별자치도 제주시 중앙로 537, 1층 (아라일동)",33.4814679,126.5411458,정좌표
611142,대풍미락정육식당함덕본점,"제주특별자치도 제주시 조천읍 조함해안로 450, 가동 2~4층",33.5440366,126.6537771,정좌표
611162,기꾸스시,"제주특별자치도 제주시 중앙로 73, 1층 (이도일동)",33.5030704,126.5285942,정좌표
611172,김박사커피밀,"제주특별자치도 제주시 연문2길 9, 1층 102호 (연동, 한주주택)",33.4924658,126.4989208,정좌표
611182,고봉강선생,"제주특별자치도 제주시 중앙로11길 1, 2층 209호 (이도일동)",33.5125758,126.5252426,정좌표
611187,외도스크린골프존,"제주특별자치도 제주시 조공포길 49-13, 1층 (외도일동)",33.4869965,126.4350522,정좌표
611197,착한혼밥,"제주특별자치도 제주시 중앙로11길 1, 2층 205호 (이도일동)",33.5125758,126.5252426,정좌표
611207,수문미트,"제주특별자치도 제주시 다랑곶4길 48, 1층 (노형동)",33.4901927,126.4781988,정좌표
611209,홀리브,"제주특별자치도 제주시 조천읍 조천16길 44, 1층",33.5375717,126.6442764,정좌표
611229,이태리너랑같이제주,"제주특별자치도 제주시 서광로20길 3-11, 1층 (삼도일동)",33.4992495,126.5227235,정좌표
611239,거당순대국밥,"제주특별자치도 제주시 선사로8길 70, 1층 (삼양일동)",33.5219755,126.5876628,정좌표
611243,담소락,"제주특별자치도 제주시 조천읍 함덕서1길 7-3, 1층",33.5410853,126.6588587,정좌표
611263,안녕함덕,"제주특별자치도 제주시 조천읍 함덕로 10, 3층",33.5409595,126.6737938,정좌표
611283,어멍식당,"제주특별자치도 제주시 조천읍 와흘로 357, 1층",33.4742743,126.6447026,정좌표
611303,신이내린닭삼화점,"제주특별자치도 제주시 지석12길 14, 1층 102호 (삼양이동)",33.5203869,126.5846156,정좌표
611309,맨돈지스크린골프,"제주특별자치도 제주시 연삼로 978, 1층 (도련이동)",33.5107139,126.6051651,정좌표
611314,함덕육삼김치찌개,"제주특별자치도 제주시 조천읍 함와로 10, 1층",33.5145232,126.6777359,정좌표
611334,서울옛날떡볶이,"제주특별자치도 제주시 남녕로 47, 1층 (노형동)",33.4913859,126.4797048,정좌표
611335,생길국수,"제주특별자치도 제주시 전농로 109, 제덕빌딩 1층 (삼도이동)",33.5044915,126.5250171,정좌표
611341,연지네,"제주특별자치도 제주시 신성로 51, 1층 (도남동)",33.4959335,126.5250611,정좌표
611351,대팽,"제주특별자치도 제주시 도령로7길 32-2, 1층 101호 (연동)",33.4913297,126.4837257,정좌표
611352,코로웨이니,"제주특별자치도 제주시 신광로 41, 3층 (연동)",33.4884212,126.4903667,정좌표
611362,돈소금,"제주특별자치도 제주시 고전길 19, 1층 (이도일동)",33.5075927,126.5250011,정좌표
611366,명륜진사갈비외도점,"제주특별자치도 제주시 우령2길 42, 1층 (외도일동)",33.4855478,126.431419,정좌표
611376,대중적한우,"제주특별자치도 제주시 연삼로 541, 1층 (일도이동)",33.5029625,126.553699,정좌표
611385,두더지식당제주,"제주특별자치도 제주시 박성내서길 14, 1층 (이도이동)",33.4916956,126.5407923,정좌표
611395,봉구통닭,"제주특별자치도 제주시 수덕로 13, 1층 105호 (노형동, 노형이화2차아파트)",33.4878751,126.4750728,정좌표
611405,정직한우명가,"제주특별자치도 제주시 가령로4길 4, 1층 (이도이동)",33.4975755,126.5347713,정좌표
611414,싱싱촘맛집,"제주특별자치도 제주시 조천읍 조함해안로 430-1, 1층",33.5451876,126.6609508,정좌표
611434,오태식해바라기치킨조천읍점,"제주특별자치도 제주시 조천읍 신북로 60, 104호",33.5386704,126.6458435,정좌표
611454,조천연대해장국,"제주특별자치도 제주시 조천읍 조천북6길 6, 나동 1층",33.5344076,126.6342455,정좌표
611474,칠프로칠백식당제주직영점,"제주특별자치도 제주시 진군중길 18, 1층 (노형동)",33.4774178,126.479399,정좌표
611484,숙희네흑돼지,"제주특별자치도 제주시 삼무로3길 16, 1층 100호 (연동)",33.4904961,126.4943248,정좌표
611494,제주인양,"제주특별자치도 제주시 동광로5길 28, 1층 (이도일동)",33.5039762,126.5306596,정좌표
611504,어머니맛집,"제주특별자치도 제주시 인다2길 6, 1층 (아라일동)",33.4719786,126.5501884,정좌표
611514,거로집,"제주특별자치도 제주시 일주동로 100-1, 1층 (화북일동)",33.515001,126.5575435,정좌표
611521,버드나무,"제주특별자치도 제주시 조천읍 신북로 540, 1층",33.5409078,126.6674692,정좌표
611601,은영이네국수,"제주특별자치도 제주시 성신로 26, 1층 (연동)",33.4920277,126.4851414,정좌표
611611,착한낙지,"제주특별자치도 제주시 수덕5길 15, 1층 (노형동, 화인빌라)",33.48582,126.4755373,정좌표
611621,노가리앤비어함덕점,"제주특별자치도 제주시 조천읍 신북로 540, 2층",33.5409078,126.6674692,정좌표
611641,최박사네순대앤바베큐,"제주특별자치도 제주시 구남로7길 36, 상가동 1층 101호 (이도이동, 주공1아파트)",33.4924001,126.5337884,정좌표
611646,백년귤화다,"제주특별자치도 제주시 중앙로11길 1, 1층 (이도일동)",33.5125758,126.5252426,정좌표
611656,동문참식당,"제주특별자치도 제주시 관덕로14길 16, 제1호 1층 (이도일동)",33.511714,126.5260773,정좌표
611666,팔오회센타,"제주특별자치도 제주시 도남로12길 9, 1층 (도남동)",33.4926101,126.5273954,정좌표
611667,선영이네고기집,"제주특별자치도 제주시 달마루길 28, 정현빌 1층 (노형동)",33.4897728,126.4741763,정좌표
611677,별헤는밤,"제주특별자치도 제주시 전농로 28-1, 1층 (삼도일동)",33.504237,126.5162377,정좌표
611687,민서네,"제주특별자치도 제주시 구산로1길 24, 1층 (아라일동)",33.4834064,126.5374808,정좌표
611727,제주하르방곰탕,"제주특별자치도 제주시 동문로 6-8, 1층 (일도일동)",33.512215,126.5271214,정좌표
611737,우등생,"제주특별자치도 제주시 인다2길 28, 1층 (아라일동)",33.4719786,126.5501884,정좌표
611747,푸라닭제주아라점,"제주특별자치도 제주시 인다13길 39, 1층 102호 (아라일동, 아라그린빌)",33.4724943,126.5469308,정좌표
611757,옛날아우내순대노형점,"제주특별자치도 제주시 우평로 11, 1층 (노형동)",33.4789794,126.4649274,정좌표
611767,행복한치킨,"제주특별자치도 제주시 신성로10길 7-2, 제2호 1층 (이도이동)",33.4959392,126.5302487,정좌표
611770,언플러그,"제주특별자치도 제주시 해안마을길 43, 지하1층 (해안동)",33.4545361,126.4556278,정좌표
611780,제주세호해장국연동직영점,"제주특별자치도 제주시 신광로 12, 1층 101호 (연동)",33.4910943,126.4899932,정좌표
611790,처갓집양념치킨아라점,"제주특별자치도 제주시 아란8길 16, 1층 (아라일동)",33.4735731,126.5452315,정좌표
611799,어부밥상,"제주특별자치도 제주시 동문로2길 10, B동 3호 2층 (일도일동)",33.512304,126.5267163,정좌표
611801,돈플라이,"제주특별자치도 제주시 연동7길 20, 1층 (연동)",33.4882285,126.4906078,정좌표
611803,노형집밥,"제주특별자치도 제주시 다랑곶1길 9, 1층 (노형동)",33.4875826,126.478266,정좌표
611813,훈남횟집,"제주특별자치도 제주시 조천읍 함덕13길 7, 1층",33.5420803,126.6679293,정좌표
611973,카페콩03,"제주특별자치도 제주시 고산동산5길 4, 1층 (이도이동)",33.4955359,126.533799,정좌표
612037,서자매김밥,"제주특별자치도 제주시 원노형로 41-1, 1층 (노형동)",33.4850291,126.4852364,정좌표