Column1,name,address,Latitude,Longitude,상태
976530,네네치킨남원점,"제주특별자치도 서귀포시 남원읍 남원체육관로 342, 상가동 1층 103호 (서귀포남원엘에이치아파트)",33.28054,126.7215,정좌표
976602,시카고피자성산점,제주특별자치도 서귀포시 성산읍 일주동로 4232,33.45083,126.9118,정좌표
976666,푸른솔,제주특별자치도 서귀포시 남원읍 남한로 11,33.28004,126.7177,정좌표
976674,용머리해물정식,제주특별자치도 서귀포시 성산읍 환해장성로 467,33.39875,126.9051,정좌표
976694,흑돈플러스,제주특별자치도 서귀포시 대포로 132 (대포동),33.23915,126.435,정좌표
977576,메이비아모르,"제주특별자치도 서귀포시 신중로 50, 1층 (법환동, KT신서귀포빌딩 )",33.25446,126.5105,정좌표
977586,할매식당,제주특별자치도 서귀포시 부두로 40 (서귀동),33.24133,126.5645,정좌표
977748,삼촌네돌판구이,제주특별자치도 서귀포시 서문로29번길 25 (서귀동),33.24811,126.5596,정좌표
977762,한잔하게,제주특별자치도 서귀포시 신동로27번길 27 (서호동),33.25224,126.5113,정좌표
977798,이층으로,제주특별자치도 서귀포시 성산읍 동류암로39번길 15,33.44776,126.9154,정좌표
977858,칼초네화덕피자,제주특별자치도 서귀포시 예래로 115 (상예동),33.25208,126.3957,정좌표
979360,복댕이,"제주특별자치도 서귀포시 성산읍 일출로 34, 1~2층",33.44762,126.9166,정좌표
982624,이모네손칼국수,제주특별자치도 서귀포시 남원읍 태위로689번길 1,33.27954,126.7201,정좌표
982656,어조횟집,제주특별자치도 서귀포시 성산읍 일출로 233,33.46044,126.9308,정좌표
983638,고성장터국밥,제주특별자치도 서귀포시 성산읍 고성동서로45번길 19,33.45205,126.9122,정좌표
983924,신라원중문점,제주특별자치도 서귀포시 천제연로 107 (색달동),33.25495,126.4172,정좌표
985500,샤브랑,제주특별자치도 서귀포시 동문로 31 (서귀동),33.25103,126.5643,정좌표
985516,돌하르방뚝배기식당,제주특별자치도 서귀포시 성산읍 일출로 264,33.4612,126.9338,정좌표
985870,오조반점,제주특별자치도 서귀포시 성산읍 한도로 124,33.46855,126.9212,정좌표
986532,비비큐서귀일호점,제주특별자치도 서귀포시 동문로 22 (서귀동),33.25124,126.5631,정좌표
986550,우정회센타,제주특별자치도 서귀포시 중앙로54번길 32 (서귀동),33.24965,126.5632,정좌표
988564,제주신라 바당,제주특별자치도 서귀포시 중문관광로72번길 75 (색달동),33.24757,126.4069,정좌표
988596,백록통닭,제주특별자치도 서귀포시 효돈로 174 (하효동),33.26353,126.6173,정좌표
988612,1950김프로,"제주특별자치도 서귀포시 홍중로 80, 1층 (서홍동)",33.25962,126.556,정좌표
988630,현재식당,제주특별자치도 서귀포시 서문로29번길 21 (서귀동),33.24847,126.5595,정좌표
988636,교촌치킨중문점,제주특별자치도 서귀포시 천제연로 215 (중문동),33.25166,126.4277,정좌표
988814,육회본가신시가지점,"제주특별자치도 서귀포시 김정문화로41번길 4, 1층 (법환동)",33.25174,126.5095,정좌표
988858,정참치연어,제주특별자치도 서귀포시 성산읍 고성동서로56번길 15,33.44996,126.9146,정좌표
988878,청자네식개집,제주특별자치도 서귀포시 남원읍 태위로 690,33.27916,126.7201,정좌표
988882,유나카페,제주특별자치도 서귀포시 남원읍 공천포로 81,33.26602,126.6418,정좌표
988916,소두리가든,제주특별자치도 서귀포시 색달중앙로 145 (색달동),33.26775,126.4139,정좌표
988924,신동성식당,제주특별자치도 서귀포시 토평남로 109 (토평동),33.26764,126.5893,정좌표
989121,명가솥뚜껑,제주특별자치도 서귀포시 중앙로62번길 36 (서귀동),33.25135,126.5649,정좌표
989580,영희네집,"제주특별자치도 서귀포시 칠십리로 57, 1층 (서귀동)",33.24015,126.5624,정좌표
989596,옛날옛적,제주특별자치도 서귀포시 성산읍 일주동로 4660,33.41437,126.8999,정좌표
989708,중화요리 궁,제주특별자치도 서귀포시 중앙로 224 (서홍동),33.26455,126.5587,정좌표
989724,남정네들,"제주특별자치도 서귀포시 중정로61번길 26, 1층 (서귀동)",33.25017,126.5628,정좌표
989768,불만난고기,제주특별자치도 서귀포시 중앙로 157 (서홍동),33.2585,126.5597,정좌표
989816,제주손칼국수냉면전문점,제주특별자치도 서귀포시 일주동로 8599 (동홍동),33.25441,126.5693,정좌표
989888,토크쇼동남점,제주특별자치도 서귀포시 성산읍 고성동서로 71,33.45081,126.9149,정좌표
989892,수일통닭성산점,제주특별자치도 서귀포시 성산읍 서성일로 1240,33.4468,126.911,정좌표
989920,섭지코지 해녀밥상,제주특별자치도 서귀포시 성산읍 신양로122번길 60-6,33.43577,126.9175,정좌표
990140,정이가네서귀포중문점,제주특별자치도 서귀포시 천제연로 135 (중문동),33.2537,126.4197,정좌표
990244,별내리는정원,제주특별자치도 서귀포시 성산읍 중산간동로 4219,33.37828,126.84,정좌표
990458,모던플레이스,"제주특별자치도 서귀포시 상예로 262, 1층 (상예동)",33.26793,126.3948,정좌표
990979,한라산뷔페레스토랑,"제주특별자치도 서귀포시 태평로353번길 14, 1층 (서귀동)",33.24685,126.5607,정좌표
990983,솔대왓식당,제주특별자치도 서귀포시 이어도로 571 (강정동),33.23632,126.4777,정좌표
990985,신우성흑돼지,"제주특별자치도 서귀포시 중문관광로72번길 29-9, 1층 (색달동)",33.24963,126.4111,정좌표
992286,볼고롱짬뽕,제주특별자치도 서귀포시 중앙로 159-2 (서홍동),33.25888,126.5595,정좌표
992400,중문솥뚜껑,제주특별자치도 서귀포시 이어도로 81 (대포동),33.23834,126.4317,정좌표
992974,네네치킨신시가지점,제주특별자치도 서귀포시 신북로 17 (서호동),33.25803,126.5124,정좌표
992994,대풍옥,제주특별자치도 서귀포시 일주동로 8737 (서귀동),33.25201,126.5549,정좌표
993044,찜꽁찜닭&곱떡치떡,제주특별자치도 서귀포시 동홍로 14 (서귀동),33.24986,126.568,정좌표
993056,광치기해산물촌,제주특별자치도 서귀포시 성산읍 일출로 36,33.44764,126.9167,정좌표
993376,희야네식당,제주특별자치도 서귀포시 남원읍 태위로 685-1,33.27948,126.7197,정좌표
993410,엉또,제주특별자치도 서귀포시 신서귀로97번길 84 (강정동),33.2511,126.5045,정좌표
993470,성산포 자연산 회센타,"제주특별자치도 서귀포시 성산읍 성산중앙로25번길 12, 1층",33.46316,126.932,정좌표
993770,로빙화,제주특별자치도 서귀포시 남원읍 남태해안로 13,33.27512,126.7093,정좌표
994251,삼대해녀의집,제주특별자치도 서귀포시 성산읍 환해장성로 583-5,33.40685,126.9065,정좌표
994375,동카름엔황금농장,제주특별자치도 서귀포시 월평하원로 12 (월평동),33.24339,126.4605,정좌표
994383,제주부싯돌,제주특별자치도 서귀포시 중정로91번길 58 (서귀동),33.25182,126.5617,정좌표
994527,최강닭발,제주특별자치도 서귀포시 동홍남로 49 (동홍동),33.25706,126.5737,정좌표
994535,시봉포차,제주특별자치도 서귀포시 태평로 403 (서귀동),33.24473,126.5634,정좌표
994553,수정방,제주특별자치도 서귀포시 토평로50번길 18 (토평동),33.26882,126.5897,정좌표
994587,피자알볼로서귀포점,제주특별자치도 서귀포시 일주동로 8588 (동홍동),33.25498,126.5708,정좌표
994735,짜장마루,제주특별자치도 서귀포시 남원읍 태위로689번길 1-1,33.27964,126.72,정좌표
994769,마블링남원점,제주특별자치도 서귀포시 남원읍 태위로 477,33.27518,126.6981,정좌표
994839,쌍둥이돼지꿈,제주특별자치도 서귀포시 중문로81번길 90 (중문동),33.25311,126.4212,정좌표
995091,탐라흑돼지,제주특별자치도 서귀포시 성산읍 성산중앙로 60-1,33.46471,126.935,정좌표
995167,삼만덕,제주특별자치도 서귀포시 성산읍 동류암로36번길 6,33.44946,126.9167,정좌표
995191,현이네국밥,제주특별자치도 서귀포시 칠십리로 77 (서귀동),33.23992,126.5644,정좌표
995203,성산상회,제주특별자치도 서귀포시 성산읍 신양로 8,33.43484,126.9108,정좌표
995367,백년해장국성산점,제주특별자치도 서귀포시 성산읍 고성오조로 137,33.45589,126.9129,정좌표
995555,피자아일랜드,제주특별자치도 서귀포시 성산읍 환해장성로 513,33.40221,126.9025,정좌표
995575,부가네얼큰이성산점,제주특별자치도 서귀포시 성산읍 고성오조로 87-8,33.45156,126.9139,정좌표
995675,또순이,제주특별자치도 서귀포시 동문동로 29 (서귀동),33.25093,126.5649,정좌표
995685,레이크힐스리조트,제주특별자치도 서귀포시 존제로 24 (상예동),33.26643,126.3771,정좌표
995687,모닝해장국,제주특별자치도 서귀포시 동홍남로 77 (동홍동),33.25704,126.5765,정좌표
995717,가람돌솥밥,제주특별자치도 서귀포시 중문관광로 332 (대포동),33.24966,126.4313,정좌표
998227,이레막국수,제주특별자치도 서귀포시 천지로 59 (서귀동),33.25259,126.559,정좌표
999050,본죽서귀포점,"제주특별자치도 서귀포시 중앙로 111, 1층 (서홍동)",33.25458,126.5605,정좌표
999158,정이가네동홍점,제주특별자치도 서귀포시 일주동로 8542 (동홍동),33.25503,126.5757,정좌표
999212,삼겹살파티,제주특별자치도 서귀포시 문부로 4 (동홍동),33.25177,126.5681,정좌표
999230,이디야,제주특별자치도 서귀포시 중앙로71번길 6-2 (서귀동),33.25094,126.5608,정좌표
999278,더펍,제주특별자치도 서귀포시 동홍서로 83 (동홍동),33.25624,126.5693,정좌표
999335,또오리,제주특별자치도 서귀포시 동홍북로 8 (동홍동),33.25905,126.5691,정좌표
999443,돈내코손두부,제주특별자치도 서귀포시 배낭골로21번길 19 (상효동),33.29125,126.5908,정좌표
999608,일출왕뚝배기,제주특별자치도 서귀포시 성산읍 일출로 247,33.46093,126.9322,정좌표
999668,다육이 풍경,제주특별자치도 서귀포시 하효중앙로98번길 27 (하효동),33.25883,126.6224,정좌표
999707,의령소바성산점,"제주특별자치도 서귀포시 성산읍 삼달로 120, 1층 102호",33.37219,126.8567,정좌표
999755,뒷빌레식당,제주특별자치도 서귀포시 토평로 75 (토평동),33.27269,126.5896,정좌표
999767,호랑이해장국,제주특별자치도 서귀포시 성산읍 성산중앙로 40,33.46324,126.9336,정좌표
1000951,고등어쌈밥,제주특별자치도 서귀포시 성산읍 섭지코지로25번길 122-5,33.44946,126.9207,정좌표
1002675,송화촌,제주특별자치도 서귀포시 솜반천로43번길 4 (서홍동),33.25325,126.5561,정좌표
1002747,웰빙싱싱회센타,제주특별자치도 서귀포시 중앙로62번길 13 (서귀동),33.25041,126.5628,정좌표
1002774,홍가네집밥,제주특별자치도 서귀포시 성산읍 일주동로 4224,33.45146,126.9116,정좌표
1002816,유선식당,제주특별자치도 서귀포시 성산읍 일주동로 4229,33.45093,126.9122,정좌표
1003572,오크레스토랑,제주특별자치도 서귀포시 김정문화로 15 (강정동),33.25239,126.5067,정좌표
1003575,돈꼬집,제주특별자치도 서귀포시 신서로32번길 18 (강정동),33.25322,126.5062,정좌표
1003965,신나이스,제주특별자치도 서귀포시 성산읍 고성오조로 76,33.45047,126.9148,정좌표
1003971,오션뷰,제주특별자치도 서귀포시 중문관광로 224 (중문동),33.24129,126.4244,정좌표
1003980,청솔골,제주특별자치도 서귀포시 동홍로 114 (동홍동),33.25881,126.5687,정좌표
1003998,부촌석갈비,제주특별자치도 서귀포시 동홍로 371-1 (동홍동),33.28022,126.564,정좌표
1004004,카페크레마,제주특별자치도 서귀포시 김정문화로 15 (강정동),33.25239,126.5067,정좌표
1004010,토향,제주특별자치도 서귀포시 남원읍 태위로679번길 7-1,33.27982,126.7188,정좌표
1004072,제주신라글램핑&캠핑,제주특별자치도 서귀포시 중문관광로72번길 75 (색달동),33.24757,126.4069,정좌표
1004075,걸작떡볶이치킨서귀포서홍점,제주특별자치도 서귀포시 중산간동로 8040-1 (서홍동),33.26428,126.5577,정좌표
1004123,흑돈향,제주특별자치도 서귀포시 태평로 58 (호근동),33.24473,126.5293,정좌표
1004255,막창먹는놈성산점,제주특별자치도 서귀포시 성산읍 고성오조로 83,33.45104,126.9141,정좌표
1004323,삿뽀로우동집동홍점,제주특별자치도 서귀포시 동홍동로26번길 8 (동홍동),33.25722,126.5758,정좌표
1004367,대향 연탄구이,제주특별자치도 서귀포시 태평로 407 (서귀동),33.24484,126.5637,정좌표
1004399,모멘토,"제주특별자치도 서귀포시 태평로439번길 21, 지하1층 (서귀동)",33.2465,126.5649,정좌표
1004405,배떡중문점,제주특별자치도 서귀포시 천제연로 131-8 (중문동),33.25442,126.4199,정좌표
1004435,쇠소깍모꼬지,제주특별자치도 서귀포시 일주동로 8104 (하효동),33.26237,126.6207,정좌표
1004811,흑돈오리,제주특별자치도 서귀포시 이중섭로 5-5 (서귀동),33.24782,126.5646,정좌표
1005127,서가도쿄식탁,제주특별자치도 서귀포시 천제연로208번길 3 (중문동),33.25141,126.4271,정좌표
1005163,문화통닭,제주특별자치도 서귀포시 성산읍 고성오조로 81,33.45089,126.9144,정좌표
1006351,중문흑돼지천국,"제주특별자치도 서귀포시 이어도로 137, 1층 (대포동)",33.23977,126.437,정좌표
1008007,동홍돈,제주특별자치도 서귀포시 동홍남로 51 (동홍동),33.25706,126.5738,정좌표
1008022,이디카페,"제주특별자치도 서귀포시 이중섭로 3, 지하1층 (서귀동)",33.24777,126.5644,정좌표
1008025,행복한 시저네,제주특별자치도 서귀포시 막동산로 5-4 (호근동),33.25674,126.5252,정좌표
1008147,교래흑돼지성산일출봉점,제주특별자치도 서귀포시 성산읍 한도로 23,33.46648,126.911,정좌표
1008971,쇠소깍오메기식당,제주특별자치도 서귀포시 일주동로 8231 (신효동),33.2601,126.6075,정좌표
1010111,신참떡볶이서귀포정방점,제주특별자치도 서귀포시 태평로442번길 6 (서귀동),33.24566,126.5675,정좌표
1010129,국수나무서귀포점,제주특별자치도 서귀포시 동홍남로 54 (동홍동),33.25678,126.574,정좌표
1010183,번영숯불갈비,제주특별자치도 서귀포시 일주동로 8508 (토평동),33.25596,126.5789,정좌표
1010189,맹치동산,제주특별자치도 서귀포시 남원읍 자배오름로139번길 35-68,33.29233,126.67,정좌표
1010198,돈본날,제주특별자치도 서귀포시 동홍서로 43 (동홍동),33.25263,126.5695,정좌표
1010207,온평포구식당,제주특별자치도 서귀포시 성산읍 환해장성로 498,33.40123,126.9035,정좌표
1010231,돈다발,제주특별자치도 서귀포시 성산읍 성산중앙로 48,33.4639,126.9342,정좌표
1011671,팡팡식당,제주특별자치도 서귀포시 동홍로 46-2 (동홍동),33.25251,126.5678,정좌표
1011703,솔오름아구찜,제주특별자치도 서귀포시 동홍로 167 (동홍동),33.26344,126.5675,정좌표
1011724,마농치킨중앙통닭3호점,제주특별자치도 서귀포시 중앙로62번길 23 (서귀동),33.25067,126.5639,정좌표
1012398,오가네전복,제주특별자치도 서귀포시 중산간동로 7738 (토평동),33.26819,126.5895,정좌표
1014728,쇼린마라탕오리목전문점,"제주특별자치도 서귀포시 중정로91번길 56, 1층 (서귀동)",33.25187,126.562,정좌표
1014818,메종스시,"제주특별자치도 서귀포시 동홍남로 31, 1층 (동홍동)",33.25707,126.5717,정좌표
1015006,스마트골프존,제주특별자치도 서귀포시 신중남로 1 (강정동),33.2519,126.508,정좌표
1015009,돈내코장원식당,제주특별자치도 서귀포시 516로 466 (상효동),33.29274,126.5949,정좌표
1015021,황궁쟁반짜장,제주특별자치도 서귀포시 태평로 520 (동홍동),33.25088,126.573,정좌표
1015053,땡큐베리,"제주특별자치도 서귀포시 칠십리로 97 (서귀동,1-2층)",33.24113,126.5658,정좌표
1015139,야호중화포차,제주특별자치도 서귀포시 중문상로 39 (중문동),33.25193,126.4254,정좌표
1015151,낙지올래,제주특별자치도 서귀포시 천제연로 238-1 (중문동),33.25097,126.4299,정좌표
1015178,일출봉거북식당,제주특별자치도 서귀포시 성산읍 일출로 270,33.46184,126.9342,정좌표
1015370,충남식당,제주특별자치도 서귀포시 솔동산로 26 (서귀동),33.24267,126.5634,정좌표
1016558,산내들식당,제주특별자치도 서귀포시 대포로 167 (대포동),33.2392,126.4387,정좌표
1016573,쇠소깍가든,제주특별자치도 서귀포시 남원읍 하례로166번길 1,33.26419,126.6243,정좌표
1016621,땡겨김밥,제주특별자치도 서귀포시 효돈로 181 (하효동),33.2637,126.618,정좌표
1016633,은혜네맛집,제주특별자치도 서귀포시 남원읍 태위로 132,33.27481,126.6616,정좌표
1016673,서귀포목마,제주특별자치도 서귀포시 서문로29번길 30 (서귀동),33.24771,126.5595,정좌표
1016739,정직한통닭남원점,제주특별자치도 서귀포시 남원읍 태위로 683,33.27936,126.7194,정좌표
1016754,또와국밥,제주특별자치도 서귀포시 남원읍 남조로 26,33.28203,126.7208,정좌표
1016798,옛날통닭성산점,제주특별자치도 서귀포시 성산읍 고성동서로56번길 12-1,33.44987,126.9143,정좌표
1016954,달마식당,제주특별자치도 서귀포시 성산읍 서성일로 637,33.42689,126.8524,정좌표
1016960,썬라이즈135,제주특별자치도 서귀포시 성산읍 시흥상동로 135,33.48057,126.8971,정좌표
1017556,마가리따은혜씨,"제주특별자치도 서귀포시 성산읍 일출로 258-11, 2층",33.46102,126.9343,정좌표
1018840,말랑제주,제주특별자치도 서귀포시 서호로 22-1 (호근동),33.25612,126.5237,정좌표
1018910,통족서홍점,"제주특별자치도 서귀포시 중앙로 199, 1층 13,14호 (서홍동)",33.26282,126.5585,정좌표
1018913,우뭇개일번지,제주특별자치도 서귀포시 성산읍 일출로 288,33.4631,126.9352,정좌표
1019121,고집돌우럭 중문점,"제주특별자치도 서귀포시 일주서로 879, 2층 (색달동)",33.25798,126.4167,정좌표
1031161,오르다,"제주특별자치도 서귀포시 성산읍 한도로 269-37, 1,2층",33.46912,126.9351,정좌표
1033077,나영이네,제주특별자치도 서귀포시 동홍남로 54 (동홍동),33.25678,126.574,정좌표
1033095,태성흑돈,"제주특별자치도 서귀포시 칠십리로 47, 1층 (서귀동)",33.24074,126.5618,정좌표
1033195,남원수제돈까스,제주특별자치도 서귀포시 남원읍 남한로 10-1,33.27994,126.718,정좌표
1033313,병천한가네순대국밥,제주특별자치도 서귀포시 중산간동로 8359 (서호동),33.26086,126.5236,정좌표
1033455,빛나네,제주특별자치도 서귀포시 강정통물로 101 (강정동),33.23672,126.4769,정좌표
1033464,해월향,제주특별자치도 서귀포시 성산읍 고성오조로 33,33.44696,126.9144,정좌표
1033528,돈사돈중문점,제주특별자치도 서귀포시 천제연로 264-1 (중문동),33.251,126.433,정좌표
1034138,공새미59,제주특별자치도 서귀포시 남원읍 공천포로 59-1,33.26427,126.6406,정좌표
1034470,보람식당,제주특별자치도 서귀포시 성산읍 일주동로 4697,33.41099,126.8991,정좌표
1034530,황토기와집,제주특별자치도 서귀포시 일주서로 1102 (상예동),33.26393,126.3952,정좌표
1034680,모메든식당,제주특별자치도 서귀포시 일주서로 508 (하원동),33.25349,126.4545,정좌표
1035564,간이옥돔역,제주특별자치도 서귀포시 남원읍 남태해안로 484,33.28515,126.7497,정좌표
1035616,철따라어시장,제주특별자치도 서귀포시 동홍남로 45 (동홍동),33.25705,126.5733,정좌표
1035619,푸짐한식당,제주특별자치도 서귀포시 성산읍 섭지코지로25번길 5,33.43949,126.9194,정좌표
1035671,신미네,제주특별자치도 서귀포시 동홍동로 44 (동홍동),33.25869,126.575,정좌표
1035707,늘예솔,제주특별자치도 서귀포시 성산읍 일주동로 5335,33.36277,126.8657,정좌표
1035831,숯검댕이2호점,제주특별자치도 서귀포시 천지로 6 (서귀동),33.24801,126.5611,정좌표
1035861,맨도롱해장국,제주특별자치도 서귀포시 태평로353번길 11 (서귀동),33.24708,126.5601,정좌표
1036377,운하반점,제주특별자치도 서귀포시 중앙로72번길 8-1 (서귀동),33.25098,126.5621,정좌표
1036421,신나라,제주특별자치도 서귀포시 천지로 6 (서귀동),33.24801,126.5611,정좌표
1036448,돈사향서귀포점,"제주특별자치도 서귀포시 천지로 20, 1층 (서귀동)",33.24934,126.5609,정좌표
1036580,인생극장동홍점,"제주특별자치도 서귀포시 동홍중앙로66번길 30-7, 1층 (동홍동)",33.25583,126.5754,정좌표
1036607,삼수갑산,제주특별자치도 서귀포시 남원읍 중산간동로 7123,33.28327,126.6315,정좌표
1036616,수눌음,제주특별자치도 제주시 애월읍 구엄길 3,33.47477,126.3756,정좌표
1057280,쉬다가게,"제주특별자치도 제주시 애월읍 구엄길 66, 1층",33.48025,126.3764,정좌표
1064864,해밀,"제주특별자치도 제주시 애월읍 광상로 272, 1층",33.44362,126.4041,정좌표
1076960,소낭밭,"제주특별자치도 제주시 애월읍 곽지11길 15-6, 곽지해수욕장 내",33.4531,126.3067,정좌표
1080608,황구네,제주특별자치도 제주시 애월읍 구엄동1길 12,33.47618,126.378,정좌표
1080632,공산명월,"제주특별자치도 제주시 애월읍 광령평화3길 18, 1층",33.44718,126.4332,정좌표
1080756,장전반점,"제주특별자치도 제주시 애월읍 하소로 373, 1층",33.44939,126.3911,정좌표
1080828,알프스인소길,"제주특별자치도 제주시 애월읍 소길남길 22, 1층",33.43271,126.3781,정좌표
1080890,36.5도여름,"제주특별자치도 제주시 애월읍 애납로 165, 1층",33.43941,126.3282,정좌표
1080960,더더,"제주특별자치도 제주시 애월읍 엄장로 16, 1층",33.47219,126.3741,정좌표
1081010,호탕,"제주특별자치도 제주시 애월읍 애월로8길 8, 1층",33.46408,126.319,정좌표
1081164,프라이드프라이드하귀점,"제주특별자치도 제주시 애월읍 하광로 53, 1층",33.48183,126.4149,정좌표
1081174,고이정,"제주특별자치도 제주시 애월읍 애월로 6, A동 1층",33.45953,126.3114,정좌표
1084346,당당,제주특별자치도 제주시 애월읍 중엄안1길 25,33.47445,126.3709,정좌표
1084956,하르방짬뽕,"제주특별자치도 제주시 애월읍 하귀동남4길 4, 1층",33.48248,126.4125,정좌표
1086576,돌담위에흑돼지,"제주특별자치도 제주시 애월읍 애월해안로 608, 1층",33.47786,126.3684,정좌표
1086806,소담키친,"제주특별자치도 제주시 애월읍 항몽로 34, 1층",33.48062,126.4053,정좌표
1086814,애월연어,"제주특별자치도 제주시 애월읍 하소로 660, 1층",33.42566,126.3957,정좌표
1087364,브루클린,"제주특별자치도 제주시 애월읍 신엄연대길 30, 1층",33.47678,126.358,정좌표
1088260,옛날아우내순대,"제주특별자치도 제주시 애월읍 애월해안로 960, 1층",33.48243,126.3968,정좌표
1088400,주민상회애월점,"제주특별자치도 제주시 애월읍 애원로 5, 1층",33.46386,126.3204,정좌표
1088404,인디언썸머,"제주특별자치도 제주시 애월읍 애월로4길 9, 1층",33.46334,126.3152,정좌표
1088596,그집,제주특별자치도 제주시 애월읍 애월해안로 906,33.48471,126.392,정좌표
1089028,교촌치킨외도하귀점,"제주특별자치도 제주시 애월읍 하귀9길 56, 1층",33.48237,126.4152,정좌표
1089150,일품물항아리,"제주특별자치도 제주시 애월읍 하귀9길 23, 1층",33.48508,126.416,정좌표
1089154,안트레오젠,"제주특별자치도 제주시 애월읍 곽지1길 16, 1층",33.44768,126.3046,정좌표
1089278,광성로255,"제주특별자치도 제주시 애월읍 광성로 255, 1층",33.46041,126.4345,정좌표
1089282,뜨레솥밥,"제주특별자치도 제주시 애월읍 평화로 2556, 1층",33.43593,126.4241,정좌표
1089334,소나이포차,"제주특별자치도 제주시 애월읍 곽지5길 21, 써니빌 1층",33.44913,126.3057,정좌표
1089340,포구횟집,제주특별자치도 제주시 애월읍 가문동길 43,33.48629,126.3921,정좌표
1090356,솔도토종닭,제주특별자치도 제주시 애월읍 화전길 271,33.34529,126.3869,정좌표
1090358,간장을품은소라게,제주특별자치도 제주시 애월읍 하귀미수포길 4,33.48342,126.4025,정좌표
1091168,오조,"제주특별자치도 제주시 애월읍 하귀9길 34, 2층",33.48396,126.416,정좌표
1091328,청춘해장국,"제주특별자치도 제주시 애월읍 일주서로 6372, 1층",33.4622,126.3347,정좌표
1091382,돌빌레,제주특별자치도 제주시 애월읍 구엄4길 48,33.48382,126.3774,정좌표
1091430,해변,제주특별자치도 제주시 애월읍 애월해안로 90,33.46591,126.3236,정좌표
1091918,태공식당,제주특별자치도 제주시 애월읍 애월로11길 7,33.46518,126.3203,정좌표
1092066,춘하추동,제주특별자치도 제주시 애월읍 천덕로 440-17,33.4183,126.3379,정좌표
1092266,한담의바다풍경,제주특별자치도 제주시 애월읍 애월로1길 26-3,33.46285,126.3096,정좌표
1092346,한일식당,제주특별자치도 제주시 애월읍 납읍남로 48,33.43291,126.3284,정좌표
1092562,구이사이,제주특별자치도 제주시 애월읍 신엄9길 2,33.47224,126.3686,정좌표
1092884,맨도롱밥집,제주특별자치도 제주시 애월읍 하소로 361,33.45051,126.3911,정좌표
1092912,금산식당,제주특별자치도 제주시 애월읍 납읍로 6,33.43946,126.3287,정좌표
1092914,애파소,제주특별자치도 제주시 애월읍 애월로 118,33.46432,126.3198,정좌표
1092984,안동본가국밥관광대점,제주특별자치도 제주시 애월읍 평화로 2727,33.44796,126.4361,정좌표
1093010,하귀로30번가,"제주특별자치도 제주시 애월읍 하귀로 30, 1층",33.47997,126.4005,정좌표
1093012,왔다식당,제주특별자치도 제주시 애월읍 하귀로 79,33.48188,126.4052,정좌표
1093016,하루방흑돼지촌,제주특별자치도 제주시 애월읍 애월해안로 941,33.48381,126.3955,정좌표
1093030,하귀가마솥순대국,제주특별자치도 제주시 애월읍 하귀로 62,33.48067,126.4037,정좌표
1093098,은성,제주특별자치도 제주시 애월읍 하귀로23길 1,33.48012,126.4028,정좌표
1094058,바다사랑추억,제주특별자치도 제주시 애월읍 애월해안로 869,33.48771,126.3906,정좌표
1094160,권여사또바기,"제주특별자치도 제주시 애월읍 하가로 157, 1층",33.45628,126.3487,정좌표
1094172,페리카나 애월체인점,제주특별자치도 제주시 애월읍 애월로 117,33.46476,126.3201,정좌표
1094190,또나게,"제주특별자치도 제주시 애월읍 하귀동남1길 57, 1층",33.48661,126.4172,정좌표
1094196,가담국수하귀점,"제주특별자치도 제주시 애월읍 하귀동남3길 44, 1층",33.48489,126.4167,정좌표
1094218,컨플루언스,"제주특별자치도 제주시 애월읍 곽지남3길 14, 1층",33.44444,126.3111,정좌표
1094670,소소,"제주특별자치도 제주시 애월읍 소길남길 190-20, 1층",33.4168,126.3751,정좌표
1095606,헤이브로,"제주특별자치도 제주시 애월읍 일주서로 6040, 1층",33.44964,126.3089,정좌표
1095878,애월빵공장앤카페,"제주특별자치도 제주시 애월읍 금성5길 42-15, 1,2층",33.44831,126.3016,정좌표
1097574,버거아일랜드,"제주특별자치도 제주시 애월읍 애월로 118, 1층",33.46432,126.3198,정좌표
1097602,애월짬짜미,"제주특별자치도 제주시 애월읍 애월해안로 30, 1층",33.46641,126.3178,정좌표
1097870,썬셋클리프,"제주특별자치도 제주시 애월읍 애월로1길 19-8, 1,2층",33.4618,126.3107,정좌표
1098348,황금가마솥밥,"제주특별자치도 제주시 애월읍 일주서로 6015, 1층",33.44815,126.307,정좌표
1101036,한라봉스시,"제주특별자치도 제주시 애월읍 애월북서길 54, 2층",33.46388,126.3091,정좌표
1102182,보말보말,"제주특별자치도 제주시 애월읍 애월로 57, 1층",33.46362,126.3135,정좌표
1102448,제이제이그랑블루,"제주특별자치도 제주시 애월읍 일주서로 6113, 1층",33.45665,126.309,정좌표
1102708,드렁큰디제이,"제주특별자치도 제주시 애월읍 가문동길 41-2, 1층",33.48609,126.392,정좌표
1102830,우영담,제주특별자치도 제주시 애월읍 애월로 86,33.46429,126.3166,정좌표
1103592,마레벤또,"제주특별자치도 제주시 애월읍 애월로1길 10, 1층",33.46259,126.3117,정좌표
1103746,레드클레이,"제주특별자치도 제주시 애월읍 신상로 266, D동 1층",33.44895,126.3661,정좌표
1103786,제주광해애월점,"제주특별자치도 제주시 애월읍 애월해안로 867, 2층",33.48774,126.3904,정좌표
1105712,약선명가,제주특별자치도 제주시 애월읍 하광로 2,33.48493,126.4108,정좌표
1105734,일일오팔족욕카페,"제주특별자치도 제주시 애월읍 애월해안로 230, 2층",33.4671,126.3365,정좌표
1105860,탐라는족족,제주특별자치도 제주시 애월읍 애원로 5,33.46386,126.3204,정좌표
1105888,피노,"제주특별자치도 제주시 애월읍 유수암로 103, 1층",33.43392,126.4015,정좌표
1105928,한담가든,제주특별자치도 제주시 애월읍 애월로1길 4,33.46258,126.3123,정좌표
1106432,고내촌한정식,"제주특별자치도 제주시 애월읍 고내로13길 73, 1층",33.46997,126.3465,정좌표
1107632,아르본리조트,제주특별자치도 제주시 애월읍 평화로 2482,33.43086,126.4201,정좌표
1107634,비에이치씨애월점,"제주특별자치도 제주시 애월읍 애월로 126, 1층",33.46417,126.3206,정좌표
1108242,정직한돈,"제주특별자치도 제주시 애월읍 애월해안로 253, 1층",33.46767,126.339,정좌표
1110494,아카시아,"제주특별자치도 제주시 애월읍 하귀2길 56, 1층",33.4894,126.4127,정좌표
1111878,과오름해장국,"제주특별자치도 제주시 애월읍 일주서로 6078, 1층",33.4531,126.3093,정좌표
1111890,리즈스테이크갤러리애월한담점,"제주특별자치도 제주시 애월읍 일주서로 6158, 가동 1층",33.45927,126.3124,정좌표
1111892,집30다시8,"제주특별자치도 제주시 애월읍 하귀7길 30-8, 2층",33.48397,126.4171,정좌표
1111900,소소한담,"제주특별자치도 제주시 애월읍 일주서로 6691, 1층",33.47141,126.3668,정좌표
1112460,휴먼시아가마솥순대국,"제주특별자치도 제주시 애월읍 하광로 51, 1층",33.48193,126.4147,정좌표
1112474,아라,"제주특별자치도 제주시 애월읍 애월해안로 394, 4층",33.4725,126.3505,정좌표
1113230,바다보는날,제주특별자치도 제주시 애월읍 애월해안로 722,33.48393,126.378,정좌표
1113654,인디언키친,"제주특별자치도 제주시 애월읍 애원로 191, 1층",33.45043,126.3314,정좌표
1114248,유수암식당,제주특별자치도 제주시 애월읍 유수암로 2,33.44239,126.4019,정좌표
1114256,유수암돌판구이,"제주특별자치도 제주시 애월읍 유수암로 224, 1층",33.42518,126.4026,정좌표
1114266,바우네나주곰탕애월점,제주특별자치도 제주시 애월읍 평화로 2369,33.42467,126.4092,정좌표
1114304,골목카페옥수,"제주특별자치도 제주시 애월읍 소길1길 19, 1층",33.43995,126.3799,정좌표
1114530,흑돼지가노는집,제주특별자치도 제주시 애월읍 하귀로 118,33.4837,126.4086,정좌표
1114694,제주클레르드륀,"제주특별자치도 제주시 애월읍 고내로11길 14, 1층",33.46595,126.3403,정좌표
1115432,트라이던트,"제주특별자치도 제주시 애월읍 애월로 44, 1층",33.46238,126.313,정좌표
1115464,도치돌가든,제주특별자치도 제주시 애월읍 천덕로 440-1,33.41976,126.3397,정좌표
1115928,목커리해물칼국수,"제주특별자치도 제주시 애월읍 일주서로 6365, 1층",33.46275,126.3342,정좌표
1116000,비에이치씨제주하귀점,"제주특별자치도 제주시 애월읍 하귀동남3길 2, 1층",33.48311,126.4128,정좌표
1116062,동귀포구식당,"제주특별자치도 제주시 애월읍 하귀14길 4, 2층",33.48489,126.408,정좌표
1116350,멕시카나치킨고성하귀점,"제주특별자치도 제주시 애월읍 고성서3길 15-5, 1층",33.46595,126.4109,정좌표
1116378,애월리순메밀막국수,"제주특별자치도 제주시 애월읍 애월해안로 11, 1~2층",33.46563,126.3164,정좌표
1116692,챠우챠우,제주특별자치도 제주시 애월읍 하귀동남2길 17,33.48177,126.4126,정좌표
1116712,바다와자전거,"제주특별자치도 제주시 애월읍 고내로9길 42, 101호",33.46667,126.3381,정좌표
1117068,더허그스테이크하우스,"제주특별자치도 제주시 애월읍 평화로 2727, 1층 제1호",33.44796,126.4361,정좌표
1117086,백번,제주특별자치도 제주시 애월읍 애월로 120,33.46434,126.3201,정좌표
1119330,곽지바다,"제주특별자치도 제주시 애월읍 곽지1길 18, 1층 제2호",33.44788,126.3046,정좌표
1125738,미풍해장국광령점,"제주특별자치도 제주시 애월읍 광성로 331, 1층",33.46116,126.4425,정좌표
1125816,둥지,제주특별자치도 제주시 애월읍 애월해안로 298,33.47053,126.3416,정좌표
1129932,다시정식당,제주특별자치도 제주시 애월읍 곽지9길 45,33.44957,126.3058,정좌표
1130108,구엄소금,"제주특별자치도 제주시 애월읍 구엄길 96, 1층",33.48247,126.376,정좌표
1130262,참솔,"제주특별자치도 제주시 애월읍 유수암평화5길 21, 1층",33.42371,126.4062,정좌표
1130504,금돈가,"제주특별자치도 제주시 애월읍 가문동남길 63, 1층",33.4843,126.3911,정좌표
1130934,누렁소앤도새기,"제주특별자치도 제주시 애월읍 광령남6길 14, 1층",33.44743,126.4279,정좌표
1131154,카페동경앤책방,"제주특별자치도 제주시 애월읍 하귀로 74, 2층",33.48134,126.4048,정좌표
1131274,이승굴닭해장국,"제주특별자치도 제주시 애월읍 하광로 515, 지하1층",33.44577,126.4309,정좌표
1131348,아기해녀의집,"제주특별자치도 제주시 애월읍 금성5길 42-15, 1층",33.44831,126.3016,정좌표
1131632,애월리에,제주특별자치도 제주시 애월읍 엄수로 8-11,33.47376,126.3781,정좌표
1132004,설농옥하귀점,"제주특별자치도 제주시 애월읍 하귀14길 1, 1층",33.48457,126.4079,정좌표
1132046,애월한식뷔페,"제주특별자치도 제주시 애월읍 애월로 135, 1층",33.46413,126.3217,정좌표
1132088,까미노,"제주특별자치도 제주시 애월읍 고하상로 91-12, 1층",33.45776,126.3478,정좌표
1133048,노을빛돼지,"제주특별자치도 제주시 애월읍 애월해안로 249, 1층",33.46736,126.3384,정좌표
1133078,일품순두부애월점,"제주특별자치도 제주시 애월읍 애월해안로 176, 1층",33.46728,126.3314,정좌표
1133208,애월봉이네,"제주특별자치도 제주시 애월읍 애월로 97, 1층",33.46498,126.3176,정좌표
1133248,광장가든,제주특별자치도 제주시 애월읍 애월로 131,33.46435,126.3213,정좌표
1133260,뚱딴지,제주특별자치도 제주시 애월읍 부룡수길 17,33.47476,126.355,정좌표
1138036,뽕글락갈비,"제주특별자치도 제주시 애월읍 하귀로 65, 1층",33.48108,126.404,정좌표
1138046,꿈낭밥집,"제주특별자치도 제주시 애월읍 유수암평화5길 33-3, 1층",33.42404,126.4053,정좌표
1138246,지에스25귀일중점,"제주특별자치도 제주시 애월읍 항몽로 34, 1층",33.48062,126.4053,정좌표
1138266,지에스25하귀점,"제주특별자치도 제주시 애월읍 일주서로 7143, 1층",33.48612,126.4121,정좌표
1138286,바당한그릇,"제주특별자치도 제주시 애월읍 애월해안로 552-3, 1층",33.4784,126.3624,정좌표
1138778,커피상가,제주특별자치도 제주시 애월읍 상가목장길 31,33.3974,126.381,정좌표
1138850,망고홀릭애월해안도로점,"제주특별자치도 제주시 애월읍 애월해안로 298, A동 1층",33.47053,126.3416,정좌표
1139094,분홍씨,제주특별자치도 제주시 애월읍 곽지11길 7,33.45294,126.308,정좌표
1139096,예쁘다애월,"제주특별자치도 제주시 애월읍 구엄길 1, 1층",33.47461,126.3756,정좌표
1139144,본까페,"제주특별자치도 제주시 애월읍 애월해안로 179, 1~2층",33.46779,126.3321,정좌표
1139518,마마롱,"제주특별자치도 제주시 애월읍 평화로 2783, 1층",33.45215,126.4392,정좌표
1139810,다가미애월점,"제주특별자치도 제주시 애월읍 평화로 2901-1, 1층",33.4606,126.4471,정좌표
1140244,파라카페,"제주특별자치도 제주시 애월읍 애월해안로 748, 지하1층",33.48409,126.3808,정좌표
1140248,제주와함께라면,"제주특별자치도 제주시 애월읍 애월해안로 274, 1층",33.46835,126.3405,정좌표
1140606,머스태쉬커피,제주특별자치도 제주시 애월읍 애월로 137-1,33.46407,126.322,정좌표
1140670,씨유제주하귀주공점,제주특별자치도 제주시 애월읍 하광로 50,33.4818,126.4141,정좌표
1140690,신엄해녀의집,"제주특별자치도 제주시 애월읍 애월해안로 591, 1층",33.47846,126.3669,정좌표
1141134,어게인원모어,"제주특별자치도 제주시 애월읍 중산간서로 5667, 1층",33.44907,126.34,정좌표
1141154,GS25제주애월중점,"제주특별자치도 제주시 애월읍 애월로 151, 1층",33.46388,126.3233,정좌표
1141172,오름카페,"제주특별자치도 제주시 애월읍 애월해안로 274, 2층",33.46835,126.3405,정좌표
1141220,커피산책,제주특별자치도 제주시 애월읍 광령9길 10-1,33.46203,126.4402,정좌표
1141226,지에스25애월구엄점,"제주특별자치도 제주시 애월읍 애월해안로 715, 1층",33.484,126.3773,정좌표
1141246,더정글,"제주특별자치도 제주시 애월읍 유수암평화길 139, 1층",33.43156,126.4083,정좌표
1141266,달자카페,"제주특별자치도 제주시 애월읍 애월해안로 738, 나동 1~2층",33.48364,126.3796,정좌표
1141458,황김밥우동,"제주특별자치도 제주시 애월읍 하귀로 50, 1층",33.4802,126.4025,정좌표
1141526,멍멍플레이스,"제주특별자치도 제주시 애월읍 소길남길 244-5, 1층",33.41584,126.3793,정좌표
1141746,애월김밥,"제주특별자치도 제주시 애월읍 일주서로 6391, 에이동 1층 101호",33.46283,126.3368,정좌표
1141754,씨유하귀대성점,"제주특별자치도 제주시 애월읍 하귀로 74, 1층",33.48134,126.4048,정좌표
1141774,씨유제주애월항점,"제주특별자치도 제주시 애월읍 애월해안로 99, 1층",33.46634,126.3245,정좌표
1141890,씨유제주씨앤블루점,"제주특별자치도 제주시 애월읍 애월해안로 576, 1층",33.47786,126.3653,정좌표
1142068,로터스,제주특별자치도 제주시 애월읍 하귀로 26,33.47992,126.4001,정좌표
1142164,봄이카페,"제주특별자치도 제주시 애월읍 광령평화2길 170-19, 2층",33.42969,126.4346,정좌표
1142184,씨유제주장전점,"제주특별자치도 제주시 애월읍 장전4길 2, 1층",33.45079,126.3881,정좌표
1142204,더썸띵,"제주특별자치도 제주시 애월읍 상귀장수물길 58-41, 1층",33.44906,126.4014,정좌표
1142210,세븐일레븐제주하광로점,"제주특별자치도 제주시 애월읍 하광로 277, 1층",33.46441,126.4228,정좌표
1142230,씨유제주애월해안점,"제주특별자치도 제주시 애월읍 애월해안로 956, 1층",33.48265,126.3968,정좌표
1142250,까메까메까망이,"제주특별자치도 제주시 애월읍 엄수로 21, 1층",33.47316,126.379,정좌표
1142320,강김밥집,"제주특별자치도 제주시 애월읍 하귀9길 2, 1층 114호",33.48642,126.4146,정좌표
1142360,팽트리힐,"제주특별자치도 제주시 애월읍 유수암로 12, 1층",33.44157,126.4016,정좌표
1142376,지에스25뉴제주하귀점,"제주특별자치도 제주시 애월읍 하귀9길 50, 1층",33.4829,126.4155,정좌표
1142396,세븐일레븐제주하귀점,"제주특별자치도 제주시 애월읍 하귀로 24, 1층",33.4799,126.3999,정좌표
1142416,씨유제주하귀휴먼시아점,"제주특별자치도 제주시 애월읍 하귀9길 25, 1층",33.48494,126.4161,정좌표
1142436,제주기와,"제주특별자치도 제주시 애월읍 광령남4길 45-1, 1층",33.45113,126.4254,정좌표
1143478,고잉메리제주9.81파크점,"제주특별자치도 제주시 애월읍 천덕로 880-24, 비동 1층",33.3908,126.3663,정좌표
1143602,라운지엑스애월,"제주특별자치도 제주시 애월읍 천덕로 880-24, 에이동 지하1층",33.3908,126.3663,정좌표
1143798,세븐일레븐애월로드점,"제주특별자치도 제주시 애월읍 중산간서로 6617, 1층",33.46401,126.4364,정좌표
1143802,더하오하오,"제주특별자치도 제주시 애월읍 애월로3길 17, 1층",33.4648,126.3134,정좌표
1143888,세븐일레븐제주애월고내점,"제주특별자치도 제주시 애월읍 일주서로 6391, 에이동 101호",33.46283,126.3368,정좌표
1143942,지에스25제주애월고점,"제주특별자치도 제주시 애월읍 일주서로 6372, 1층",33.4622,126.3347,정좌표
1143962,치치숲,"제주특별자치도 제주시 애월읍 녹고메길 165, 녹고뫼안트레센터 2층 제2호",33.40595,126.408,정좌표
1143982,카페쌀쌀,"제주특별자치도 제주시 애월읍 신엄로 51, 1층",33.47514,126.3642,정좌표
1144002,세븐일레븐 제주곽지점,"제주특별자치도 제주시 애월읍 일주서로 5989, 1층",33.44639,126.3053,정좌표
1144034,라라스토리,"제주특별자치도 제주시 애월읍 광령평화10길 13, 1층",33.4544,126.4427,정좌표
1144054,수스로로스팅하우스,"제주특별자치도 제주시 애월읍 고성남3길 14, 1층",33.43521,126.427,정좌표
1144066,투썸플레이스제주애월하귀점,"제주특별자치도 제주시 애월읍 일주서로 7209, 2~3층",33.48865,126.4182,정좌표
1144086,애월전분공장,"제주특별자치도 제주시 애월읍 중엄3길 60, 1층",33.47837,126.3703,정좌표
1144106,스마일명품찹쌀꽈배기,"제주특별자치도 제주시 애월읍 일주서로 7235, 제1동 1층",33.49018,126.4206,정좌표
1144126,엘리사,"제주특별자치도 제주시 애월읍 가문동상2길 28, 1층",33.48516,126.3909,인근좌표
1144146,세븐일레븐제주애월천덕점,"제주특별자치도 제주시 애월읍 천덕로 397, 1층",33.4226,126.3358,인근좌표
1144164,달콤한휴식,"제주특별자치도 제주시 애월읍 천덕로 395, 1층",33.42278,126.3362,정좌표
1144324,새들러하우스,"제주특별자치도 제주시 애월읍 애월로1길 24-15, 1층",33.46359,126.3098,정좌표
1144344,담쟁이,"제주특별자치도 제주시 애월읍 일주서로 6755, 1층",33.47373,126.3734,정좌표
1144362,카페시오,"제주특별자치도 제주시 애월읍 고내로7길 28, 1층",33.46523,126.3376,정좌표
1144382,특활제주,"제주특별자치도 제주시 애월읍 하광로 266, 1층",33.46475,126.4215,정좌표
1144402,랍스터빈,"제주특별자치도 제주시 애월읍 애월해안로 752, 1층",33.48427,126.3811,정좌표
1144562,한담상회,"제주특별자치도 제주시 애월읍 애월로1길 7, 1동 1층",33.46235,126.3117,정좌표
1144582,올래밥상33,제주특별자치도 제주시 애월읍 상가로 33,33.44844,126.3422,정좌표
1144586,블리스풀,"제주특별자치도 제주시 애월읍 산록서로 383, 1층",33.40484,126.4071,정좌표
1144606,아르떼티바,"제주특별자치도 제주시 애월읍 어림비로 478, 1층 1호",33.3972,126.3454,정좌표
1144626,세븐일레븐제주상귀점,"제주특별자치도 제주시 애월읍 항몽로 134, 1층",33.47253,126.4089,정좌표
1144646,솜씨살롱애월,"제주특별자치도 제주시 애월읍 금성5길 44-9, 2층",33.44854,126.3015,정좌표
1145016,카페앤틱애월,"제주특별자치도 제주시 애월읍 하귀11길 39, 1층",33.48265,126.4142,정좌표
1145378,세븐일레븐제주상가리점,제주특별자치도 제주시 애월읍 애원로 515,33.42929,126.353,정좌표
1145398,에이바우트커피뷰하귀포구점,"제주특별자치도 제주시 애월읍 하귀12길 21-2, 1~3층",33.48645,126.4084,정좌표
1145778,스페이스플로스,"제주특별자치도 제주시 애월읍 하귀동남3길 9, 1층",33.48365,126.4133,정좌표
1145780,바인카페,"제주특별자치도 제주시 애월읍 소길남길 45-1, 에이동 1층",33.43034,126.3782,정좌표
1145838,펜고호다,"제주특별자치도 제주시 애월읍 봉성로 61, 1층",33.41829,126.3124,정좌표
1145914,7번가피자제주애월점,"제주특별자치도 제주시 애월읍 일주서로 6254-3, 나동 1층",33.46098,126.3226,정좌표
1145970,제주애단비유안,제주특별자치도 제주시 애월읍 봉성로2길 25,33.4154,126.312,정좌표
1145976,씨유제주봉성점,"제주특별자치도 제주시 애월읍 녹근로 3, 제1동 1층",33.41775,126.3126,정좌표
1145994,하이한담,"제주특별자치도 제주시 애월읍 애월로9길 12-7, 1층",33.46565,126.32,정좌표
1146096,더앨리제주애월점,"제주특별자치도 제주시 애월읍 애월해안로 728, 1~2층",33.48367,126.3786,정좌표
1146418,교동도나스제주애월점,"제주특별자치도 제주시 애월읍 애월해안로 566, 1층",33.47802,126.3641,정좌표
1146526,돈파스타정원,"제주특별자치도 제주시 애월읍 애월해안로 364, 1,2층",33.47278,126.3474,정좌표
1146982,네꼬야티하우스,"제주특별자치도 제주시 애월읍 하귀9길 15, 1층",33.48567,126.4156,정좌표
1147080,씨유제주하광로점,"제주특별자치도 제주시 애월읍 하광로 246, 104동 1층 101호",33.46627,126.42,정좌표
1147100,애월사이카레,"제주특별자치도 제주시 애월읍 애월해안로 752, 2층",33.48427,126.3811,정좌표
1147256,볼수록제주,"제주특별자치도 제주시 애월읍 하소로 154-1, 제2동 1층",33.46821,126.3934,정좌표
1147436,달코넛해적단,"제주특별자치도 제주시 애월읍 평화로 1529, 푸드트럭 12호",33.36271,126.3634,정좌표
1147868,제주라온빌리지,"제주특별자치도 제주시 애월읍 애월해안로 564-1, 7동 1층",33.47794,126.3639,정좌표
1147886,제주흑돈만두애월점,"제주특별자치도 제주시 애월읍 애월로 120, 1층",33.46434,126.3201,정좌표
1147928,옹고집,"제주특별자치도 제주시 애월읍 애월해안로 274, 1동 1층 제3호",33.46835,126.3405,정좌표
1147936,젤코바,"제주특별자치도 제주시 애월읍 하소로 1, 1층",33.47973,126.3999,정좌표
1148054,컴포즈커피제주하귀점,"제주특별자치도 제주시 애월읍 하귀9길 1, 1층",33.48673,126.415,정좌표
1148108,혼디허카오카,"제주특별자치도 제주시 애월읍 하귀9길 54, 1층",33.48264,126.4152,정좌표
1148110,세븐일레븐제주납읍점,"제주특별자치도 제주시 애월읍 중산간서로 5446, 1층",33.43484,126.3249,정좌표
1148130,옐로우사이공,"제주특별자치도 제주시 애월읍 중산간서로 6333, 2층",33.45712,126.4077,정좌표
1148150,세븐일레븐제주장전점,"제주특별자치도 제주시 애월읍 중산간서로 6132, 장전SKY빌 1층",33.45268,126.3872,정좌표
1148170,분식왕,"제주특별자치도 제주시 애월읍 하귀로 64-1, 1층",33.48083,126.4042,정좌표
1148172,포도호텔레스토랑,제주특별자치도 서귀포시 안덕면 산록남로 863,33.30535,126.3936,정좌표
1148202,빌레왓,제주특별자치도 서귀포시 안덕면 화순서동로 14,33.25253,126.335,정좌표
1148622,맥시카나대평점,제주특별자치도 서귀포시 안덕면 난드르로 4,33.23493,126.3677,정좌표
1148726,새당골,제주특별자치도 서귀포시 안덕면 덕수서로 40,33.25381,126.3047,정좌표
1148850,헤이브라더,제주특별자치도 서귀포시 안덕면 형제해안로 72,33.22559,126.2997,정좌표
1149102,닭발치킨먹고,제주특별자치도 서귀포시 안덕면 화순해안로 67,33.24106,126.3337,정좌표
1149190,댄싱포크,제주특별자치도 서귀포시 안덕면 산방로388번길 6,33.23212,126.2951,정좌표
1149422,산이마을가든,제주특별자치도 서귀포시 안덕면 감산중로 34,33.25903,126.3538,정좌표
1149446,송림산장,제주특별자치도 서귀포시 안덕면 산록남로 415,33.33141,126.3561,정좌표
1149458,혜원,"제주특별자치도 서귀포시 안덕면 화순서서로 397, 1층",33.27835,126.308,정좌표
1150226,대평밥상,"제주특별자치도 서귀포시 안덕면 난드르로21번길 6-13, 1층",33.23306,126.3663,정좌표
1150570,박장군식당,제주특별자치도 서귀포시 안덕면 중산간서로 2120,33.2842,126.2988,정좌표
1150630,르쉬느아 (Le Chinois),"제주특별자치도 서귀포시 안덕면 신화역사로304번길 38, 지하1층",33.30498,126.3164,정좌표
1150810,리지코티지,제주특별자치도 서귀포시 안덕면 평화로 654,33.29126,126.3282,정좌표
1150894,강남참숯구이,"제주특별자치도 서귀포시 안덕면 서광동로 103, 1층",33.29538,126.3298,정좌표
1150978,날씬흑돼지,"제주특별자치도 서귀포시 안덕면 사계로114번길 54-62, 2층",33.23819,126.3065,정좌표
1151286,이비가짬뽕신화월드점,"제주특별자치도 서귀포시 안덕면 신화역사로 502, 2층",33.31002,126.3413,정좌표
1151306,이디아장,제주특별자치도 서귀포시 안덕면 산방로 214,33.23644,126.3124,정좌표
1151326,주민상회화순점,제주특별자치도 서귀포시 안덕면 화순로 131,33.2462,126.3324,정좌표
1151340,영웅식당,제주특별자치도 서귀포시 안덕면 화순로 102-1,33.24668,126.3354,정좌표
1151360,환이네,제주특별자치도 서귀포시 안덕면 사계중앙로18번길 5,33.23073,126.2969,정좌표
1151380,미도식당,제주특별자치도 서귀포시 안덕면 사계남로216번길 11,33.23245,126.3094,정좌표
1151460,까브치킨,제주특별자치도 서귀포시 안덕면 사계남로 202,33.2311,126.3088,정좌표
1151466,사계소희네국수,"제주특별자치도 서귀포시 안덕면 산방로 244, 1층",33.23595,126.3095,정좌표
1151486,화순한가네식당,제주특별자치도 서귀포시 안덕면 화순해안로 109,33.23921,126.3366,정좌표
1151506,고기랑밥이랑,제주특별자치도 서귀포시 안덕면 산방로 317,33.23317,126.3024,정좌표
1151520,산방산초가집,제주특별자치도 서귀포시 안덕면 화순해안로 189,33.24548,126.3386,정좌표
1151984,신옛촌,"제주특별자치도 서귀포시 안덕면 사계로 187-6, 1층",33.24697,126.3023,정좌표
1152980,안덕식당,"제주특별자치도 서귀포시 안덕면 일주서로 1499, 1층",33.25945,126.3554,정좌표
1152996,까사데비발디,"제주특별자치도 서귀포시 안덕면 향교로 214, 1층",33.23416,126.2905,정좌표
1153012,조마루뼈다귀서광점,"제주특별자치도 서귀포시 안덕면 서광남로 143, 1층",33.28519,126.3013,정좌표
1153084,감동스낵,제주특별자치도 서귀포시 안덕면 사계남로 151,33.22861,126.3059,정좌표
1153256,부가부가부가네얼큰이화순점,제주특별자치도 서귀포시 안덕면 화순로 101,33.24655,126.3357,정좌표
1153266,웨스트힐라운지,"제주특별자치도 서귀포시 안덕면 신화역사로304번길 133, 1층",33.30013,126.3196,정좌표
1153278,크랩통신화월드점,"제주특별자치도 서귀포시 안덕면 신화역사로304번길 38, 호텔동 지하1층",33.30498,126.3164,정좌표
1153362,칠돈가서광직영점,"제주특별자치도 서귀포시 안덕면 서광사수동로20번길 27, 1층",33.2864,126.3035,정좌표
1153612,강풍해장국,"제주특별자치도 서귀포시 안덕면 사계북로 1, 1층",33.23034,126.2921,정좌표
1153646,카페방주,제주특별자치도 서귀포시 안덕면 산록남로762번길 119,33.30561,126.387,정좌표
1153798,제주비에이치씨신화월드,"제주특별자치도 서귀포시 안덕면 신화역사로304번길 133, 1층",33.30013,126.3196,정좌표
1153964,버거의여왕,제주특별자치도 서귀포시 안덕면 사계남로 202,33.2311,126.3088,정좌표
1154032,만복흑돼지,제주특별자치도 서귀포시 안덕면 산방로 53,33.24357,126.3269,정좌표
1155094,사계리2033,"제주특별자치도 서귀포시 안덕면 사계남로 181, 1층",33.22962,126.3077,정좌표
1155114,생원전복,제주특별자치도 서귀포시 안덕면 산방로 7,33.24586,126.3307,정좌표
1155216,거멍국수,"제주특별자치도 서귀포시 안덕면 사계로114번길 53-14, 1층",33.2446,126.3043,정좌표
1155912,돌하르방나주곰탕,제주특별자치도 서귀포시 안덕면 중산간서로 1791,33.2862,126.331,정좌표
1155996,부산낙곱새,제주특별자치도 서귀포시 안덕면 화순중앙로 7-10,33.25148,126.3348,정좌표
1156000,모록밭,제주특별자치도 서귀포시 안덕면 병악로 428,33.30726,126.3825,정좌표
1156062,머머코,"제주특별자치도 서귀포시 안덕면 한창로 103, 1층",33.2723,126.3649,정좌표
1156064,카페짜이,제주특별자치도 서귀포시 안덕면 사계남로 239,33.23442,126.308,정좌표
1156106,산계원식당,제주특별자치도 서귀포시 안덕면 형제해안로 80,33.22541,126.2995,정좌표
1156126,미란이네,"제주특별자치도 서귀포시 안덕면 사계남로 167, 1층",33.22836,126.3074,정좌표
1156174,자니로켓신화월드점,"제주특별자치도 서귀포시 안덕면 신화역사로304번길 38, 지하1층",33.30498,126.3164,정좌표
1156602,미르빌,제주특별자치도 서귀포시 안덕면 사계로114번길 87,33.24577,126.306,정좌표
1161770,당일바리,제주특별자치도 서귀포시 안덕면 형제해안로 20,33.2281,126.3045,정좌표
1161822,윤경양식당신화월드점,"제주특별자치도 서귀포시 안덕면 신화역사로304번길 38, 지하1층",33.30498,126.3164,정좌표
1162070,만담,제주특별자치도 서귀포시 안덕면 사계북로41번길 197,33.25014,126.2976,정좌표
1162120,장짜장,제주특별자치도 서귀포시 안덕면 녹차분재로 65,33.29081,126.3007,정좌표
1162144,제주할망밥상,제주특별자치도 서귀포시 안덕면 화순해안로 89,33.24016,126.3357,정좌표
1162330,단비식당,제주특별자치도 서귀포시 안덕면 사계남로 212,33.2321,126.3089,정좌표
1162458,씨엘메르카페,"제주특별자치도 서귀포시 안덕면 난드르로 49-71, 2층",33.23222,126.367,정좌표
1162484,더플레이스제주신화월드점,"제주특별자치도 서귀포시 안덕면 신화역사로304번길 38, 지하1층 31호",33.30498,126.3164,정좌표
1163152,소봉식당,"제주특별자치도 서귀포시 안덕면 사계로 191, 1층",33.24697,126.303,정좌표
1163624,고래라면신화월드점,"제주특별자치도 서귀포시 안덕면 신화역사로304번길 38, 지하1층",33.30498,126.3164,정좌표
1163824,엠라운지(M Lounge),"제주특별자치도 서귀포시 안덕면 신화역사로304번길 38, 지하1층",33.30498,126.3164,정좌표
1163828,83년생김지영,제주특별자치도 서귀포시 안덕면 신화역사로 372-4,33.30914,126.3277,정좌표
1163854,산방흑돼지순대,"제주특별자치도 서귀포시 안덕면 사계로114번길 53-27, 1층",33.24406,126.304,정좌표
1163972,르피크닉,"제주특별자치도 서귀포시 안덕면 대평로 39, 2층 (라림부띠끄호텔)",33.23683,126.3629,정좌표
1164056,제인피자,제주특별자치도 서귀포시 안덕면 사계북로 157-31,33.24068,126.3045,정좌표
1164118,동광메밀짬뽕,제주특별자치도 서귀포시 안덕면 신화역사로 581,33.31054,126.3498,정좌표
1164202,예원이네,제주특별자치도 서귀포시 안덕면 일주서로 1524,33.25841,126.353,정좌표
1164832,꽃썸피자,제주특별자치도 서귀포시 안덕면 동광로 151,33.30974,126.3402,정좌표
1164840,제주흑돼지신화,"제주특별자치도 서귀포시 안덕면 한창로 628, 1층",33.31284,126.3393,정좌표
1164872,초밥충전,"제주특별자치도 서귀포시 안덕면 화순로 65, 1층 101호",33.24823,126.3389,정좌표
1164912,사계풍경포시즌,"제주특별자치도 서귀포시 안덕면 산방로 232, 1,2층",33.23654,126.3106,정좌표
1164944,삼거리농원,제주특별자치도 서귀포시 안덕면 사계남로 235,33.23407,126.3082,정좌표
1165112,천지연숯화로구이,"제주특별자치도 서귀포시 안덕면 화순로 154-7, 1층",33.24742,126.3297,정좌표
1165192,서광고깃집,제주특별자치도 서귀포시 안덕면 중산간서로 1875-7,33.28834,126.3222,정좌표
1165308,제주다와카페,"제주특별자치도 서귀포시 안덕면 소기왓로 81-4, 1~2층",33.24239,126.3681,정좌표
1165310,서광보말칼국수,제주특별자치도 서귀포시 안덕면 중산간서로 1882,33.28923,126.322,정좌표
1165870,양가네,제주특별자치도 서귀포시 안덕면 동광로 112,33.30622,126.3389,정좌표
1165918,차일락,"제주특별자치도 서귀포시 안덕면 사계로114번길 68-120, 1층",33.25041,126.3153,정좌표
1166462,레이지,제주특별자치도 서귀포시 안덕면 산방로 208,33.23644,126.3129,정좌표
1167146,스타월드 푸드,제주특별자치도 서귀포시 안덕면 녹차분재로 218,33.30376,126.3016,정좌표
1167166,도도,제주특별자치도 서귀포시 안덕면 대평감산로 47,33.23881,126.3657,정좌표
1168510,그림책카페노란우산,제주특별자치도 서귀포시 안덕면 녹차분재로 32,33.28852,126.3028,정좌표
1168512,세븐일레븐서귀포안덕사계점,제주특별자치도 서귀포시 안덕면 사계남로21번길 30-5,33.23126,126.2962,정좌표
1168532,곶자왈카페,제주특별자치도 서귀포시 안덕면 한창로 287,33.28517,126.3531,정좌표
1168546,씨유서귀덕수점,제주특별자치도 서귀포시 안덕면 덕수서로 7,33.25108,126.3037,정좌표
1168638,세븐일레븐서귀포상창점,제주특별자치도 서귀포시 안덕면 한창로 128,33.27411,126.3635,정좌표
1168658,산방산용머리휴게소,제주특별자치도 서귀포시 안덕면 사계남로216번길 24-9,33.23378,126.3115,정좌표
1168702,씨유제주안덕큰길점,제주특별자치도 서귀포시 안덕면 일주서로 1723,33.25128,126.3337,정좌표
1168722,원물휴게소,제주특별자치도 서귀포시 안덕면 동광로 257,33.31809,126.3458,정좌표
1168742,어떤바람,제주특별자치도 서귀포시 안덕면 산방로 374,33.23155,126.2969,정좌표
1168828,효재마트,제주특별자치도 서귀포시 안덕면 사계남로216번길 24-9,33.23378,126.3115,정좌표
1168848,지에스25안덕서광점,제주특별자치도 서귀포시 안덕면 중산간서로 1882,33.28923,126.322,정좌표
1168980,치치퐁,제주특별자치도 서귀포시 안덕면 사계남로216번길 24-62,33.23525,126.3134,정좌표
1168982,씨유제주화순점,제주특별자치도 서귀포시 안덕면 화순로 103,33.24648,126.3353,정좌표
1169054,써니하우스,제주특별자치도 서귀포시 안덕면 산방로 212,33.23643,126.3126,정좌표
1169438,도희네해장국,제주특별자치도 서귀포시 안덕면 중산간서로 1957,33.28987,126.3143,정좌표
1169876,씨유서귀평화로점,제주특별자치도 서귀포시 안덕면 한창로 273,33.28438,126.3536,정좌표
1169896,용머리편의점,제주특별자치도 서귀포시 안덕면 사계남로216번길 28,33.23379,126.3108,정좌표
1169990,더온,"제주특별자치도 서귀포시 안덕면 일주서로 1613-54, 1층",33.25143,126.3434,정좌표
1169992,씨유제주신화빌라스점,"제주특별자치도 서귀포시 안덕면 신화역사로304번길 139, 1층 (제주신화빌라스일본테라스)",33.29987,126.3226,정좌표
1170086,지에스(GS)25뉴제주동광점,제주특별자치도 서귀포시 안덕면 신화역사로 493,33.31032,126.3402,정좌표
1170106,씨유서귀감산리점,"제주특별자치도 서귀포시 안덕면 일주서로 1499, 1층",33.25945,126.3554,정좌표
1170126,씨유서귀동광로점,제주특별자치도 서귀포시 안덕면 동광로 257,33.31809,126.3458,정좌표
1170232,커피스케치,"제주특별자치도 서귀포시 안덕면 사계남로216번길 24-32, 2층",33.23337,126.3133,정좌표
1171300,카페사계리,"제주특별자치도 서귀포시 안덕면 사계로 112, 1,2층",33.24027,126.3003,정좌표
1171324,카페오션브릭,제주특별자치도 서귀포시 안덕면 산방로 75-5,33.24172,126.3246,정좌표
1171788,요망진브릭,"제주특별자치도 서귀포시 안덕면 산방로 75-3, A동 1층",33.24203,126.325,정좌표
1171790,청춘당꽈배기서부점,"제주특별자치도 서귀포시 안덕면 신화역사로 502, 1층",33.31002,126.3413,정좌표
1172064,데니스커피용머리해안점,"제주특별자치도 서귀포시 안덕면 사계남로216번길 31, 지음빌딩 1층 101호",33.23381,126.3099,정좌표
1172122,아꼬운상점,"제주특별자치도 서귀포시 안덕면 사계남로216번길 31, 1층 108호",33.23381,126.3099,정좌표
1172142,리치망고신화월드점,"제주특별자치도 서귀포시 안덕면 신화역사로304번길 38, 지하1층",33.30498,126.3164,정좌표
1172340,제주그림카페,"제주특별자치도 서귀포시 안덕면 녹차분재로 218, 제주항공우주박물관 전망대동 3층",33.30376,126.3016,정좌표
1173120,슬레이트룸커피,제주특별자치도 서귀포시 안덕면 덕수서로 169,33.26549,126.3045,정좌표
1173278,동광분교인디이스트,제주특별자치도 서귀포시 안덕면 동광로 107,33.3065,126.3376,정좌표
1173392,씨유서귀서광동리점,"제주특별자치도 서귀포시 안덕면 중산간서로 1817, 1층",33.28684,126.3282,정좌표
1173412,카페비아라테,"제주특별자치도 서귀포시 안덕면 중산간서로 2093, 1층",33.28539,126.3013,정좌표
1173620,사우스카페,"제주특별자치도 서귀포시 안덕면 화순로 191-43, 지하1,지상1층",33.24539,126.3259,정좌표
1188788,무민카페제주점,"제주특별자치도 서귀포시 안덕면 병악로 420, A동 2층",33.3068,126.3815,정좌표
1188926,감성농부,"제주특별자치도 서귀포시 안덕면 중산간서로 1809, 1층",33.28695,126.3291,인근좌표
1189188,허브마세리아,제주특별자치도 서귀포시 안덕면 동광로 222,33.31506,126.3444,정좌표
1189214,카페포도,"제주특별자치도 서귀포시 안덕면 산록남로 788, 포도뮤지엄",33.31927,126.386,정좌표
1189232,카페루시아(본점),제주특별자치도 서귀포시 안덕면 난드르로 49-17,33.23498,126.3637,인근좌표
1189790,와플칸플레이사계점,"제주특별자치도 서귀포시 안덕면 사계남로216번길 29, A동 1층 101호",33.23382,126.3104,정좌표
1189848,산방소녀,"제주특별자치도 서귀포시 안덕면 화순중앙로12번길 39, 상가동 103호 (서귀포 화순 코아루 푸르나임)",33.24917,126.3304,정좌표
1189924,터틀락,"제주특별자치도 서귀포시 안덕면 한창로110번길 44, 1층",33.27732,126.3635,정좌표
1190038,지에스25서귀신화로,"제주특별자치도 서귀포시 안덕면 신화역사로 185, 1층",33.30958,126.3077,정좌표
1190058,레드브라운,"제주특별자치도 서귀포시 안덕면 난드르로 49-50, 2층",33.23233,126.365,정좌표
1190442,까사보니따,"제주특별자치도 서귀포시 안덕면 광평로 34-56, 제2동",33.33411,126.3841,정좌표
1190444,버터행성706,"제주특별자치도 서귀포시 안덕면 서광동로25번길 13, 1층",33.28865,126.3299,정좌표
1190454,벼레별씨,"제주특별자치도 서귀포시 안덕면 사계남로 80, 1층",33.2267,126.2988,정좌표
1190480,세븐일레븐 덕수점,제주특별자치도 서귀포시 안덕면 덕수서로 91,33.2587,126.3042,정좌표
1190500,사계포구점세븐일레븐,"제주특별자치도 서귀포시 안덕면 사계남로153번길 2, 1층",33.22888,126.3065,정좌표
1190520,세븐일레븐산방로드점,"제주특별자치도 서귀포시 안덕면 사계북로 190, 1층",33.23761,126.307,정좌표
1190574,카페한라산아래첫마을,"제주특별자치도 서귀포시 안덕면 산록남로 675, A동 1층",33.32824,126.3796,정좌표
1191530,제주메밀,"제주특별자치도 서귀포시 안덕면 산록남로 675, B동 1층",33.32824,126.3796,정좌표
1192486,플래닝샐러드,"제주특별자치도 서귀포시 안덕면 중산간서로 1878, 1층",33.28945,126.3228,정좌표
1192496,씨유서귀서광로타리점,제주특별자치도 서귀포시 안덕면 화순서서로 492-9,33.28596,126.3031,정좌표
1192564,빽다방제주동광육거리점,"제주특별자치도 서귀포시 안덕면 신화역사로 502, 1층",33.31002,126.3413,정좌표
1192750,재클린디저트모슬포점,제주특별자치도 서귀포시 대정읍 최남단해안로 26-1,33.21815,126.252,정좌표
1192814,여기왕언제먹을래?,"제주특별자치도 서귀포시 대정읍 신영로 121, 2층",33.22281,126.2545,정좌표
1192922,성신,제주특별자치도 서귀포시 대정읍 하모항구로 22-9,33.21743,126.25,정좌표
1193732,모슬포스마일꽈배기,제주특별자치도 서귀포시 대정읍 하모상가로 40-2,33.22148,126.2532,정좌표
1193780,떡갈비공작소,"제주특별자치도 서귀포시 대정읍 형제해안로 258, 1층",33.21165,126.2919,정좌표
1193792,쉐프의중국집,제주특별자치도 서귀포시 대정읍 영어도시로 8,33.27313,126.2791,정좌표
1193928,거제아구찜,제주특별자치도 서귀포시 대정읍 신영로94번길 8,33.22004,126.253,정좌표
1194008,가파도해물짜장짬뽕,제주특별자치도 서귀포시 대정읍 가파로67번길 1,33.16581,126.2732,정좌표
1194732,신평올레,제주특별자치도 서귀포시 대정읍 신평로 11,33.26717,126.2592,정좌표
1194780,만선식당,제주특별자치도 서귀포시 대정읍 하모항구로 44,33.21787,126.2498,정좌표
1200668,어도,제주특별자치도 서귀포시 대정읍 최남단해안로29번길 10,33.21821,126.2529,정좌표
1200744,모슬포옛통,제주특별자치도 서귀포시 대정읍 신영로 99,33.22105,126.2533,정좌표
1200786,가파도올레길식당,제주특별자치도 서귀포시 대정읍 가파로67번길 95-2,33.17351,126.2693,정좌표
1200850,제주만덕회센터,제주특별자치도 서귀포시 대정읍 최남단해안로30번길 7,33.2178,126.2514,정좌표
1200886,못난이식당,"제주특별자치도 서귀포시 대정읍 동일하모로 237, 1층",33.22576,126.2566,정좌표
1200962,모슬포동태탕,제주특별자치도 서귀포시 대정읍 하모항구로10번길 14,33.21741,126.2514,정좌표
1201016,큰형제카페,제주특별자치도 서귀포시 대정읍 형제해안로 304,33.20791,126.291,정좌표
1201028,본죽제주영어마을점,"제주특별자치도 서귀포시 대정읍 글로벌에듀로 382, A110호",33.27996,126.2773,정좌표
1201104,현민갈비,제주특별자치도 서귀포시 대정읍 하모중앙로 63,33.22246,126.2524,정좌표
1201122,베이제주대정점,"제주특별자치도 서귀포시 대정읍 상모로273번길 14, 1층",33.22204,126.2602,정좌표
1201164,라움이즈,"제주특별자치도 서귀포시 대정읍 중산간서로 2242, 3층",33.28084,126.2889,정좌표
1201280,송악산엉클스화덕피자,제주특별자치도 서귀포시 대정읍 송악관광로 392,33.20892,126.2882,정좌표
1201476,엘림소반,"제주특별자치도 서귀포시 대정읍 추사로 288-6, 1층",33.26456,126.2602,정좌표
1201482,대정추어탕전문,제주특별자치도 서귀포시 대정읍 상모로 296,33.22324,126.2576,정좌표
1201484,놀부내장탕,제주특별자치도 서귀포시 대정읍 영서중로 21-5,33.2218,126.2558,정좌표
1201492,장보고 민물장어,제주특별자치도 서귀포시 대정읍 영서중로19번길 12,33.22233,126.2557,정좌표
1201502,네네치킨대정점,"제주특별자치도 서귀포시 대정읍 하모항구로6번길 27, 1층",33.21859,126.2515,정좌표
1201522,굽네치킨모슬포점,"제주특별자치도 서귀포시 대정읍 하모중앙로32번길 17, 1층",33.2253,126.2507,정좌표
1201542,카페멘도롱,제주특별자치도 서귀포시 대정읍 하모항구로 70,33.21955,126.2513,정좌표
1201562,최남단식당,"제주특별자치도 서귀포시 대정읍 최남단해안로 40, 1층",33.21693,126.2521,정좌표
1201582,대정역,"제주특별자치도 서귀포시 대정읍 신영로 114, 2층",33.22201,126.2544,정좌표
1201602,형제섬보말칼국수,"제주특별자치도 서귀포시 대정읍 형제해안로 258, 1층 101호",33.21165,126.2919,정좌표
1201622,앤모슬포점,제주특별자치도 서귀포시 대정읍 상모로 311-1,33.22267,126.256,정좌표
1201632,동성수산,제주특별자치도 서귀포시 대정읍 최남단해안로 46,33.21649,126.2521,정좌표
1201712,받거니주거니,제주특별자치도 서귀포시 대정읍 하모상가로 22,33.22153,126.2511,정좌표
1201714,구억불사나이,"제주특별자치도 서귀포시 대정읍 중산간서로 2275, 1층",33.28027,126.2857,정좌표
1201734,알뜨르,제주특별자치도 서귀포시 대정읍 송악관광로 203,33.21805,126.2716,정좌표
1201758,카우보이스테이크하우스,"제주특별자치도 서귀포시 대정읍 영어도시로 77-5, 1층",33.27848,126.2786,정좌표
1201778,팔팔야식,"제주특별자치도 서귀포시 대정읍 상모로 290, 2층",33.22342,126.2584,정좌표
1201782,돈장군,제주특별자치도 서귀포시 대정읍 하모항구로10번길 19,33.21799,126.251,정좌표
1201962,52카페,"제주특별자치도 서귀포시 대정읍 신영로36번길 35, 1층",33.21989,126.2471,정좌표
1201970,모메든식당모슬포점,제주특별자치도 서귀포시 대정읍 하모항구로 67-14,33.22028,126.2502,정좌표
1202022,카도돈카츠,"제주특별자치도 서귀포시 대정읍 형제해안로 322-1, 1층층",33.20683,126.2896,정좌표
1203942,집밥왕,제주특별자치도 서귀포시 대정읍 하모중앙로32번길 3,33.22524,126.2522,정좌표
1204074,멕시카나대정점,제주특별자치도 서귀포시 대정읍 상모대서로 10,33.2243,126.2561,정좌표
1204078,마라도별장식당,제주특별자치도 서귀포시 대정읍 마라로101번길 43,33.11835,126.2666,정좌표
1204382,피그농원,"제주특별자치도 서귀포시 대정읍 일주서로 2641, 1층",33.22899,126.248,정좌표
1204806,화담스시,"제주특별자치도 서귀포시 대정읍 에듀시티로 148, 1층 101호 (삼정 G.edu)",33.28545,126.2758,정좌표
1204838,보스코,"제주특별자치도 서귀포시 대정읍 동일하모로 217, 2층",33.22591,126.2544,정좌표
1215914,대정족발,제주특별자치도 서귀포시 대정읍 하모중앙로 46,33.22408,126.2522,정좌표
1215922,이듸,"제주특별자치도 서귀포시 대정읍 하모항구로 73, 1층",33.22002,126.2513,정좌표
1215932,신토불이2호점,제주특별자치도 서귀포시 대정읍 서삼중로 94,33.27116,126.2025,정좌표
1215938,자담치킨영어도시점,"제주특별자치도 서귀포시 대정읍 영어도시로 9, 101동 2호 (제주에듀골드힐)",33.27346,126.2785,정좌표
1215976,사계짬뽕,제주특별자치도 서귀포시 대정읍 상모로290번길 21,33.2235,126.2562,정좌표
1216006,가파도핫도그,제주특별자치도 서귀포시 대정읍 가파로67번길 95-7,33.17317,126.269,정좌표
1216098,건호네식당,제주특별자치도 서귀포시 대정읍 송악관광로411번길 2,33.20847,126.2906,정좌표
1216104,철가방을든해녀,제주특별자치도 서귀포시 대정읍 마라로 85,33.11648,126.2659,정좌표
1216248,제주인의밥상,"제주특별자치도 서귀포시 대정읍 하모항구로 52, 2층",33.21829,126.2504,정좌표
1216382,가파도별미식당,제주특별자치도 서귀포시 대정읍 영서중로 19,33.22145,126.2558,정좌표
1216426,불닭공장모슬포점,제주특별자치도 서귀포시 대정읍 신영로 54-1,33.22102,126.249,정좌표
1216492,진풍경,제주특별자치도 서귀포시 대정읍 형제해안로 302,33.20809,126.2911,정좌표
1216496,가파도수산,"제주특별자치도 서귀포시 대정읍 하모항구로6번길 22, 1층",33.21813,126.2518,정좌표
1216634,가파도스넥바,제주특별자치도 서귀포시 대정읍 가파로 265,33.17357,126.269,정좌표
1216732,오멍가멍쉬멍,제주특별자치도 서귀포시 대정읍 가파로67번길 13,33.16685,126.2726,정좌표
1216906,뱅인타코,제주특별자치도 서귀포시 대정읍 에듀시티로 74,33.29022,126.2832,정좌표
1217054,제주해물이야기,"제주특별자치도 서귀포시 대정읍 형제해안로 322, 2층",33.20678,126.29,정좌표
1217070,우리어멍,제주특별자치도 서귀포시 대정읍 송악관광로 375,33.20984,126.2868,정좌표
1217086,북경반점,제주특별자치도 서귀포시 대정읍 동일하모로 218,33.22546,126.2544,정좌표
1217923,코시롱화덕피자,제주특별자치도 서귀포시 대정읍 신영로 91-1,33.22101,126.2525,정좌표
1217953,롤앤스시,제주특별자치도 서귀포시 대정읍 노을해안로 126,33.24399,126.2157,정좌표
1218021,하츠돈카츠,제주특별자치도 서귀포시 대정읍 신영로 100,33.2209,126.2535,정좌표
1218035,고기덕후,제주특별자치도 서귀포시 대정읍 상모대서로66번길 9,33.22768,126.2606,정좌표
1218215,제이앤클로이,제주특별자치도 서귀포시 대정읍 무릉중앙로 203,33.25714,126.1888,정좌표
1220729,바람이불어오는곳,제주특별자치도 서귀포시 대정읍 상모대서로20번길 31-15,33.22598,126.2599,정좌표
1221453,어드래,"제주특별자치도 서귀포시 대정읍 최남단해안로125번길 5, 1층",33.21185,126.2571,정좌표
1221579,바빈스커피모슬포점,제주특별자치도 서귀포시 대정읍 최남단해안로 22,33.21859,126.2519,정좌표
1221609,노랑꼬리,제주특별자치도 서귀포시 대정읍 신영로72번길 3,33.22047,126.2508,정좌표
1221637,느영나영혼듸모영,제주특별자치도 서귀포시 대정읍 하모항구로6번길 24,33.21823,126.2518,정좌표
1222149,고향집,제주특별자치도 서귀포시 대정읍 하모중앙로 82,33.221,126.2518,정좌표
1222155,아라리,제주특별자치도 서귀포시 대정읍 신영로 101,33.22111,126.2534,정좌표
1222191,대정로스터리카페,제주특별자치도 서귀포시 대정읍 인성로25번길 5-1,33.24664,126.2833,정좌표
1222247,제2 덕승,"제주특별자치도 서귀포시 대정읍 최남단해안로30번길 4, 1층",33.21801,126.2518,정좌표
1222435,서바당횟집,제주특별자치도 서귀포시 대정읍 마라로 75,33.11731,126.2661,정좌표
1222553,산이물식당,제주특별자치도 서귀포시 대정읍 형제해안로 306,33.20779,126.291,정좌표
1222591,미풍해장국모슬포점,"제주특별자치도 서귀포시 대정읍 신영로36번길 35, 1층",33.21989,126.2471,정좌표
1222655,오븐에빠진닭모슬포점,제주특별자치도 서귀포시 대정읍 하모항구로10번길 8-3,33.21691,126.2516,정좌표
1222675,우리자매식당,제주특별자치도 서귀포시 대정읍 동일하모로 216,33.22558,126.2542,정좌표
1222679,강셰프의키친,제주특별자치도 서귀포시 대정읍 대한로 558,33.27618,126.244,정좌표
1223001,콜트레인,"제주특별자치도 서귀포시 대정읍 신영로 109, 2층",33.22181,126.2539,정좌표
1223009,날으는활어식당,제주특별자치도 서귀포시 대정읍 하모항구로6번길 26-1,33.21844,126.2517,정좌표
1223013,작은식당,"제주특별자치도 서귀포시 대정읍 신영로36번길 69-1, 1층",33.22052,126.2487,정좌표
1223015,굽네치킨영어도시점,"제주특별자치도 서귀포시 대정읍 에듀시티로 23, 상가105호 (해동그린앤골드)",33.29267,126.2865,정좌표
1223055,가온누리정식,"제주특별자치도 서귀포시 대정읍 일주서로 2591, 1층",33.22737,126.2534,정좌표
1223065,메옹이,"제주특별자치도 서귀포시 대정읍 하모항구로 75, 1층",33.22028,126.2515,정좌표
1223195,요망진밥상,제주특별자치도 서귀포시 대정읍 최남단해안로 505,33.20314,126.285,정좌표
1223283,서울순대,"제주특별자치도 서귀포시 대정읍 상모로 323-1, 1층",33.22215,126.2549,정좌표
1223297,홍성방,제주특별자치도 서귀포시 대정읍 하모항구로 76,33.2201,126.2517,정좌표
1224043,숙희네칼국수,제주특별자치도 서귀포시 대정읍 하모상가로 38,33.22145,126.2528,정좌표
1224047,소풍올레,제주특별자치도 서귀포시 대정읍 중산간서로 2816,33.27497,126.2408,정좌표
1224095,와토커피,제주특별자치도 서귀포시 대정읍 동일하모로 238,33.22547,126.2565,정좌표
1224239,대낭굴,"제주특별자치도 서귀포시 대정읍 최남단해안로 433, 1층",33.2013,126.2778,정좌표
1224251,환상의짜장,제주특별자치도 서귀포시 대정읍 마라로 45,33.11955,126.2672,정좌표
1224311,투썸플레이스제주모슬포점,"제주특별자치도 서귀포시 대정읍 최남단해안로 44, 1층",33.21667,126.2521,정좌표
1224337,삼남매,제주특별자치도 서귀포시 대정읍 하모중앙로 39,33.22474,126.2525,정좌표
1224473,정현식당,제주특별자치도 서귀포시 대정읍 하모상가로 37,33.2217,126.2528,정좌표
1224477,창꼬,제주특별자치도 서귀포시 대정읍 중산간서로 2598,33.26598,126.2596,정좌표
1224509,제주도부대,제주특별자치도 서귀포시 대정읍 신영로72번길 10,33.2199,126.2506,정좌표
1225097,탐라가든,제주특별자치도 서귀포시 대정읍 노을해안로 288,33.24881,126.2003,정좌표
1227137,동성식당,제주특별자치도 서귀포시 대정읍 신영로 92,33.22045,126.2527,정좌표
1227425,항구식당,제주특별자치도 서귀포시 대정읍 하모항구로 64,33.21918,126.2511,정좌표
1227681,우리마을,제주특별자치도 서귀포시 대정읍 하모중앙로15번길 1,33.22695,126.2529,정좌표
1227825,수다뜰,제주특별자치도 서귀포시 대정읍 최남단해안로29번길 22,33.21931,126.2528,정좌표
1228680,크래커스,제주특별자치도 서귀포시 대정읍 보성구억로126번길 34,33.26329,126.2797,정좌표
1229640,세븐일레븐서귀포신평점,제주특별자치도 서귀포시 대정읍 중산간서로 2634,33.26615,126.2573,정좌표
1229660,씨유서귀영락해안도로점,"제주특별자치도 서귀포시 대정읍 노을해안로 288, 1층",33.24881,126.2003,정좌표
1229756,세븐일레븐신영로점,제주특별자치도 서귀포시 대정읍 신영로 26,33.22336,126.2475,정좌표
1229774,던킨도너츠제주송악산점,제주특별자치도 서귀포시 대정읍 형제해안로 322,33.20678,126.29,정좌표
1229960,지에스25제주영어마을점,제주특별자치도 서귀포시 대정읍 에듀시티로 74,33.29022,126.2832,정좌표
1229980,흔한남자의커피이야기,제주특별자치도 서귀포시 대정읍 하모이삼로 59,33.22375,126.2539,정좌표
1229984,북마크하우스,제주특별자치도 서귀포시 대정읍 일과대수로11번길 16-8,33.23867,126.2315,정좌표
1230542,우리동네만화카페,"제주특별자치도 서귀포시 대정읍 상모로 309-2, 2층 201호 (건영빌딩)",33.22272,126.2564,정좌표
1230548,차뜨락,제주특별자치도 서귀포시 대정읍 신영로36번길 71,33.22081,126.249,정좌표
1230582,GS25 제주국제점,제주특별자치도 서귀포시 대정읍 글로벌에듀로145번길 40,33.29578,126.2896,정좌표
1230590,씨유 제주송악산점,제주특별자치도 서귀포시 대정읍 형제해안로 306,33.20779,126.291,정좌표
1230676,세븐일레븐대정주공점,제주특별자치도 서귀포시 대정읍 하모중앙로 5,33.22772,126.2529,정좌표
1230686,수다,제주특별자치도 서귀포시 대정읍 하모중앙로 6,33.22734,126.2521,정좌표
1230836,이반다방,"제주특별자치도 서귀포시 대정읍 신영로 98, 지1층",33.22064,126.2533,정좌표
1230840,씨유서귀대정태화점,"제주특별자치도 서귀포시 대정읍 하모중앙로 54, 1층",33.2234,126.2521,정좌표
1230860,씨유모슬포점,제주특별자치도 서귀포시 대정읍 상모대서로 25,33.22541,126.2567,정좌표
1230880,제주지에스구억점,제주특별자치도 서귀포시 대정읍 영어도시로 1,33.27262,126.2789,정좌표
1230898,사일리커피,제주특별자치도 서귀포시 대정읍 최남단해안로 412,33.20008,126.2763,정좌표
1231284,지에스25모슬포타운,"제주특별자치도 서귀포시 대정읍 신영로 104, 1층",33.22119,126.2539,정좌표
1231304,지에스25서귀송악산점,"제주특별자치도 서귀포시 대정읍 형제해안로 322-1, 지하1층",33.20683,126.2896,정좌표
1231452,모모토스트,"제주특별자치도 서귀포시 대정읍 신영로 132, 1층",33.22349,126.2553,정좌표
1231644,세븐카페,"제주특별자치도 서귀포시 대정읍 형제해안로 322-1, 2층",33.20683,126.2896,정좌표
1231896,루페이퍼,제주특별자치도 서귀포시 대정읍 서삼중로 217,33.2772,126.1917,정좌표
1231900,씨유제주대정주공점,"제주특별자치도 서귀포시 대정읍 하모중앙로 6, 1층 101호 (서귀포대정휴먼시아)",33.22734,126.2521,정좌표
1231920,애플망고1947,제주특별자치도 서귀포시 대정읍 중산간서로 2602,33.26582,126.2593,정좌표
1232272,세븐일레븐서귀포대정상모점,"제주특별자치도 서귀포시 대정읍 비행장로 35, 1층",33.21968,126.257,정좌표
1232292,헬로가파,"제주특별자치도 서귀포시 대정읍 가파로67번길 91, 1층",33.17315,126.2695,정좌표
1232452,그레이트커피,"제주특별자치도 서귀포시 대정읍 평화로 225, 1동 1층",33.26678,126.2954,정좌표
1232692,루핀,제주특별자치도 서귀포시 대정읍 형제해안로 272,33.21039,126.2913,정좌표
1232784,순미네대구반고개무침회,제주특별자치도 서귀포시 대정읍 영서중로13번길 9-8,33.22199,126.2545,정좌표
1232828,어나더페이지,"제주특별자치도 서귀포시 대정읍 동일하모로220번길 19, 제2동 1층",33.22399,126.2548,정좌표
1232840,몽슬슬라임카페,"제주특별자치도 서귀포시 대정읍 신영로 130, 1층",33.22327,126.255,정좌표
1232860,씨유서귀무릉점,"제주특별자치도 서귀포시 대정읍 무릉송당로 1, 슈퍼",33.27061,126.2031,정좌표
1232880,하늘꽃,제주특별자치도 서귀포시 대정읍 송악관광로 317,33.21163,126.2864,인근좌표
1233168,카페12제라,"제주특별자치도 서귀포시 대정읍 도원로 202, 1,2층",33.27761,126.1909,정좌표
1233488,와플칸대정점,"제주특별자치도 서귀포시 대정읍 상모대서로 3, 1층",33.22401,126.2553,정좌표
1233556,더벤티모슬포점,"제주특별자치도 서귀포시 대정읍 상모대서로 6, 1층",33.2241,126.2558,정좌표
1233606,1.5커피,"제주특별자치도 서귀포시 대정읍 글로벌에듀로 390, B동 1층 117호",33.28009,126.2765,정좌표
1233608,씨유대정동일리점,제주특별자치도 서귀포시 대정읍 동일하모로 112,33.2277,126.2438,정좌표
1233616,사우다드,"제주특별자치도 서귀포시 대정읍 하모이삼로51번길 28, 1층",33.2256,126.2535,정좌표
1234804,씨유서귀대정점,제주특별자치도 서귀포시 대정읍 영서중로 20,33.22117,126.2558,정좌표
1234824,봉수아피자모슬포점,"제주특별자치도 서귀포시 대정읍 하모중앙로 30, 1층",33.22557,126.2523,정좌표
1234838,카페하모,"제주특별자치도 서귀포시 대정읍 동일하모로149번길 4, 1층",33.22609,126.2477,정좌표
1234856,벨진밧,제주특별자치도 서귀포시 대정읍 보성구억로 220-1,33.27035,126.2788,정좌표
1235406,쏭카롱,제주특별자치도 서귀포시 대정읍 추사로 278-4,33.2642,126.2611,정좌표
1235418,흥부네장어갈비,제주특별자치도 제주시 구좌읍 세화8길 3,33.52167,126.8579,정좌표
1235498,에릭스에스프레소,"제주특별자치도 제주시 구좌읍 구좌로 77, 1층",33.52143,126.8589,정좌표
1235554,수니테이블,제주특별자치도 제주시 구좌읍 문주란로 33-1,33.519,126.8858,정좌표
1235688,예쁘게즐겁게,"제주특별자치도 제주시 구좌읍 월정3길 14, 1층",33.55267,126.7922,정좌표
1235768,안녕하샌,"제주특별자치도 제주시 구좌읍 월정3길 53-15, 2동",33.55637,126.7942,정좌표
1235878,호자,"제주특별자치도 제주시 구좌읍 세화8길 7, 1층",33.52146,126.8575,정좌표
1236184,한림칼국수제주세화점,"제주특별자치도 제주시 구좌읍 해녀박물관길 33-1, 1층",33.52373,126.8622,정좌표
1236444,방긋스낵,"제주특별자치도 제주시 구좌읍 행원로1길 32-5, 1층",33.55512,126.8004,정좌표
1236620,이스트포레스트,"제주특별자치도 제주시 구좌읍 종달로1길 26-1, 1층",33.49589,126.8988,정좌표
1237428,딱새우랑,"제주특별자치도 제주시 구좌읍 해맞이해안로 990, 1층",33.54306,126.8299,정좌표
1237682,비자향,"제주특별자치도 제주시 구좌읍 비자림로 2270, 1층",33.49595,126.8114,정좌표
1238706,돌담통닭,"제주특별자치도 제주시 구좌읍 해녀박물관길 33-1, 1층",33.52373,126.8622,정좌표
1238800,월정해변식당,"제주특별자치도 제주시 구좌읍 월정1길 70-12, 1층",33.55715,126.7942,정좌표
1238910,김녕에사는김영훈,"제주특별자치도 제주시 구좌읍 김녕로6길 2, 1층",33.55426,126.7463,정좌표
1239072,부엉이해장국,"제주특별자치도 제주시 구좌읍 세화1길 20-30, 1층",33.52646,126.856,정좌표
1239078,감귤달,"제주특별자치도 제주시 구좌읍 평대5길 31-29, 1층",33.5329,126.8403,정좌표
1239254,평대스낵,"제주특별자치도 제주시 구좌읍 대수길 7, 1층",33.53548,126.8392,정좌표
1242294,해녀의부엌,"제주특별자치도 제주시 구좌읍 해맞이해안로 2265, 1층",33.49779,126.9123,정좌표
1244974,봉자네상점,"제주특별자치도 제주시 구좌읍 월정7길 26, 1층",33.5534,126.7977,정좌표
1245212,봉쟈블루스,"제주특별자치도 제주시 구좌읍 해맞이해안로 1146-4, 1층",33.53656,126.8402,정좌표
1245222,돈구어,제주특별자치도 제주시 구좌읍 세화1길 15,33.52501,126.8541,정좌표
1245460,멕시카나치킨김녕점,제주특별자치도 제주시 구좌읍 김녕로 122,33.55478,126.751,정좌표
1245514,세화국수동네,제주특별자치도 제주시 구좌읍 구좌로 31,33.52363,126.8548,정좌표
1245518,이모24시해장국,"제주특별자치도 제주시 구좌읍 세화북길 1, 1층",33.52465,126.8547,정좌표
1245526,해녀촌식당,제주특별자치도 제주시 구좌읍 동복로 33,33.55367,126.7099,정좌표
1246456,제주동복해녀식당,제주특별자치도 제주시 구좌읍 동복로 5,33.55352,126.7069,정좌표
1246570,재연식당,제주특별자치도 제주시 구좌읍 세화3길 27-2,33.52619,126.856,정좌표
1247060,장원,제주특별자치도 제주시 구좌읍 세화1길 17,33.52537,126.8544,정좌표
1247140,종달해녀의집,제주특별자치도 제주시 구좌읍 해맞이해안로 2276,33.49714,126.9109,정좌표
1247242,상하이반점,제주특별자치도 제주시 구좌읍 세화5길 6-2,33.52356,126.8568,정좌표
1247260,홍성원,제주특별자치도 제주시 구좌읍 구좌로 33-9,33.52393,126.8549,정좌표
1247346,숙경식당,제주특별자치도 제주시 구좌읍 구좌로 33-7,33.52384,126.8548,정좌표
1247394,치저스,"제주특별자치도 제주시 구좌읍 비자림로 1785, 1층",33.46837,126.7739,정좌표
1252492,칠공팔공돼지국밥,제주특별자치도 제주시 구좌읍 구좌로 37,33.52368,126.8556,정좌표
1252496,난피자넌치킨,"제주특별자치도 제주시 구좌읍 세화2길 14, 1층",33.52242,126.8561,정좌표
1252500,밭담,"제주특별자치도 제주시 구좌읍 행원로5길 35-20, 1층",33.55668,126.8035,정좌표
1252520,라비미술관,"제주특별자치도 제주시 구좌읍 월정중길 13, 1층",33.55663,126.7913,정좌표
1252522,대영수산직영회센타,"제주특별자치도 제주시 구좌읍 구좌로 33-10, 제1동 1층",33.52395,126.8552,정좌표
1253258,일품순두부세화점,"제주특별자치도 제주시 구좌읍 해맞이해안로 1426, 1층",33.5252,126.8577,정좌표
1253436,동서네해장국세화점,"제주특별자치도 제주시 구좌읍 구좌로 91, 1층",33.52122,126.86,정좌표
1253496,월정크랩,"제주특별자치도 제주시 구좌읍 해맞이해안로 486, 2층 202호",33.55464,126.7987,정좌표
1253668,평대식당,"제주특별자치도 제주시 구좌읍 해맞이해안로 1162, 1층",33.5349,126.8396,정좌표
1253688,충청남도천안식당,"제주특별자치도 제주시 구좌읍 세화5길 20, 1층",33.52494,126.8568,정좌표
1253692,월정바다닭,"제주특별자치도 제주시 구좌읍 월정3길 38, 1층",33.55448,126.7937,정좌표
1253730,포앳홈,"제주특별자치도 제주시 구좌읍 세화5길 8, 1층 제1호",33.52401,126.8568,정좌표
1253818,버거스테이,"제주특별자치도 제주시 구좌읍 세화1길 20-18, 1층",33.52563,126.8555,정좌표
1254128,산도롱맨도롱,"제주특별자치도 제주시 구좌읍 해맞이해안로 2284, 1층",33.49689,126.9102,정좌표
1272096,제주달고둥,"제주특별자치도 제주시 구좌읍 세평항로 28, 1층",33.52573,126.8545,정좌표
1272102,말이,"제주특별자치도 제주시 구좌읍 세화1길 40, 1층",33.52661,126.8557,정좌표
1272194,머문,"제주특별자치도 제주시 구좌읍 해맞이해안로 460, 2층",33.55557,126.7958,정좌표
1273080,백수당,"제주특별자치도 제주시 구좌읍 월정1길 63, 1층",33.55653,126.7935,정좌표
1273128,팟타이만,"제주특별자치도 제주시 구좌읍 월정1길 61, 1층",33.55663,126.7934,정좌표
1273800,방모루,"제주특별자치도 제주시 구좌읍 김녕로21길 7, 나동 1층",33.55653,126.7554,정좌표
1274034,대왕해물짬뽕라면,"제주특별자치도 제주시 구좌읍 월정1길 70-6, 1층",33.5569,126.7944,정좌표
1274798,어떤날,"제주특별자치도 제주시 구좌읍 행원로 113, 1층",33.55369,126.8073,정좌표
1275370,석다원,"제주특별자치도 제주시 구좌읍 해맞이해안로 1752, 1층",33.52703,126.8891,정좌표
1276186,소곱에,"제주특별자치도 제주시 구좌읍 월정3길 53-9, 1층",33.55621,126.7943,정좌표
1276238,백록오름,"제주특별자치도 제주시 구좌읍 김녕로 102-1, 1층",33.55409,126.749,정좌표
1276786,또바기,제주특별자치도 제주시 구좌읍 동복로 34,33.55326,126.7098,정좌표
1277236,세화어머니손맛,제주특별자치도 제주시 구좌읍 세평항로 28,33.52573,126.8545,정좌표
1277244,르토아베이스먼트,"제주특별자치도 제주시 구좌읍 해맞이해안로 1226, 1~2층",33.53299,126.8443,정좌표
1277526,펠롱펠롱,"제주특별자치도 제주시 구좌읍 해맞이해안로 480-1, 110호",33.55451,126.7982,정좌표
1277610,갯동산,"제주특별자치도 제주시 구좌읍 평대7길 55, 2층",33.5328,126.8444,정좌표
1277730,월정리콧수염,"제주특별자치도 제주시 구좌읍 해맞이해안로 406, 1~2층",33.55925,126.7932,정좌표
1277912,월정항아리,"제주특별자치도 제주시 구좌읍 월정5길 38, 1층",33.55386,126.7952,정좌표
1278398,나루터,"제주특별자치도 제주시 구좌읍 김녕로 147, 1층",33.55553,126.7535,정좌표
1278686,말젯문,"제주특별자치도 제주시 구좌읍 계룡길 31, 1층",33.53842,126.8352,정좌표
1280230,멘도롱돈까스,"제주특별자치도 제주시 구좌읍 월정7길 58, 1층 제3호",33.55549,126.7959,정좌표
1280372,허벅식당,제주특별자치도 제주시 구좌읍 세평항로 26,33.52557,126.8544,정좌표
1280630,김녕장터국수,"제주특별자치도 제주시 구좌읍 김녕로21길 8, 1층",33.55669,126.7559,정좌표
1280680,쿠쿤,"제주특별자치도 제주시 구좌읍 평대2길 17, 1층",33.53276,126.8377,정좌표
1281112,톰톰카레,"제주특별자치도 제주시 구좌읍 해맞이해안로 1112, 1층",33.53729,126.8373,정좌표
1283896,제주도의푸른밤,제주특별자치도 제주시 구좌읍 월행남길 96-1,33.54405,126.7892,정좌표
1283956,로타리식당,"제주특별자치도 제주시 구좌읍 중산간동로 2266, 1층",33.47122,126.7847,정좌표
1284132,앞오름돼지촌,제주특별자치도 제주시 구좌읍 중산간동로 2258,33.47117,126.7837,정좌표
1284162,바다는김녕,"제주특별자치도 제주시 구좌읍 김녕로21길 25, 가동 1층",33.55806,126.7551,정좌표
1284242,소금바치순이네,제주특별자치도 제주시 구좌읍 해맞이해안로 2196,33.50367,126.9126,정좌표
1285792,하하호호,"제주특별자치도 제주시 구좌읍 해맞이해안로 514, 1층",33.55622,126.8012,정좌표
1291480,봉그랑김밥,"제주특별자치도 제주시 구좌읍 구좌로 34, 1층",33.52331,126.855,정좌표
1291508,연미정,제주특별자치도 제주시 구좌읍 세평항로 14,33.52463,126.8538,정좌표
1291892,라라라,"제주특별자치도 제주시 구좌읍 해맞이해안로 1430, 1층",33.52487,126.858,정좌표
1308068,걷다워크인제주,"제주특별자치도 제주시 구좌읍 해맞이해안로 594, 1층",33.5562,126.808,정좌표
1308104,샤이니,제주특별자치도 제주시 구좌읍 송당4길 7,33.47068,126.7843,정좌표
1308106,벼리,"제주특별자치도 제주시 구좌읍 면수1길 27, 1층",33.52379,126.8646,정좌표
1309994,장인의집월정점,"제주특별자치도 제주시 구좌읍 월정3길 60, 1, 2층",33.55586,126.7954,정좌표
1311250,닭다리먹고맴맴,"제주특별자치도 제주시 구좌읍 세화1길 34, 1층",33.52618,126.8553,정좌표
1311296,꽃돼지정식,제주특별자치도 제주시 구좌읍 종달논길 24,33.49425,126.9018,정좌표
1311332,가름물,"제주특별자치도 제주시 구좌읍 해맞이해안로 442, 1~2층",33.55695,126.7945,정좌표
1311820,떡하니,"제주특별자치도 제주시 구좌읍 행원로9길 9-5, 1층",33.55379,126.8078,정좌표
1312410,꺼멍스,"제주특별자치도 제주시 구좌읍 행원로1길 26, 1층",33.55423,126.8003,정좌표
1312876,양화정,"제주특별자치도 제주시 구좌읍 세평항로 45-9, 1층",33.52752,126.854,정좌표
1312918,하도핑크,"제주특별자치도 제주시 구좌읍 문주란로1길 43, 1층",33.52228,126.8834,정좌표
1313226,김녕회관,"제주특별자치도 제주시 구좌읍 김녕로 170, 1층",33.55589,126.7559,정좌표
1313334,사굴식당,제주특별자치도 제주시 구좌읍 만장굴길 34,33.54407,126.7746,정좌표
1313392,록록타르트,"제주특별자치도 제주시 구좌읍 하도서문길 41, 2층",33.52886,126.8789,정좌표
1313458,세븐일레븐제주세화점,"제주특별자치도 제주시 구좌읍 세화2길 11, 1층",33.52255,126.8561,정좌표
1313474,비몽,"제주특별자치도 제주시 구좌읍 비자림로 2279, 1층",33.49664,126.8119,정좌표
1313640,대수길다방,"제주특별자치도 제주시 구좌읍 대수길 24, 1층",33.5366,126.8382,정좌표
1313746,카페공작소,"제주특별자치도 제주시 구좌읍 해맞이해안로 1446, 1층",33.52464,126.8599,정좌표
1313872,스테이솔티,"제주특별자치도 제주시 구좌읍 해맞이해안로 480-1, 1~2층 101호",33.55451,126.7982,정좌표
1314114,월정리카페스쿠버스,"제주특별자치도 제주시 구좌읍 월정3길 14, 1동 2층",33.55267,126.7922,정좌표
1314238,모알보알,제주특별자치도 제주시 구좌읍 구좌해안로 141,33.55956,126.728,정좌표
1315186,세븐일레븐제주송당마을점,"제주특별자치도 제주시 구좌읍 중산간동로 2231, 1층",33.47213,126.7815,정좌표
1315232,마커스카페,"제주특별자치도 제주시 구좌읍 행원로1길 32, A동",33.55494,126.7999,정좌표
1315252,하도리안,"제주특별자치도 제주시 구좌읍 해맞이해안로 1788, A동 1층",33.52602,126.8927,정좌표
1315272,미와,"제주특별자치도 제주시 구좌읍 구좌로 51-1, 2층",33.5232,126.8571,정좌표
1315292,도도톳김밥,제주특별자치도 제주시 구좌읍 해맞이해안로 1460,33.5243,126.8613,정좌표
1315412,록록,"제주특별자치도 제주시 구좌읍 하도서문길 41, 1층",33.52886,126.8789,정좌표
1315432,속솜,"제주특별자치도 제주시 구좌읍 해맞이해안로 1655, 1~2층",33.5286,126.8798,정좌표
1315564,프랭크서울,"제주특별자치도 제주시 구좌읍 세화10길 1, 1층",33.52084,126.8588,정좌표
1315584,예원,"제주특별자치도 제주시 구좌읍 비자림로 2542, 1층",33.51351,126.8306,정좌표
1317484,같이살자지구카페,"제주특별자치도 제주시 구좌읍 중산간동로 2264, 2층",33.47129,126.7844,정좌표
1317512,카페더크라운,"제주특별자치도 제주시 구좌읍 해맞이해안로 622, 2층",33.55663,126.811,정좌표
1317682,제파,"제주특별자치도 제주시 구좌읍 월정3길 40, 1층",33.55458,126.794,정좌표
1317824,풍림다방송당점,"제주특별자치도 제주시 구좌읍 중산간동로 2267-4, 2층",33.47187,126.7857,정좌표
1320396,월정리앤카멜리아,"제주특별자치도 제주시 구좌읍 월정1길 46-2, 1층",33.55534,126.7922,정좌표
1320408,뿌리와열매,"제주특별자치도 제주시 구좌읍 중산간동로 2255, 1층",33.47181,126.7839,정좌표
1320502,듬뿍토스트,"제주특별자치도 제주시 구좌읍 세평항로 13, 제1동 1층",33.52459,126.8529,정좌표
1320520,지금의우리,"제주특별자치도 제주시 구좌읍 중산간동로 2260, 1층",33.47128,126.7842,정좌표
1320628,제주착한닭강정,"제주특별자치도 제주시 구좌읍 세평항로 13, 제1동 1층",33.52459,126.8529,정좌표
1320736,세화인,"제주특별자치도 제주시 구좌읍 세화3길 27-2, 1층",33.52619,126.856,정좌표
1320780,구씨커피,"제주특별자치도 제주시 구좌읍 구좌로 21, 1층",33.52363,126.854,정좌표
1320870,해더,"제주특별자치도 제주시 구좌읍 한동로6길 8, 에이동",33.53398,126.8199,정좌표
1320912,제주소녀,"제주특별자치도 제주시 구좌읍 비자숲길 21, 1층",33.49462,126.8116,정좌표
1320932,드파티오,"제주특별자치도 제주시 구좌읍 행원로1길 32-1, 지하1층",33.55498,126.8001,정좌표
1320952,카페봄봄김녕점,"제주특별자치도 제주시 구좌읍 김녕로15길 11, 1층",33.55598,126.7526,정좌표
1320972,제주이야기송당점,"제주특별자치도 제주시 구좌읍 중산간동로 2240, 2층",33.47158,126.7822,정좌표
1320992,인터포레스트,"제주특별자치도 제주시 구좌읍 비자림로 1655, 1~2층",33.45511,126.7727,인근좌표
1321012,바보나무사진카페,"제주특별자치도 제주시 구좌읍 해맞이해안로 1800, 1층",33.5252,126.8935,정좌표
1321022,이층다방,"제주특별자치도 제주시 구좌읍 김녕로4길 30, 2층 4호",33.55264,126.744,정좌표
1321042,레미제라블,"제주특별자치도 제주시 구좌읍 하도13길 25, 1층",33.51022,126.8892,정좌표
1321062,세모,"제주특별자치도 제주시 구좌읍 행원로 121, 1층",33.55308,126.8082,정좌표
1321082,스을,"제주특별자치도 제주시 구좌읍 덕행로 207, 2층",33.53039,126.793,정좌표
1321102,지에스25송당사거리점,제주특별자치도 제주시 구좌읍 비자림로 1814,33.47032,126.7761,정좌표
1321122,반올림피자종달리점,"제주특별자치도 제주시 구좌읍 일주동로 3655, 2층",33.49851,126.8924,정좌표
1321142,슬슬슬로우,"제주특별자치도 제주시 구좌읍 행원로7길 23-8, 1층",33.55606,126.8068,정좌표
1321302,배목수집,제주특별자치도 제주시 구좌읍 세송로 43,33.51471,126.859,정좌표
1321322,씨유제주동복점,"제주특별자치도 제주시 구좌읍 동복로 34, 1층",33.55326,126.7098,정좌표
1321342,주말별장,"제주특별자치도 제주시 구좌읍 월덕로 535, 1층",33.50359,126.7718,정좌표
1321346,이드레,"제주특별자치도 제주시 구좌읍 해맞이해안로 402, 1층",33.55929,126.7927,정좌표
1322244,시간을담다,"제주특별자치도 제주시 구좌읍 평대7길 20-1, 1층",33.52998,126.8438,정좌표
1322322,의령소바제주구좌점,"제주특별자치도 제주시 구좌읍 일주동로 3653-1, 1층",33.4987,126.8924,정좌표
1322334,씨유제주세화리점,"제주특별자치도 제주시 구좌읍 일주동로 3151, 가동 1층",33.52137,126.8559,정좌표
1322338,마블러스하도,"제주특별자치도 제주시 구좌읍 해맞이해안로 1651, 109동 1~2층",33.52907,126.8798,정좌표
1322350,토끼썸,"제주특별자치도 제주시 구좌읍 해맞이해안로 1860, 1층",33.52175,126.8986,정좌표
1323086,차한모금,"제주특별자치도 제주시 구좌읍 해맞이해안로 1108, 1동 1층",33.53774,126.8372,정좌표
1323130,송당의아침,제주특별자치도 제주시 구좌읍 중산간동로 2254,33.47161,126.7835,정좌표
1323358,카페편린,제주특별자치도 제주시 구좌읍 상도로 490,33.4757,126.8428,정좌표
1323432,피노엔키오,"제주특별자치도 제주시 구좌읍 일주동로 1853, 1층",33.55637,126.7294,정좌표
1323504,시시소소,"제주특별자치도 제주시 구좌읍 중산간동로 2247, 1층",33.47211,126.7828,정좌표
1323586,미남미녀,"제주특별자치도 제주시 구좌읍 종달로1길 102, 1층",33.49533,126.9061,정좌표
1324222,맛있는참세상,"제주특별자치도 제주시 한경면 용금로 496, 1층",33.33628,126.2327,정좌표
1324878,장어창고,"제주특별자치도 제주시 한경면 두신로 146, 1층",33.35517,126.1867,정좌표
1325038,평산제면소,"제주특별자치도 제주시 한경면 두신로 42, 1층",33.34681,126.1829,정좌표
1325158,환상숲곶자왈공원,"제주특별자치도 제주시 한경면 녹차분재로 594-1, 1층",33.32257,126.2632,정좌표
1331078,쟁반정식연화,"제주특별자치도 제주시 한경면 중산간서로 3678, 1층",33.33279,126.2566,정좌표
1331098,대구뽈찜앤코다리찜전문점,"제주특별자치도 제주시 한경면 녹차분재로 624, 1층",33.32427,126.2607,정좌표
1331112,레드향샤브샤브,"제주특별자치도 제주시 한경면 녹차분재로 564, 1층",33.32072,126.2655,정좌표
1331126,달래식당,"제주특별자치도 제주시 한경면 노을해안로 1167, 제1동 1층",33.30878,126.1656,정좌표
1331534,보보세자매김밥,제주특별자치도 제주시 한경면 고산로 4,33.30138,126.18,정좌표
1331554,만덕식당,제주특별자치도 제주시 한경면 노을해안로 1168,33.30851,126.1653,정좌표
1332178,강스피자,"제주특별자치도 제주시 한경면 고락로 13, 1층",33.30354,126.1809,정좌표
1332200,종배네,"제주특별자치도 제주시 한경면 고락로 2, 1층",33.30333,126.1798,정좌표
1332486,스모프치킨고산점,"제주특별자치도 제주시 한경면 고락로 13-1, 1층",33.30353,126.181,정좌표
1332516,고마루,제주특별자치도 제주시 한경면 고산로1길 1,33.30341,126.1793,정좌표
1332532,육거리,제주특별자치도 제주시 한경면 용고로 85,33.30098,126.1794,정좌표
1332552,만인정,제주특별자치도 제주시 한경면 두신로 58,33.34821,126.1828,정좌표
1332568,사랑식당,제주특별자치도 제주시 한경면 두신로 46,33.34715,126.183,정좌표
1332634,수월봉별난횟집,제주특별자치도 제주시 한경면 노을해안로 1150,33.30861,126.1644,정좌표
1332802,청수미방,"제주특별자치도 제주시 한경면 낙수로 271-18, 1층",33.32281,126.241,정좌표
1332874,카페하리,"제주특별자치도 제주시 한경면 녹차분재로 546, 1층",33.32,126.2671,정좌표
1333018,제주어부횟집,제주특별자치도 제주시 한경면 칠전로 140,33.29765,126.1943,정좌표
1333036,쪼끄뜨레,"제주특별자치도 제주시 한경면 두신로 85, B동 1층",33.35062,126.1833,정좌표
1333258,신가네짬뽕,"제주특별자치도 제주시 한경면 한경해안로 294-16, 1층",33.33262,126.1659,정좌표
1333312,제주모퉁이돌,"제주특별자치도 제주시 한경면 신한로 12, 1층",33.3497,126.1842,정좌표
1333332,모퉁이작은집,"제주특별자치도 제주시 한경면 일주서로 4530, 3동 1층",33.36432,126.1999,정좌표
1333388,파벤토,"제주특별자치도 제주시 한경면 한경해안로 474-20, 1층",33.34024,126.1724,정좌표
1333496,뉴저지김밥천국,"제주특별자치도 제주시 한경면 중산간서로 3678, 1층",33.33279,126.2566,정좌표
1333594,웃뜨르우리돼지,"제주특별자치도 제주시 한경면 연명로 2, 1층 제2호",33.29329,126.2333,정좌표
1333802,디디씨치킨,제주특별자치도 제주시 한경면 두신로 81,33.35027,126.1831,정좌표
1333874,넝쿨담쟁이,제주특별자치도 제주시 한경면 고산로 31,33.30388,126.1794,정좌표
1333878,엄블랑,"제주특별자치도 제주시 한경면 칠전로 148, 1층",33.29742,126.195,정좌표
1337550,반디왓,"제주특별자치도 제주시 한경면 청수동7길 51, 1층",33.30591,126.2624,정좌표
1337554,담담,제주특별자치도 제주시 한경면 저지12길 60,33.33903,126.2624,정좌표
1337574,씨유제주신창점,제주특별자치도 제주시 한경면 두신로 80,33.34995,126.1832,정좌표
1337594,울트라마린,"제주특별자치도 제주시 한경면 일주서로 4611, 지하1층",33.36943,126.2061,정좌표
1338454,내가여기서이걸할줄몰랐다,"제주특별자치도 제주시 한경면 한경해안로 565, 1층",33.34608,126.1793,정좌표
1338556,그해여름,"제주특별자치도 제주시 한경면 홍수암로 568, 1층",33.33702,126.228,정좌표
1338620,지에스25제주반딧불점,제주특별자치도 제주시 한경면 녹차분재로 506,33.31737,126.2701,정좌표
1338640,슈가램프,"제주특별자치도 제주시 한경면 고산로 65-5, 다동 1층",33.3066,126.1775,정좌표
1338646,차담제,"제주특별자치도 제주시 한경면 고산로 28, 2층",33.30368,126.1796,정좌표
1338652,까사제주928,"제주특별자치도 제주시 한경면 녹차분재로 571, 2층",33.32076,126.2644,정좌표
1338654,단디다방,"제주특별자치도 제주시 한경면 녹차분재로 571, 1층",33.32076,126.2644,정좌표
1338666,초록지붕,"제주특별자치도 제주시 한경면 연명로 509, 나동 1층",33.31461,126.2645,정좌표
1338808,제주한경점세븐일레븐,"제주특별자치도 제주시 한경면 중산간서로 3613, 1층",33.32794,126.2532,정좌표
1338816,카페판포리,"제주특별자치도 제주시 한경면 판포4길 27, 1층",33.36287,126.2023,정좌표
1338928,백년가약,"제주특별자치도 제주시 한경면 낙수로 41, 1층",33.33247,126.2252,정좌표
1338938,작업공간작작,제주특별자치도 제주시 한경면 두신로 63,33.34874,126.1824,정좌표
1338940,제피로스,"제주특별자치도 제주시 한경면 한경해안로 93-32, 1층 제2호",33.31744,126.1691,정좌표
1339012,우드앤카페,"제주특별자치도 제주시 한경면 일주서로 4264, 1~2층",33.34624,126.1856,정좌표
1339022,초록선인장,"제주특별자치도 제주시 한경면 녹차분재로 603, 1층",33.32279,126.2619,정좌표
1339042,세븐일레븐제주저지점,"제주특별자치도 제주시 한경면 중산간서로 3703, 가동 1층",33.33506,126.2563,정좌표
1339062,캣빵,"제주특별자치도 제주시 한경면 중산간서로 3695, 1동 1층",33.33442,126.256,정좌표
1339182,몽땅,"제주특별자치도 제주시 한경면 연명로 385, 1층",33.30583,126.2583,정좌표
1344298,메리오가닉,"제주특별자치도 제주시 한경면 두신로 73, 1층",33.34973,126.1827,정좌표
1344302,로보로봇,"제주특별자치도 제주시 한경면 한원남길 1, 1층",33.33515,126.1974,정좌표
1344316,빛나는여름,"제주특별자치도 제주시 한경면 한원북길 24, 1층",33.33632,126.1948,정좌표
1344328,빈2020,제주특별자치도 제주시 한경면 한경해안로 120,33.32117,126.1673,정좌표
1344462,아녹,"제주특별자치도 제주시 한경면 낙조길 22, 1층",33.32327,126.2243,정좌표
1344666,뽈살집,제주특별자치도 제주시 한림읍 한림상로 194 (1층),33.41566,126.2692,정좌표
1344786,바다이야기,"제주특별자치도 제주시 한림읍 한림로 491, 1층",33.40333,126.2519,정좌표
1436178,고스트미락,"제주특별자치도 제주시 한림읍 한림해안로 514-29, 1층",33.43336,126.2757,정좌표
1436874,비바리킴,"제주특별자치도 제주시 한림읍 한림해안로 621, 2층",33.44246,126.2786,정좌표
1437198,일품순두부한림점,"제주특별자치도 제주시 한림읍 한림상로 237, 1층",33.41925,126.2674,정좌표
1437314,옹포분식,"제주특별자치도 제주시 한림읍 월계로 15, 1층",33.40344,126.2549,정좌표
1437316,황금손가락한림점,"제주특별자치도 제주시 한림읍 한림해안로 275, 1층",33.42586,126.264,정좌표
1437420,제주도모퉁이스낵연회장,"제주특별자치도 제주시 한림읍 일주서로 5673, 1층",33.43358,126.2766,정좌표
1437450,남궁누들앤카페,"제주특별자치도 제주시 한림읍 한림중앙로 46, 2층",33.4106,126.2651,정좌표
1437590,한림피그농원,"제주특별자치도 제주시 한림읍 한수풀로2길 31, 1층",33.41736,126.273,정좌표
1437618,오늘도치킨과맥주가좋다,"제주특별자치도 제주시 한림읍 사가길 22, 1층",33.41553,126.2623,정좌표
1437620,부원뚝배기,"제주특별자치도 제주시 한림읍 일주서로 5608, 지하1층",33.42758,126.2776,정좌표
1437882,옹포83,"제주특별자치도 제주시 한림읍 옹포8길 3, 1층",33.40472,126.255,정좌표
1438156,미번베트남쌀국수,"제주특별자치도 제주시 한림읍 한림로5길 23, 1층 1호",33.41473,126.2614,정좌표
1438162,콩창고,"제주특별자치도 제주시 한림읍 명월성로 55, 1층",33.40394,126.2638,정좌표
1438210,동백키친,"제주특별자치도 제주시 한림읍 수원7길 42, 1층",33.42859,126.2672,정좌표
1438602,30년할매닭발 한림점,"제주특별자치도 제주시 한림읍 한림로 690, 1층",33.41632,126.2652,정좌표
1438634,용궁반점,"제주특별자치도 제주시 한림읍 한림남2길 27, 1층 105호 (새한림맨션)",33.4113,126.2623,정좌표
1438650,월령작야,"제주특별자치도 제주시 한림읍 월령3길 39-5, 지하1층",33.37942,126.2164,정좌표
1438838,제주밥상살레,"제주특별자치도 제주시 한림읍 금능4길 14-1, 1층",33.38761,126.2303,정좌표
1438882,오빠네해물라면,"제주특별자치도 제주시 한림읍 한림로 475, 지하1층",33.40198,126.251,정좌표
1439910,빛남,"제주특별자치도 제주시 한림읍 한림로 485-4, 1층",33.40303,126.2514,정좌표
1440198,런던다락,"제주특별자치도 제주시 한림읍 한림로 335, D동 1층",33.39358,126.2402,정좌표
1440288,협재술집김씨술생활,"제주특별자치도 제주시 한림읍 한림로 406, 2층",33.39797,126.2455,정좌표
1440738,스토브온제주,"제주특별자치도 제주시 한림읍 중산간서로 4062, 나동 1층",33.35803,126.2716,정좌표
1440880,협재1번가,"제주특별자치도 제주시 한림읍 협재1길 1, 1층",33.39561,126.2422,정좌표
1441072,싱싱잇,"제주특별자치도 제주시 한림읍 한림로 181, 1층",33.3864,126.2272,정좌표
1441600,협재시흥소곱창구이,"제주특별자치도 제주시 한림읍 한림로 331, 1층",33.39338,126.2401,정좌표
1441652,땅스부대찌개한림점,"제주특별자치도 제주시 한림읍 한림중앙로 40-1, 1층",33.41112,126.2652,정좌표
1441708,금능제면소,"제주특별자치도 제주시 한림읍 금능길 47, 제2동 1층",33.38816,126.2284,정좌표
1442402,말리가,"제주특별자치도 제주시 한림읍 협재로 124, 1층",33.38714,126.249,정좌표
1442528,명품김치찌개,"제주특별자치도 제주시 한림읍 한림중앙로 75, 1층",33.40829,126.2668,정좌표
1442586,별세계,"제주특별자치도 제주시 한림읍 한림상로 67, 1~2층",33.40733,126.2615,정좌표
1442590,미풍해장국한림점,"제주특별자치도 제주시 한림읍 한림상로 207, 1층",33.41688,126.2684,정좌표
1442650,돈내코순두부한림점,"제주특별자치도 제주시 한림읍 한상로 72, 1층",33.4097,126.2825,정좌표
1442708,흑돼지촌,"제주특별자치도 제주시 한림읍 한림상로 62, 1층",33.40657,126.2615,정좌표
1443174,남문숯불바베큐앤치킨한림점,"제주특별자치도 제주시 한림읍 한림로12길 1, 2층",33.41523,126.2652,정좌표
1443196,화선식당,제주특별자치도 제주시 한림읍 강구로 1,33.41206,126.2689,정좌표
1443208,명산꿩농장가든,제주특별자치도 제주시 한림읍 명상로 8-3,33.37489,126.2844,정좌표
1443224,호남식당,"제주특별자치도 제주시 한림읍 사가길 21, 1층",33.41538,126.2623,정좌표
1443304,족발좌선생,제주특별자치도 제주시 한림읍 사가길 11-1,33.41506,126.2631,정좌표
1443346,향토마을,제주특별자치도 제주시 한림읍 금악로1길 2,33.35905,126.2965,정좌표
1443352,금능자갈,제주특별자치도 제주시 한림읍 한림로 228,33.38692,126.232,정좌표
1443452,우리집,제주특별자치도 제주시 한림읍 일주서로 5777,33.4406,126.284,정좌표
1445207,삼일식당,제주특별자치도 제주시 한림읍 한림상로 92,33.40862,126.2635,정좌표
1446407,한림일품,제주특별자치도 제주시 한림읍 한림해안로 154,33.41568,126.2628,정좌표
1446545,우연,제주특별자치도 제주시 한림읍 사가동길 17,33.41561,126.2629,정좌표
1447733,새한라회관,제주특별자치도 제주시 한림읍 문교길 8,33.41142,126.2645,정좌표
1447757,봄여름가을겨울,제주특별자치도 제주시 한림읍 한림상로 81,33.40821,126.2624,정좌표
1447771,주객전도,제주특별자치도 제주시 한림읍 한림남2길 2,33.4129,126.2644,정좌표
1447775,미진식당,제주특별자치도 제주시 한림읍 한림해안로 145-1,33.41582,126.2617,정좌표
1447845,야자수식당,제주특별자치도 제주시 한림읍 한림로 300,33.3882,126.2402,정좌표
1447883,에니스케리,제주특별자치도 제주시 한림읍 한림로 361,33.3954,126.2421,정좌표
1447949,만강홍,제주특별자치도 제주시 한림읍 한림로 634,33.41292,126.2616,정좌표
1447979,옹포별장가든,제주특별자치도 제주시 한림읍 한림상로 24,33.405,126.2579,정좌표
1448459,도원춘,"제주특별자치도 제주시 한림읍 명랑로 15, 1층",33.41471,126.2666,정좌표
1448543,보영반점,제주특별자치도 제주시 한림읍 한림로 692-1,33.41657,126.2651,정좌표
1448697,전망대횟집,제주특별자치도 제주시 한림읍 한림해안로 229-14,33.42306,126.261,정좌표
1448897,착한가게,제주특별자치도 제주시 한림읍 한림로3길 8-7,33.41381,126.2608,정좌표
1448917,만나식당,제주특별자치도 제주시 한림읍 한림중앙로 6-1,33.41412,126.2645,정좌표
1448941,황부자,제주특별자치도 제주시 한림읍 한림해안로 118,33.4136,126.26,정좌표
1448947,앤드유,"제주특별자치도 제주시 한림읍 한림로 518, 1층",33.40463,126.2542,정좌표
1449603,제주정직한돈협재한림점,"제주특별자치도 제주시 한림읍 일주서로 5083, 2층",33.38911,126.2503,정좌표
1451613,담다,"제주특별자치도 제주시 한림읍 협재4길 8, 1층",33.3939,126.2412,정좌표
1464765,옹포바다이야기,"제주특별자치도 제주시 한림읍 한림로 491, 2층",33.40333,126.2519,정좌표
1464841,료리야,"제주특별자치도 제주시 한림읍 한림해안로 456, 1층",33.43666,126.2701,정좌표
1465057,우주선,"제주특별자치도 제주시 한림읍 금능남로 251-1, 1층",33.36743,126.2453,정좌표
1465661,달다,"제주특별자치도 제주시 한림읍 한림로19길 7, 1층",33.41709,126.264,정좌표
1465667,면도롱,"제주특별자치도 제주시 한림읍 한림로 475, 2층",33.40198,126.251,정좌표
1465793,이가집,"제주특별자치도 제주시 한림읍 한림해안로 7, 1층",33.40579,126.255,정좌표
1465813,이어돈가,"제주특별자치도 제주시 한림읍 한림로 400-2, 1층",33.3975,126.2453,정좌표
1466465,금능샌드,"제주특별자치도 제주시 한림읍 금능길 89, 1층",33.38925,126.2325,정좌표
1466983,해녀세자매,제주특별자치도 제주시 한림읍 한림로3길 10-11,33.41398,126.2606,정좌표
1467851,버거307협재점,"제주특별자치도 제주시 한림읍 한림로 330, 블루스프링호텔상가 1층",33.39296,126.2402,정좌표
1468033,미란다,"제주특별자치도 제주시 한림읍 사가동길 18, 1층",33.41578,126.2632,정좌표
1468051,붐바펍94번가,"제주특별자치도 제주시 한림읍 협재2길 10-1, 2층",33.39228,126.2411,정좌표
1468207,소랑호게,"제주특별자치도 제주시 한림읍 한림로 414-1, 1층",33.39857,126.2464,정좌표
1468305,협재온다정,"제주특별자치도 제주시 한림읍 한림로 381-4, 1층",33.39699,126.2435,정좌표
1468775,썬셋비치,"제주특별자치도 제주시 한림읍 한림로 361, 지하1층",33.3954,126.2421,정좌표
1468849,금능포구횟집,제주특별자치도 제주시 한림읍 금능9길 27,33.39031,126.2286,정좌표
1468973,할리스커피협재해수욕장점,"제주특별자치도 제주시 한림읍 한림로 330, 1~2층",33.39296,126.2402,정좌표
1469137,한치앞도모를바다,"제주특별자치도 제주시 한림읍 협재6길 9, 1층",33.3946,126.2424,정좌표
1469363,드링콩,제주특별자치도 제주시 한림읍 한림로 158,33.38574,126.2248,정좌표
1469441,샤브왕,제주특별자치도 제주시 한림읍 일주서로 5167,33.39472,126.257,정좌표