Column1,name,address,Latitude,Longitude,상태
612047,외도아나고,"제주특별자치도 제주시 우정로4길 3-5, 1층 (외도일동)",33.4917078,126.4301825,정좌표
612049,정실국수,"제주특별자치도 제주시 아연로 208, 1층 (오라이동)",33.467786,126.51025,정좌표
612053,미쁨김밥,"제주특별자치도 제주시 삼봉로 113-2, 1층 (도련일동)",33.5113586,126.5894034,정좌표
612063,제주공간,"제주특별자치도 제주시 노연로 34, 2층 (노형동)",33.4858348,126.4838096,정좌표
612071,시쟈덕,"제주특별자치도 제주시 신광로8길 20, 1층 (연동)",33.4870576,126.488189,정좌표
612077,우돈숯불,"제주특별자치도 제주시 다랑곶길 27, 1층 105호 (노형동, 대성빌라)",33.4884754,126.4806433,정좌표
612087,부가네얼큰이첨단점,"제주특별자치도 제주시 첨단로 199, 지하1층 B101호 (영평동)",33.4564727,126.5714479,정좌표
612097,함덕골오리회전구이,"제주특별자치도 제주시 선사로8길 18, 1층 (삼양일동)",33.5257845,126.58773,정좌표
612101,24시제주해장국,"제주특별자치도 제주시 삼무로 45, 1층 (연동)",33.490111,126.4916479,정좌표
612111,용범이네인계동껍데기노형점,"제주특별자치도 제주시 원노형로 54, 1층 (노형동)",33.4838119,126.4845625,정좌표
612121,지금보고싶다제주시청점,"제주특별자치도 제주시 광양8길 1-2, 1층 (이도이동)",33.499771,126.5291961,정좌표
612122,쿠웨이트삼화점,"제주특별자치도 제주시 화삼로 7, 티엠빌딩 107호 (화북일동)",33.5143764,126.5791822,정좌표
612132,인생야채곱창,"제주특별자치도 제주시 신설로 55, 지하1층 B105호 (이도이동, 한일베라체아파트)",33.4929335,126.5473827,정좌표
612142,명륜진사갈비연동점,"제주특별자치도 제주시 원노형로 54, 2층 (노형동)",33.4838119,126.4845625,정좌표
612152,폴스키친,"제주특별자치도 제주시 조천읍 신북로 138, 1층",33.5352183,126.6279621,정좌표
612172,빈대떡신사,"제주특별자치도 제주시 다랑곶4길 17, 1층 101호 (노형동, 별두빌라)",33.4881914,126.4800511,정좌표
612176,만배식당,"제주특별자치도 제주시 도두항길 4-4, 1층 (도두일동)",33.5057567,126.4675531,정좌표
612184,제주의온도,"제주특별자치도 제주시 선덕로5길 20-1, 1층 (연동)",33.4878935,126.4997755,정좌표
612256,24시얼큰시원생고기김치찌개아라점,"제주특별자치도 제주시 중앙로 521, 1층 (아라일동)",33.4814679,126.5411458,정좌표
612266,미미야족발,"제주특별자치도 제주시 월랑로6길 15, 1층 (노형동)",33.4891265,126.4781561,정좌표
612269,희야국수,"제주특별자치도 제주시 다호5길 11, 1층 (도두이동)",33.5027912,126.4892074,정좌표
612279,남원양꼬치,제주특별자치도 제주시 도남로 15 (도남동),33.4985934,126.5254626,정좌표
612289,토박이장터,제주특별자치도 제주시 귀아랑길 21 (연동),33.4916243,126.4976269,정좌표
612293,제주옹기설렁탕,제주특별자치도 제주시 문송길 27 (연동),33.4872992,126.4974531,정좌표
612303,백년갈비터미널점,제주특별자치도 제주시 서광로 197 (삼도일동),33.5001901,126.5176131,정좌표
612307,강사또,"제주특별자치도 제주시 용화로 16, 1층 (용담이동)",33.5097457,126.5052274,정좌표
612317,나와바리,제주특별자치도 제주시 조천읍 신촌북2길 33,33.5376882,126.6198873,정좌표
612327,화산양꼬치3호점,제주특별자치도 제주시 월랑로 59 (노형동),33.490218,126.4742473,정좌표
612337,황금어장,제주특별자치도 제주시 사장길 14 (연동),33.4843876,126.4954118,정좌표
618169,추자본섬연동점,제주특별자치도 제주시 선덕로 14-1 (연동),33.4854198,126.4982215,정좌표
618179,큰맘할매순대국밥,제주특별자치도 제주시 구남동5길 42 (아라이동),33.4901862,126.5402105,정좌표
618225,제주통큰장어,제주특별자치도 제주시 청귤로3길 50 (이도이동),33.5015724,126.5421719,정좌표
618379,숙이네국수,"제주특별자치도 제주시 고마로 29, 1층 (일도이동)",33.5115173,126.5388484,정좌표
618399,미양양,"제주특별자치도 제주시 도남로 62, 1층 (도남동)",33.4948055,126.5274755,정좌표
618433,장우보양탕,제주특별자치도 제주시 신산로 42 (일도이동),33.5096929,126.5326326,정좌표
618435,로우허판,"제주특별자치도 제주시 성신로 15, 1층 제1호 (연동)",33.4911241,126.4852712,정좌표
618473,밥이보약,제주특별자치도 제주시 도령로 11 (노형동),33.4870338,126.480563,정좌표
618511,맛드림,"제주특별자치도 제주시 일주동로 350-2, 1층 제1호 (삼양이동)",33.5209896,126.5838194,정좌표
618551,복자네,"제주특별자치도 제주시 진동로3길 34, 1층 (화북일동)",33.5202404,126.5670524,정좌표
618655,파스쿠찌탑동점,"제주특별자치도 제주시 중앙로 27-26, 1층 (일도일동)",33.5134561,126.5288375,정좌표
618723,투다리노형점,"제주특별자치도 제주시 성신로1길 11 (연동,(성신1로9))",33.4912946,126.4868295,정좌표
618725,정직한통닭용담점,제주특별자치도 제주시 용담로 41 (용담삼동),33.5131078,126.5073329,정좌표
618735,석정삼계탕,제주특별자치도 제주시 진서로 33-3 (화북일동),33.5215056,126.5624128,정좌표
618811,어하영,"제주특별자치도 제주시 임항로 266, 102호 (건입동,장원마리나아파트)",33.5170951,126.538253,정좌표
618815,큰가름본점,"제주특별자치도 제주시 도남로 65, 101호 (도남동)",33.4944634,126.5279784,정좌표
618841,알콜달콜,제주특별자치도 제주시 원노형로 22 (노형동),33.4867165,126.4848412,정좌표
618865,추렴,"제주특별자치도 제주시 조천읍 신북로 24-1, 1층",33.5386704,126.6458435,정좌표
618873,시청시장통닭,"제주특별자치도 제주시 중앙로 254, 1층 (이도이동)",33.4967027,126.5523698,정좌표
618921,추자향기,제주특별자치도 제주시 추자면 추자로 42,33.9627928,126.2953354,정좌표
618933,울돌목광양,제주특별자치도 제주시 광양13길 24 (이도이동),33.4995545,126.5328338,정좌표
618937,선이네밥집,"제주특별자치도 제주시 조천읍 신북로 262, 조천리사무소 1층",33.5379276,126.6399375,정좌표
619253,올레스시초밥전문점,제주특별자치도 제주시 진군중길 9 (노형동),33.4771889,126.4742632,정좌표
619279,스카이리더스,"제주특별자치도 제주시 신광로 106, 2층 (연동)",33.4826164,126.4896573,정좌표
619567,함덕대박횟집,"제주특별자치도 제주시 조천읍 조함해안로 441, 1층",33.5462557,126.661505,정좌표
620495,김자매아구찜,제주특별자치도 제주시 신성로 47 (도남동),33.4960435,126.5246901,정좌표
620521,대오,"제주특별자치도 제주시 조천읍 남조로 2349, 1층",33.4741974,126.6567713,정좌표
620565,이인자뼈다귀해장국,"제주특별자치도 제주시 다랑곶2길 7 (노형동,(다랑굿3로9))",33.4879309,126.4808146,정좌표
620615,아란치오,"제주특별자치도 제주시 서해안로 234, 1층 (도두일동)",33.5086029,126.4709791,정좌표
620619,돈짝시청점,제주특별자치도 제주시 중앙로 260 (이도이동),33.4963326,126.5468642,정좌표
620683,우도봉중식,"제주특별자치도 제주시 우도면 우도봉길 47, 1층",33.493547,126.9597156,정좌표
620703,여루다,"제주특별자치도 제주시 용해로 61, 1층 제1호 (용담이동)",33.5117429,126.5032321,정좌표
620927,미미이자카야,"제주특별자치도 제주시 우정로11길 5, 1층 (외도일동)",33.4879876,126.4317237,정좌표
621259,만나고쪽갈비제주노형점,"제주특별자치도 제주시 다랑곶4길 14, 1층 (노형동)",33.4880548,126.4806044,정좌표
621277,명가천지연무태장어,"제주특별자치도 제주시 아연로 438-22, 1층 (오등동)",33.4747642,126.512388,정좌표
621321,연어도둑,"제주특별자치도 제주시 박성내서길 8, 1층 (이도이동)",33.4919222,126.540428,정좌표
621347,소주앤비어,제주특별자치도 제주시 흥운길 33 (용담이동),33.5119205,126.5120565,정좌표
621361,부자국수,"제주특별자치도 제주시 원노형남1길 17 (노형동,(송천1로90))",33.4841256,126.4824956,정좌표
621375,수원왕갈비통닭,"제주특별자치도 제주시 용화로 37, 103호 (용담이동)",33.5099489,126.5075711,정좌표
621385,함덕골목,제주특별자치도 제주시 조천읍 함덕7길 6-14,33.5438536,126.6618188,정좌표
622941,재진이네,"제주특별자치도 제주시 구남로7길 35 (이도이동,(주공1로13))",33.4924001,126.5337884,정좌표
622953,누룽지,제주특별자치도 제주시 고산동산6길 15-1 (이도이동),33.4942197,126.5320533,정좌표
623085,창흥,제주특별자치도 제주시 조천읍 함덕16길 15,33.540309,126.667206,정좌표
623741,춘풍,제주특별자치도 제주시 화남로 47 (화북일동),33.5139199,126.5637405,정좌표
623743,본가장수촌,"제주특별자치도 제주시 정원로 33, 1층 (노형동)",33.4803463,126.4777974,정좌표
623795,황금알맛집,제주특별자치도 제주시 도두항서7길 2 (도두일동),33.5032351,126.4635544,정좌표
623835,카고크루즈,"제주특별자치도 제주시 탑동로 43 (삼도이동,(탑동로53))",33.5180114,126.5191993,정좌표
623853,순화,"제주특별자치도 제주시 원노형8길 26 (노형동,(정동산1로36))",33.4837633,126.4841276,정좌표
623871,우원,"제주특별자치도 제주시 고마로 129 (일도이동,(고마로161))",33.503132,126.5426214,정좌표
623887,알통치킨앤강정외도점,제주특별자치도 제주시 우정로11길 17 (외도일동),33.487983,126.4329245,정좌표
623895,통큰막창,"제주특별자치도 제주시 성화로 23 (용담이동,(성화로30))",33.5113379,126.5052247,정좌표
623927,김밥나라중앙점,제주특별자치도 제주시 중앙로 77 (이도일동),33.5112434,126.5246399,정좌표
623947,컬러링도남점,"제주특별자치도 제주시 서광로20길 36, 1층 (도남동)",33.4965664,126.5218081,정좌표
623949,불타는오징어,제주특별자치도 제주시 다랑곶길 13 (노형동),33.4875525,126.4795598,정좌표
624021,비에이치씨신연동점,"제주특별자치도 제주시 연화로 16, 104호 (노형동, 해오름아파트상가)",33.4802375,126.4865364,정좌표
624099,토계정,제주특별자치도 제주시 조천읍 교래3길 1,33.4367741,126.6772425,정좌표
624243,홍콩미각,제주특별자치도 제주시 천수로 11 (이도이동),33.5027983,126.5384795,정좌표
624435,단물,"제주특별자치도 제주시 임항로 271, 101호 (건입동)",33.5165409,126.5387855,정좌표
624447,돈까스가있는풍경,제주특별자치도 제주시 정원로 39-1 (노형동),33.4803463,126.4777974,정좌표
624547,오늘도갈비,제주특별자치도 제주시 서광로32길 23 (이도이동),33.4985512,126.5292006,정좌표
624563,국수나무노형점,"제주특별자치도 제주시 1100로 3308, 에코트윈 2층 203호 (노형동)",33.4815721,126.481744,정좌표
624629,피자헤븐신제주점,"제주특별자치도 제주시 노연로 37-1, 1층 (노형동)",33.4862279,126.4842568,정좌표
624693,이치진외도직영점,"제주특별자치도 제주시 우정로4길 3-5, 1층 (외도일동)",33.4917078,126.4301825,정좌표
624731,연동누룽지,제주특별자치도 제주시 과원북4길 86-1 (연동),33.4808639,126.4907098,정좌표
624767,미스터세븐,제주특별자치도 제주시 선사로 31 (삼양이동),33.524183,126.5859638,정좌표
624769,배두리광장,"제주특별자치도 제주시 삼무로 60, 1층 (연동)",33.4896322,126.4930486,정좌표
624827,아삼육,"제주특별자치도 제주시 남녕로6길 6, 101호 (연동, 현대빌라)",33.4912388,126.4811653,정좌표
624839,낭만노가리용담점,제주특별자치도 제주시 용담로 50 (용담이동),33.512766,126.5080717,정좌표
624841,금성문,제주특별자치도 제주시 조천읍 신북로 400,33.5430629,126.6531691,정좌표
624965,프라이드프라이드,제주특별자치도 제주시 진남로6길 11 (화북일동),33.5198397,126.565537,정좌표
624983,전주콩나루콩나물국밥신제주점,제주특별자치도 제주시 신대로10길 16 (연동),33.4909502,126.4951175,정좌표
625025,경풍,제주특별자치도 제주시 오일장중길 55 (도두일동),33.4969018,126.4753936,정좌표
625029,태후,"제주특별자치도 제주시 서광로32길 17-1, 1층 (이도이동)",33.4991848,126.5288046,정좌표
625047,요리랄라,"제주특별자치도 제주시 수덕5길 42, 1층 (노형동)",33.4849947,126.474496,정좌표
625057,다미순대,제주특별자치도 제주시 삼무로 47 (연동),33.4900535,126.4918136,정좌표
625059,제주본토박이,"제주특별자치도 제주시 오복1길 14-1, 1층 (이도이동)",33.4965,126.5339775,정좌표
625085,샐러드마씸,제주특별자치도 제주시 원노형남1길 25 (노형동),33.4841712,126.4832038,정좌표
625107,조약돌,제주특별자치도 제주시 임항로 255 (건입동),33.517734,126.5391109,정좌표
625499,피오레,제주특별자치도 제주시 삼무로 61 (연동),33.4900016,126.4932563,정좌표
625541,우디,"제주특별자치도 제주시 신대로10길 23, 105호 (연동, 장원프라자아파트)",33.4907364,126.4942021,정좌표
639445,꼬메르치킨서중점,"제주특별자치도 제주시 월랑로6길 42 (노형동,(월랑2로64))",33.490256,126.479533,정좌표
639449,본초불닭발함덕점,제주특별자치도 제주시 조천읍 신북로 564,33.5404684,126.6698704,정좌표
639525,동해루,제주특별자치도 제주시 추자면 추자로 58,33.9620193,126.2939023,정좌표
639531,대마족발,"제주특별자치도 제주시 신대로10길 41, 1층 (연동)",33.4907437,126.4922976,정좌표
639549,해피해피데이,"제주특별자치도 제주시 신광로10길 20, 1층 (연동)",33.4840398,126.4875001,정좌표
639551,춘천혜성,제주특별자치도 제주시 월랑로 54 (노형동),33.4900863,126.4751976,정좌표
639557,이서림2호점,제주특별자치도 제주시 은남3길 38 (연동),33.4874929,126.4917278,정좌표
639577,놈삐,"제주특별자치도 제주시 서광로22길 7 (삼도일동,(1층))",33.4988712,126.5231313,정좌표
639579,한라샘,"제주특별자치도 제주시 한라대학로 77 (노형동,(한라대학로83))",33.476515,126.4792244,정좌표
639591,겐짱야,"제주특별자치도 제주시 월광로 140, 106호 (노형동)",33.4893239,126.4708027,정좌표
639601,김명자굴국밥,제주특별자치도 제주시 연북로 168 (연동),33.4818757,126.4994855,정좌표
639733,팍차이나시청점,제주특별자치도 제주시 광양13길 11 (이도이동),33.4991786,126.5314681,정좌표
639747,신농,제주특별자치도 제주시 과원로 39 (연동),33.4765038,126.4877408,정좌표
639755,미코,"제주특별자치도 제주시 연화로1길 20, 1층 (연동)",33.4784476,126.4894413,정좌표
639757,국수만찬,제주특별자치도 제주시 은남3길 1 (연동),33.4871347,126.4955611,정좌표
640539,토끼와거북이,"제주특별자치도 제주시 서해안로 498-6, 101호 (용담삼동)",33.5188204,126.4921734,정좌표
642883,가장맛있는족발,"제주특별자치도 제주시 화삼로 23, 1층 (화북일동)",33.5143764,126.5791822,정좌표
642917,인풍,제주특별자치도 제주시 만덕로 36 (건입동),33.513507,126.5318363,정좌표
642927,김밥천국일도점,"제주특별자치도 제주시 고마로 131, 1층 (일도이동)",33.5029536,126.5427051,정좌표
642957,몬스타쉐프의무한곱창제원점,제주특별자치도 제주시 신대로14길 48 (연동),33.4879774,126.4916064,정좌표
642965,이자카야일월,제주특별자치도 제주시 신성로13길 4 (이도이동),33.499499,126.5289941,정좌표
642969,형제종합식당,제주특별자치도 제주시 조천읍 신북로 505,33.5425877,126.6641488,정좌표
642973,참좋다,제주특별자치도 제주시 삼무로3길 22 (연동),33.4904862,126.4938139,정좌표
642979,연동계수나무집,"제주특별자치도 제주시 연동11길 39, 101호 (연동, 시스빌)",33.4862005,126.4934663,정좌표
642987,노형탑부평,제주특별자치도 제주시 광평동로 45 (노형동),33.4832402,126.4686459,정좌표
642995,해금성,제주특별자치도 제주시 월광로 41 (노형동),33.4851797,126.4654593,정좌표
643267,탑부평,제주특별자치도 제주시 관덕로15길 26 (건입동),33.5155173,126.5270364,정좌표
643395,별빛카페,"제주특별자치도 제주시 선돌목동길 33-1, 1층 (오등동)",33.4457199,126.5477816,정좌표
643619,핏제리아마노,"제주특별자치도 제주시 우령6길 75-2, 1층 (외도일동)",33.4846459,126.4298257,정좌표
643675,반올림피자샵삼양점,"제주특별자치도 제주시 일주동로 377, 1층 (삼양이동)",33.5209896,126.5838194,정좌표
643707,제주청정원한우마당,제주특별자치도 제주시 신대로14길 42 (연동),33.4879539,126.4921986,정좌표
643719,소리원,제주특별자치도 제주시 연동12길 37 (연동),33.4824446,126.4932441,정좌표
644073,돌하르방,"제주특별자치도 제주시 신산로11길 53, 1층 (일도이동)",33.5100471,126.5387935,정좌표
644953,대궁,제주특별자치도 제주시 임항로 264-1 (건입동),33.5172872,126.5382305,정좌표
644973,도남그집,제주특별자치도 제주시 독짓골2길 9 (도남동),33.491353,126.5296473,정좌표
644979,신해바라기한라대점,"제주특별자치도 제주시 정원로 47, 1층 (노형동)",33.483098,126.4772312,정좌표
645053,돈짬제주시청점,"제주특별자치도 제주시 중앙로 226 (이도이동,2층)",33.4956544,126.5513886,정좌표
645127,우림,제주특별자치도 제주시 도령로 28-2 (노형동),33.4873678,126.4826639,정좌표
645289,신전떡볶이 용담점,"제주특별자치도 제주시 용담로 77, 1층 (용담이동)",33.5126471,126.5110819,정좌표
645329,재현이네갈비,제주특별자치도 제주시 선덕로 7 (연동),33.4858709,126.4975799,정좌표
645351,함경면옥,"제주특별자치도 제주시 광양2길 33, 1층 (이도일동)",33.5032511,126.5268461,정좌표
645377,작골,제주특별자치도 제주시 도남로 46 (도남동),33.4961319,126.5267375,정좌표
645393,천하육회일도,제주특별자치도 제주시 고마로 141 (일도이동),33.5021158,126.5432174,정좌표
645413,던킨도너츠제주용두암점,제주특별자치도 제주시 서해안로 687-6 (용담이동),33.5155147,126.5118831,정좌표
645563,하쿠다,제주특별자치도 제주시 조천읍 신북로 564,33.5404684,126.6698704,정좌표
645579,토속음식한고집,"제주특별자치도 제주시 조천읍 조함해안로 488-5, 1층",33.54224,126.6649305,정좌표
645915,진1926,"제주특별자치도 제주시 달마루길 14, 1층 (노형동)",33.4897728,126.4741763,정좌표
645943,함와로580,"제주특별자치도 제주시 조천읍 함와로 580, 1층",33.492561,126.6812812,정좌표
645951,60계치킨제주삼화지구점,"제주특별자치도 제주시 화삼로 11, 1층 (화북일동)",33.5143764,126.5791822,정좌표
645971,지상참치,"제주특별자치도 제주시 삼성로 129, 1층 (일도이동)",33.5115417,126.537409,정좌표
646005,제주오라성,"제주특별자치도 제주시 오라남로 16, 1층 (오라이동)",33.4596254,126.5120062,정좌표
646009,델문도로스터스,"제주특별자치도 제주시 연삼로 316, 1층 (도남동)",33.4876744,126.5244076,정좌표
646257,일드뱅,"제주특별자치도 제주시 신대로12길 56, 2층 (연동)",33.4889665,126.4906531,정좌표
646339,맛짱김밥삼양점,제주특별자치도 제주시 일주동로 360-1 (삼양이동),33.5215675,126.5838598,정좌표
646349,도야족발신제주점,제주특별자치도 제주시 다랑곶5길 14 (노형동),33.489382,126.4799464,정좌표
646385,투다리삼양점,"제주특별자치도 제주시 일주동로 373 (삼양이동,(삼사석로 379))",33.5215951,126.5742773,정좌표
646391,산지로,제주특별자치도 제주시 정존15길 27 (노형동),33.487157,126.4770135,정좌표
646421,효퇴국수,제주특별자치도 제주시 서사로 122-1 (삼도일동),33.5015363,126.5196628,정좌표
646779,즉석,"제주특별자치도 제주시 연동9길 39, 1층 (연동)",33.4862057,126.4921923,정좌표
646875,우도해광,"제주특별자치도 제주시 우도면 하고수길 69, 1층",33.5134465,126.9568932,정좌표
647221,칭따오객잔,"제주특별자치도 제주시 신대로16길 51, 2층 (연동)",33.4867433,126.4911038,정좌표
647251,김용복참치,제주특별자치도 제주시 과원북4길 9 (노형동),33.4813411,126.4829777,정좌표
647284,영심이랑커피랑,"제주특별자치도 제주시 조천읍 신북로 455, 2층 201호",33.5386704,126.6458435,정좌표
647368,송진,"제주특별자치도 제주시 전농로 49, 1층 (삼도일동)",33.5045862,126.5183733,정좌표
647377,투썸플레이스연북로점,"제주특별자치도 제주시 연북로 201, 1층 (오라이동)",33.4858923,126.518754,정좌표
647422,두끼제주시청점,"제주특별자치도 제주시 중앙로 230, 2층 (이도이동)",33.4954183,126.5514711,정좌표
647605,자자손손멸치국수,"제주특별자치도 제주시 동화로 74, 1층 (화북이동)",33.51845,126.5727211,정좌표
647719,비에이치씨연동점,"제주특별자치도 제주시 삼무로 27, 1층 (연동)",33.4901316,126.4896355,정좌표
647869,아니그게아니고,"제주특별자치도 제주시 용화로 64, 지하1층 (용담이동)",33.5091258,126.5101973,정좌표
647872,마리조아,"제주특별자치도 제주시 삼봉로 99, 1층 (도련일동)",33.5124795,126.5895887,정좌표
648709,십오야,"제주특별자치도 제주시 조천읍 신북로 506, 2층",33.5422663,126.6641053,정좌표
649005,사뿐,"제주특별자치도 제주시 오일장동길 36, 1층 (도두일동)",33.4960838,126.4772015,정좌표
649389,풍촌,"제주특별자치도 제주시 은남2길 28, 1층 (연동)",33.4884059,126.4928127,정좌표
649398,노연동국밥2호점,"제주특별자치도 제주시 신대로10길 32 (연동,(성두4로46))",33.4910176,126.4933215,정좌표
649422,흥미,"제주특별자치도 제주시 삼무로 77 (연동,(삼무로10))",33.489614,126.4925948,정좌표
649449,민재네황태전문점,제주특별자치도 제주시 삼무로3길 10 (연동),33.4904824,126.4950578,정좌표
649509,보롬,"제주특별자치도 제주시 국기로3길 3, 1층 (연동)",33.4787746,126.4908945,정좌표
649569,디바인커피,"제주특별자치도 제주시 우도면 우도해안길 1112, 1층 제4호",33.4976527,126.9690646,정좌표
649613,진행수산,제주특별자치도 제주시 신성로7길 20 (도남동),33.4962639,126.5283569,정좌표
649628,경진식당,제주특별자치도 제주시 조천읍 함덕12길 3,33.5415076,126.6649826,정좌표
649660,도근네횟집,"제주특별자치도 제주시 월대5길 9, 1층 (외도이동)",33.494665,126.435251,정좌표
649690,대학로참,제주특별자치도 제주시 서광로32길 26 (이도이동),33.4984196,126.5290457,정좌표
649752,우도우돈,제주특별자치도 제주시 우도면 우도로 188,33.5086195,126.9536146,정좌표
649782,유리네,제주특별자치도 제주시 연북로 146 (연동),33.4814162,126.4971265,정좌표
650574,배터지는생동까스외도점,제주특별자치도 제주시 수정2길 10 (외도일동),33.4924358,126.427942,정좌표
650586,러브도채비,제주특별자치도 제주시 1100로 2894-72 (연동),33.4519922,126.4890053,정좌표
650592,연화밥상,제주특별자치도 제주시 신대로 144 (연동),33.4844492,126.4959551,정좌표
650595,예산가마솥장수촌설렁탕일도점,제주특별자치도 제주시 연신로 17 (일도이동),33.499347,126.5451362,정좌표
650622,푸주옥노형점,제주특별자치도 제주시 월랑로 65 (노형동),33.4905834,126.4738266,정좌표
650788,쩐의,제주특별자치도 제주시 서광로2길 11-2 (오라일동),33.498929,126.5131914,정좌표
650791,큰언니,"제주특별자치도 제주시 삼성로 67 (일도이동,(삼성로85))",33.5088118,126.5342047,정좌표
650827,보배쌤보리김치와게장커피,제주특별자치도 제주시 조천읍 북촌9길 1-5,33.5491146,126.6943527,정좌표
650903,안녕육지사람우도점,제주특별자치도 제주시 우도면 우도해안길 802,33.5141345,126.9571109,정좌표
651621,황제궁,"제주특별자치도 제주시 조천읍 남조로 3090, 1층",33.5351,126.6419315,정좌표
651897,테이크썸윌리,"제주특별자치도 제주시 중앙로 337, 1층 105호 (이도이동)",33.490565,126.5510774,정좌표
651909,썬더치킨노형점,제주특별자치도 제주시 월랑로10길 11 (노형동),33.4898373,126.477015,정좌표
651924,제주맛동산칼국수,제주특별자치도 제주시 신대로9길 19 (연동),33.4908333,126.498637,정좌표
652008,탑동김치찌개,제주특별자치도 제주시 탑동로 21 (삼도이동),33.5171842,126.522479,정좌표
652056,황궁갈비,"제주특별자치도 제주시 구남로8길 4-16, 1층 (이도이동)",33.4905508,126.5356746,정좌표
652068,부화룡양꼬치,"제주특별자치도 제주시 우령2길 31, 1층 (외도일동)",33.4863277,126.4317127,정좌표
652074,탐라는집,"제주특별자치도 제주시 도공로 16, 1층 (도두일동)",33.5046918,126.4651397,정좌표
652112,비비큐화북점,"제주특별자치도 제주시 일주동로 197, 1층 (화북일동)",33.5189705,126.5666256,정좌표
652121,다해,"제주특별자치도 제주시 문송1길 17 (연동,(문송4로21))",33.4882379,126.4991778,정좌표
652127,아루요두번째,"제주특별자치도 제주시 신광로10길 22, 1층 (연동)",33.4840498,126.487359,정좌표
652136,뼈다귀의눈물,제주특별자치도 제주시 천수로 6 (이도이동),33.5017862,126.5421622,정좌표
652142,무아,제주특별자치도 제주시 신설로2길 2-6 (이도이동),33.4943334,126.5427581,정좌표
652145,헝그리닭발포차외도점,제주특별자치도 제주시 우령2길 20 (외도일동),33.4869313,126.4280479,정좌표
652148,매운디,제주특별자치도 제주시 신설로11길 15 (아라이동),33.492908,126.5461683,정좌표
652181,모던돔베,제주특별자치도 제주시 1100로 3029 (노형동),33.4572356,126.4863568,정좌표
652343,고마로갈비탕,"제주특별자치도 제주시 고마로 27, 101호 (일도이동)",33.5076265,126.5404304,정좌표
652367,요리음식점현,"제주특별자치도 제주시 신형로 23, 2층 (노형동)",33.4828208,126.4766009,정좌표
652441,김밥천국시청본점,제주특별자치도 제주시 중앙로 278 (이도이동),33.4977379,126.5374912,정좌표
652482,미녀,제주특별자치도 제주시 만덕로4길 3 (건입동),33.514613,126.5315884,정좌표
652485,주인,"제주특별자치도 제주시 광양13길 3, 2층 (이도이동)",33.4988197,126.531005,정좌표
652488,국제통닭신제주점,"제주특별자치도 제주시 월랑로10길 33 (노형동,(월랑4로45))",33.4909959,126.4784882,정좌표
652491,텀,"제주특별자치도 제주시 천수동로 49, 1층 (건입동)",33.5066368,126.5472581,정좌표
652521,사랑,"제주특별자치도 제주시 동문로 100, 지하1층 (일도이동)",33.5115818,126.526099,정좌표
658721,더팔당제주,제주특별자치도 제주시 신대로16길 44 (연동),33.487151,126.4914841,정좌표
658840,돈삼겹아라점,"제주특별자치도 제주시 아란8길 7, 1층 (아라일동)",33.4735731,126.5452315,정좌표
658889,연해루,"제주특별자치도 제주시 신성로10길 3, 1층 (이도이동)",33.496489,126.5300059,정좌표
658923,인쌩맥주제주연동점,"제주특별자치도 제주시 신대로14길 51, 1층 (연동)",33.4877006,126.4910151,정좌표
658967,제원칼집,제주특별자치도 제주시 제원길 19 (연동),33.4881302,126.4895702,정좌표
659034,동막골서사라점,제주특별자치도 제주시 서사로 119 (삼도일동),33.5017806,126.5201903,정좌표
659064,서귀포모녀식당,제주특별자치도 제주시 선덕로3길 20 (연동),33.487482,126.4988444,정좌표
659088,제3공간,"제주특별자치도 제주시 연화중길 21, 1층 (연동)",33.4769219,126.4888976,정좌표
659123,망고홀릭제주본점,"제주특별자치도 제주시 삼무로5길 2, 1층 (연동)",33.4907171,126.4920409,정좌표
660203,코나카,"제주특별자치도 제주시 인다14길 28-12, 1층 (아라일동)",33.4714067,126.5468857,정좌표
660244,송가칼국수,"제주특별자치도 제주시 우령서로16길 2, 1층 (외도일동)",33.4847699,126.4234202,정좌표
660271,춤추는생오리,"제주특별자치도 제주시 서광로32길 14-5, 1층 (이도이동)",33.4989987,126.5282406,정좌표
660283,칠구대포제주삼화지구점,"제주특별자치도 제주시 건주로3길 11, 1층 (도련일동)",33.4730594,126.7833092,정좌표
660289,큰맘할매순대국제주삼화점,"제주특별자치도 제주시 화삼로 23, 1층 (화북일동)",33.5143764,126.5791822,정좌표
660329,그리매,"제주특별자치도 제주시 조천읍 남조로 2222, 1층",33.4845921,126.6554822,정좌표
660855,대촌미락,제주특별자치도 제주시 조천읍 조함해안로 482-1,33.5428119,126.664533,정좌표
661171,제주곱,"제주특별자치도 제주시 신대로16길 42, 1층 (연동)",33.4870195,126.4923138,정좌표
661292,오로라식품,"제주특별자치도 제주시 동광로 12, 1층 (이도이동)",33.5010889,126.530548,정좌표
661333,더삼화,"제주특별자치도 제주시 화삼북로 68, 삼화지구 신형빌딩 5층 (도련일동)",33.5172049,126.5812408,정좌표
661348,도남오거리외도점,제주특별자치도 제주시 우정로7길 26-3 (외도일동),33.4887179,126.4339345,정좌표
661384,전설의떡볶이,제주특별자치도 제주시 남녕로 47 (노형동),33.4913859,126.4797048,정좌표
661414,형돈,"제주특별자치도 제주시 구남로 22, 1층 (이도이동)",33.4893377,126.5329674,정좌표
661591,유나인,제주특별자치도 제주시 국기로 13 (연동),33.4805904,126.4900884,정좌표
661639,활주로,"제주특별자치도 제주시 원노형남1길 18 (노형동,(송천1로99))",33.4838906,126.4823071,정좌표
661645,투다리연동점,제주특별자치도 제주시 연동10길 3 (연동),33.485387,126.4921129,정좌표
661660,달콤한닭강정연동점,제주특별자치도 제주시 국기로 25 (연동),33.4795318,126.4900701,정좌표
661690,사람풍경,제주특별자치도 제주시 조천읍 번영로 1338,33.4555296,126.6681873,정좌표
661760,샤브향신제주점,"제주특별자치도 제주시 월랑로 30 (노형동, 제1호)",33.488641,126.4770165,정좌표
661826,소낭식당,제주특별자치도 제주시 조천읍 함와로 71,33.5145232,126.6777359,정좌표
662582,본죽앤비빔밥까페제주연동점,제주특별자치도 제주시 국기로 13-1 (연동),33.4804225,126.4900708,정좌표
662628,갱이네보말칼국수,"제주특별자치도 제주시 구남로4길 18, 1층 (이도이동)",33.4885327,126.5345799,정좌표
662831,원조부안집외도점,제주특별자치도 제주시 우령2길 22-1 (외도일동),33.4873628,126.4314358,정좌표
662872,호식이두마리치킨도남점,제주특별자치도 제주시 신성로 62 (도남동),33.4953399,126.5260923,정좌표
662922,유신횟집,"제주특별자치도 제주시 동문로2길 3, 2층 (일도일동)",33.5125586,126.5271285,정좌표
663102,하몽돼지,"제주특별자치도 제주시 국기로2길 12, 1층 (연동)",33.4799082,126.4909286,정좌표
663142,김가네삼화점,"제주특별자치도 제주시 건주로 65, 1층 (도련일동)",33.5166785,126.5790859,정좌표
663180,사이통닭,"제주특별자치도 제주시 월랑로4길 11, 1층 (노형동)",33.4882693,126.4786133,정좌표
663210,막창먹는놈화북점,"제주특별자치도 제주시 동화로 12-6, 1층 (화북일동)",33.5192912,126.5726157,정좌표
663225,꾸르다기,제주특별자치도 제주시 신성로 85 (도남동),33.4959451,126.5283945,정좌표
663231,스노우빈,제주특별자치도 제주시 조천읍 비자림로 702-41,33.4322959,126.6792772,정좌표
663285,엉클통김밥노형점,"제주특별자치도 제주시 1100로 3283, 1층 (노형동)",33.4793805,126.4818919,정좌표
663402,우도짜장면집,"제주특별자치도 제주시 우도면 우도해안길 340, 5동 1층",33.5074342,126.954269,정좌표
663447,베지근한해장국,"제주특별자치도 제주시 연삼로 519, 1층 (일도이동)",33.5029625,126.553699,정좌표
663465,금보,제주특별자치도 제주시 서부두길 14 (건입동),33.5174829,126.5284174,정좌표
663512,미풍해장국연동점,제주특별자치도 제주시 제원길 7 (연동),33.4892185,126.4896524,정좌표
663566,삼교리동치미막국수,제주특별자치도 제주시 오라로 150 (오라일동),33.4941836,126.5186474,정좌표
663624,푸라닭이호점,"제주특별자치도 제주시 오광로 58, 1층 (이호이동)",33.4906891,126.4576106,정좌표
663721,금강민물장어,제주특별자치도 제주시 원노형로 16 (노형동),33.4869987,126.48455,정좌표
664033,일도제주아구찜,"제주특별자치도 제주시 연신로 28, 1층 (이도이동)",33.4984128,126.5451938,정좌표
664063,돈누리,제주특별자치도 제주시 진군중길 22 (노형동),33.4771463,126.4793887,정좌표
664075,경성주막1929제주시청점,"제주특별자치도 제주시 신성로13길 14-1, 2층 (이도이동)",33.4988063,126.5294997,정좌표
664084,신비국수국밥,제주특별자치도 제주시 중앙로24길 22 (삼도이동),33.5060248,126.5228731,정좌표
664087,24시전주명가콩나물국밥일도점,제주특별자치도 제주시 고마로 127 (일도이동),33.5033313,126.5425459,정좌표
664148,불깡,제주특별자치도 제주시 중앙로2길 41 (삼도이동),33.5174711,126.5206131,정좌표
664166,이차돌제주노형점,"제주특별자치도 제주시 월랑로4길 17, 천마빌딩 1층 (노형동)",33.4886816,126.4790795,정좌표
664233,공설통큰김밥,"제주특별자치도 제주시 공설로 35, 1층 (오라일동)",33.4971445,126.5179018,정좌표
664270,자연과사람들밀면,"제주특별자치도 제주시 조천읍 남조로 2185, C동 1층",33.4845921,126.6554822,정좌표
664454,서서방숯불닭갈비,"제주특별자치도 제주시 신광로 61, 1층 (연동)",33.486651,126.4903307,정좌표
664682,정희네두루치기,"제주특별자치도 제주시 아봉로 248-56, 1층 (영평동)",33.4764111,126.5680552,정좌표
664691,팔팔포차,"제주특별자치도 제주시 천수로6길 5, 지하1층 (이도이동)",33.5028919,126.5419786,정좌표
664694,선미씨,"제주특별자치도 제주시 연동4길 36, 1층 101호 (연동, 연동 뜨레모아)",33.4827931,126.4873658,정좌표
664709,삼화수제돈까스,"제주특별자치도 제주시 건주로4길 34, 105호 (도련일동)",33.5166785,126.5790859,정좌표
664763,벨난조개전골,"제주특별자치도 제주시 인다14길 28-12, 1층 (아라일동)",33.4714067,126.5468857,정좌표
664795,탕196,"제주특별자치도 제주시 연북로 196, 2층 (오라이동)",33.4858923,126.518754,정좌표
664799,메콩스카이,"제주특별자치도 제주시 연오로 35, 1층 (오라삼동)",33.4900691,126.5021939,정좌표
665044,제주창스닥중앙점,"제주특별자치도 제주시 중앙로14길 6, 1층 (이도일동)",33.5115076,126.5238185,정좌표
665050,정다헌,"제주특별자치도 제주시 도남로 104, 101호 (도남동)",33.4912542,126.528008,정좌표
665059,경태,"제주특별자치도 제주시 서문로4길 13-2 (용담일동,136호(서문시장길22))",33.5113829,126.5179733,정좌표
665061,그란데,"제주특별자치도 제주시 인다6길 42, 1층 (아라일동)",33.4261379,126.5626925,정좌표
665152,트리안,"제주특별자치도 제주시 용담로 79, 1층 (용담이동)",33.5125461,126.5114549,정좌표
665232,은희네해장국삼화점,"제주특별자치도 제주시 화삼로1길 16, 1층 (화북일동)",33.5143764,126.5791822,정좌표
665309,죽이야기제주점,"제주특별자치도 제주시 정존11길 39, 1층 (노형동)",33.4866334,126.4740283,정좌표
665357,예술공간오이,"제주특별자치도 제주시 연북로 66, 지층 101호 (연동)",33.4827724,126.4890682,정좌표
665358,돈날개,제주특별자치도 제주시 독짓골2길 1 (도남동),33.4918467,126.5295399,정좌표
665373,갓쭈,"제주특별자치도 제주시 은남3길 29, 1층 (연동)",33.4871377,126.4927658,정좌표
665382,천하육회,제주특별자치도 제주시 연동7길 26 (연동),33.4874882,126.4905238,정좌표
665394,한강,"제주특별자치도 제주시 일주서로 7471 (내도동,(1층))",33.493837,126.4451062,정좌표
665422,와플칸제주직영점,제주특별자치도 제주시 신광로 36 (연동),33.488953,126.48977,정좌표
665473,대구반야월막창,제주특별자치도 제주시 도남로 40 (도남동),33.4965561,126.5263924,정좌표
665475,연북정식당,"제주특별자치도 제주시 조천읍 신북로 243-1, 1층",33.537305,126.6383722,정좌표
665651,반디파스타,"제주특별자치도 제주시 조천읍 조함해안로 528, 3층",33.54249,126.6693054,정좌표
667277,제주동백별장,"제주특별자치도 제주시 원노형3길 44, 에이동 1층 (노형동)",33.4866553,126.4814594,정좌표
667427,화덕앤그릴,"제주특별자치도 제주시 국기로 23, 1층 (연동)",33.4796346,126.4900748,정좌표
667595,명태어장제주연동점,"제주특별자치도 제주시 선덕로 10, 1층 (연동)",33.4854284,126.4977468,정좌표
667607,비에이치씨함덕점,"제주특별자치도 제주시 조천읍 신북로 477, 1층",33.5436151,126.661269,정좌표
667685,타이웍,"제주특별자치도 제주시 신설로11길 2, 1층 (아라이동)",33.4912804,126.5445739,정좌표
667801,정준오리,제주특별자치도 제주시 오복3길 1 (이도이동),33.4964304,126.5354164,정좌표
667810,성게애빠져,제주특별자치도 제주시 신대로14길 5 (연동),33.4875447,126.496063,정좌표
667815,칠돈가별관,"제주특별자치도 제주시 남성로 43 (용담일동,(1층))",33.5041319,126.5128129,정좌표
667825,제호,"제주특별자치도 제주시 구남동6길 23, 1층 (이도이동)",33.4881806,126.5368981,정좌표
667835,한솥도시락제주한라병원점,"제주특별자치도 제주시 성신로 15, 1층 (연동)",33.4911241,126.4852712,정좌표
667845,스쿨푸드신제주점,"제주특별자치도 제주시 과원북4길 61, 덕양빌딩 102호 (연동)",33.4810043,126.4875495,정좌표
667855,무정해장국,제주특별자치도 제주시 신대로10길 29 (연동),33.4907194,126.4935613,정좌표
667865,만경,제주특별자치도 제주시 광양13길 6-2 (이도이동),33.4985736,126.5313158,정좌표
667905,연동박가네,제주특별자치도 제주시 삼무로9길 15 (연동),33.4923114,126.494883,정좌표
667915,원님네포장마차,제주특별자치도 제주시 신대로10길 35 (연동),33.4907873,126.4930684,정좌표
667925,이도숯불갈비,"제주특별자치도 제주시 구남로6길 23, 1층 (이도이동)",33.4885749,126.5355572,정좌표
667927,함덕사계절,"제주특별자치도 제주시 조천읍 함덕16길 43, 1층",33.5412907,126.6647706,정좌표
667937,전앤적,"제주특별자치도 제주시 연수로3길 4, 2층 (일도이동)",33.5022066,126.5434279,정좌표
667938,정씨네소몰이,"제주특별자치도 제주시 동광로9길 43, 1층 (이도일동)",33.5042462,126.5304721,정좌표
667946,나영이네해장국,"제주특별자치도 제주시 천수로9길 5, 1층 (일도이동)",33.5046696,126.542347,정좌표
667949,나름,"제주특별자치도 제주시 서광로32길 29-1, 1층 (이도이동)",33.4983222,126.5297317,정좌표
667951,주민상회화북점,"제주특별자치도 제주시 일주동로 260, 1층 (화북일동)",33.5200652,126.5731982,정좌표
667954,청담이상제주시청점,"제주특별자치도 제주시 신성로13길 13, 3층 (이도이동)",33.4991032,126.5297519,정좌표
667964,밤낮가온,"제주특별자치도 제주시 도남로 24, 1층 (도남동)",33.4978261,126.5256101,정좌표
667974,조선옥,제주특별자치도 제주시 신대로5길 32 (연동),33.492749,126.4999694,정좌표
668014,친구테이블,"제주특별자치도 제주시 조천읍 함덕12길 6, 1층",33.54156,126.6646534,정좌표
668034,스시오하요,"제주특별자치도 제주시 용담로 92, 1층 (용담이동)",33.5119258,126.5124267,정좌표
668044,만원의행복,"제주특별자치도 제주시 신대로7길 9, 1층 (연동)",33.4919777,126.4978489,정좌표
668314,바당좀녀집,제주특별자치도 제주시 서해안로 478-5 (용담삼동),33.5184744,126.4903421,정좌표
668354,지코바치킨신제주점,제주특별자치도 제주시 원노형5길 30 (노형동),33.4869554,126.4825549,정좌표
668364,제주대게회타운,제주특별자치도 제주시 서해안로 638 (용담삼동),33.5165879,126.5052475,정좌표
668374,사카야이자카야,"제주특별자치도 제주시 월랑로4길 25 (노형동,(1층))",33.4890725,126.4796333,정좌표
668380,구피풋,"제주특별자치도 제주시 광양10길 11, 지하1층 (이도이동)",33.4989334,126.5291963,정좌표
668650,외도순이네,"제주특별자치도 제주시 우정로18길 15 (외도일동,(1층))",33.4848028,126.4292624,정좌표
668656,마구이양구이,제주특별자치도 제주시 월랑로2길 18 (노형동),33.4875491,126.4808295,정좌표
668666,궁한스샤브샤브신제주점,"제주특별자치도 제주시 사장길 38, 2층 (연동)",33.4826565,126.494582,정좌표
668676,쿠루쿠루,"제주특별자치도 제주시 연오로 59, 1층 202호 (오라삼동)",33.4846142,126.5015527,정좌표
668677,비에이치씨제주시청점,"제주특별자치도 제주시 광양14길 12, 2층 (이도이동)",33.4980543,126.5295662,정좌표
668684,영식이네짜장,"제주특별자치도 제주시 조천읍 일주동로 762, 1층",33.5306072,126.622647,정좌표
668704,만강촌옛날칼국수,"제주특별자치도 제주시 월랑로 42 (노형동,(월랑로50))",33.4893008,126.476056,정좌표
668714,명륜진사갈비제주노형점,"제주특별자치도 제주시 월랑로 35, 2층 (노형동)",33.4886585,126.4760231,정좌표
668724,골프존마운틴,"제주특별자치도 제주시 신설로7길 38 (이도이동,(1층,2층))",33.4943561,126.5456071,정좌표
668725,제주미식회,"제주특별자치도 제주시 동문로14길 45, 1층 (일도이동)",33.5099699,126.5353906,정좌표
668735,우도해물라면파전,"제주특별자치도 제주시 우도면 우도봉길 1, 1층",33.4962455,126.9561697,정좌표
668738,도르다이닝,"제주특별자치도 제주시 인다2길 65, 1층 (아라일동)",33.4720461,126.5501744,정좌표
668748,비오는날의숲,"제주특별자치도 제주시 조천읍 신촌북3길 1, 1층",33.5372517,126.6189081,정좌표
668768,돈하루방,"제주특별자치도 제주시 동광로5길 32, 1층 (이도일동)",33.5042418,126.5304011,정좌표
668778,엘픽,"제주특별자치도 제주시 신설로5길 5-10, 101호 (이도이동, 이도해든빌비동)",33.4951204,126.5454393,정좌표
668788,만세국수,제주특별자치도 제주시 연삼로 437 (이도이동),33.4967932,126.5424769,정좌표
668798,스시성,"제주특별자치도 제주시 연북로 34, 2층 (노형동)",33.4816482,126.4850144,정좌표
668808,짚동가리쌩주노형점,제주특별자치도 제주시 월랑로10길 2 (노형동),33.4890076,126.476626,정좌표
668818,육남매,제주특별자치도 제주시 신대로7길 15-1 (연동),33.4919582,126.4983991,정좌표
668823,치킨마루노형제일고점,제주특별자치도 제주시 진군1길 3 (노형동),33.4782877,126.4815904,정좌표
668833,아구에반하다,"제주특별자치도 제주시 신대로20길 17, 1층 (연동)",33.4835738,126.4945457,정좌표
668836,돈사촌노형점,제주특별자치도 제주시 노형9길 16 (노형동),33.4879136,126.4850484,정좌표
668846,임금님밥상,"제주특별자치도 제주시 오광로 128, 1층 (노형동)",33.4849476,126.4609875,정좌표
668856,홋카이도,"제주특별자치도 제주시 노연로 42, 201호,202호,203호,205호 (노형동)",33.4858096,126.4846224,정좌표
668866,새몽실식당,제주특별자치도 제주시 신대로12길 11 (연동),33.488556,126.4952966,정좌표
668867,서호네뚝배기,제주특별자치도 제주시 용담로 111 (용담일동),33.5108428,126.5140607,정좌표
668872,돈세기,제주특별자치도 제주시 남성로8길 3 (용담일동),33.5037432,126.5135503,정좌표
668875,카페올띠,"제주특별자치도 제주시 노연로 43, 2층 (노형동, 외1필지)",33.4858355,126.4888236,정좌표
668877,서은통닭,제주특별자치도 제주시 청귤로1길 20 (이도이동),33.5008484,126.5373468,정좌표
668885,오여사네밥술집,제주특별자치도 제주시 승천로 7 (이도이동),33.4970997,126.5387259,정좌표
668895,미스터짱닭시청점,제주특별자치도 제주시 서광로32길 37-5 (이도이동),33.4978842,126.5299673,정좌표
668900,국수나무집,"제주특별자치도 제주시 신대로10길 43 (연동,(성두4로69))",33.4908163,126.4920457,정좌표
668908,종로3가감자탕,"제주특별자치도 제주시 신광로4길 34 (연동,(제원2로56))",33.4880699,126.4874806,정좌표
668918,양육점,"제주특별자치도 제주시 가령골길 23-1, 1층 (일도이동)",33.5042115,126.5411924,정좌표
668922,세광양대창제주연동점,"제주특별자치도 제주시 신대로16길 39, 1층 (연동)",33.4866894,126.4923744,정좌표
668932,모심청국장,제주특별자치도 제주시 신대로10길 17 (연동),33.4906602,126.4949955,정좌표
668942,태선갈비일도점,"제주특별자치도 제주시 연삼로 545-1, 1층 제2호 (일도이동)",33.509057,126.5373988,정좌표
668952,7번가피자제주삼화점,제주특별자치도 제주시 일주동로 394 (삼양이동),33.5209896,126.5838194,정좌표
668962,우리뼈감자탕,"제주특별자치도 제주시 평전2길 23, 1층 (삼도일동)",33.5008421,126.5179873,정좌표
668970,네네치킨노형점,"제주특별자치도 제주시 원노형로 50, 1층 (노형동)",33.4841859,126.4847012,정좌표
668980,연안식당,"제주특별자치도 제주시 신대로 169, 1층 (연동)",33.4820183,126.4966749,정좌표
668990,일기일회,"제주특별자치도 제주시 광양10길 15, 2층 (이도이동)",33.4986513,126.5286673,정좌표
669000,좋은하루,"제주특별자치도 제주시 신설로9길 35, 지1층 (이도이동)",33.4943566,126.546782,정좌표
669064,이제막걸리마실때가됐다 수월,"제주특별자치도 제주시 일주동로 379, 1층 (삼양이동)",33.5209896,126.5838194,정좌표
669067,라비에,"제주특별자치도 제주시 신성로13길 17, 2,3층 (이도이동)",33.4986716,126.5298496,정좌표
669077,모니카옛날통닭,제주특별자치도 제주시 신대로10길 33 (연동),33.4907183,126.4932525,정좌표
669087,촌장터,"제주특별자치도 제주시 광양13길 10-2 (이도이동,(시청남2로16))",33.499597,126.531254,정좌표
669092,아라평화,"제주특별자치도 제주시 중앙로 486, 1층 (아라일동)",33.4814679,126.5411458,정좌표
669102,재혁이네국수,"제주특별자치도 제주시 구남로 24, 1층 (이도이동)",33.48943,126.5331,정좌표
669112,맘스터치함덕점,"제주특별자치도 제주시 조천읍 함덕로 38, 1층",33.5421559,126.6713605,정좌표
669132,쿠주소셜카페제주,"제주특별자치도 제주시 서광로32길 26-4, 1층 (이도이동)",33.498347,126.528935,정좌표
669142,보리수,"제주특별자치도 제주시 다랑곶길 29, 1층 101호 (노형동, 대성연립주택)",33.4887407,126.4807312,정좌표
669160,데이지,"제주특별자치도 제주시 서사로 129, 1층 (삼도일동)",33.5007962,126.5200513,정좌표
669200,현우식당,제주특별자치도 제주시 조천읍 북촌1길 9,33.5485184,126.684776,정좌표
669214,봉구스밥버거제주대점,제주특별자치도 제주시 제주대학로7길 6 (아라이동),33.4607151,126.5614723,정좌표
669218,광동도남오거리,제주특별자치도 제주시 동화로 3 (화북일동),33.5197941,126.5731467,정좌표
669228,제홀스,제주특별자치도 제주시 월랑로 29 (노형동),33.4881914,126.4765252,정좌표
669229,통시돈,제주특별자치도 제주시 신산로 26 (일도이동),33.5109115,126.5318457,정좌표
669239,자매정식,"제주특별자치도 제주시 서사로19길 21, 1층 (삼도일동)",33.5012535,126.5221815,정좌표
669249,자리왓,"제주특별자치도 제주시 조공포길 30 (외도일동,(조공포길36))",33.4889868,126.4341696,정좌표
669252,스시렌,"제주특별자치도 제주시 원노형10길 36, 1층 (노형동)",33.4829055,126.4862384,정좌표
669262,7번가피자신제주점,"제주특별자치도 제주시 수덕로 31, 1층 (노형동)",33.4867465,126.4736196,정좌표
669272,사계진미숯불닭갈비삼화점,"제주특별자치도 제주시 건주로 33, 2층 (도련일동)",33.5166785,126.5790859,정좌표
669282,주연이네,"제주특별자치도 제주시 은남3길 29, 1층 (연동)",33.4871377,126.4927658,정좌표
669283,혼디레술토랑,"제주특별자치도 제주시 우령서로 57, 101호 (외도일동)",33.4887166,126.4268692,정좌표
669293,민박사봉평막국수,"제주특별자치도 제주시 삼봉로 10, 1층 (삼양이동)",33.5209896,126.5838194,정좌표
669303,챨리스,"제주특별자치도 제주시 산천단동3길 17, 1층 (아라일동)",33.449195,126.5589372,정좌표
669306,달밤솔숲에바람지나가는소리,"제주특별자치도 제주시 전농로 113, 202호 (삼도이동)",33.5046406,126.5251996,정좌표
669315,밀림원,"제주특별자치도 제주시 조천읍 남조로 2446, 1층",33.4845921,126.6554822,정좌표
669335,루스트플레이스아라점,"제주특별자치도 제주시 아란7길 3-3, 201호 (아라일동)",33.4261379,126.5626925,정좌표
669345,고구려외도점,"제주특별자치도 제주시 우정로15길 12, 103호 (외도일동)",33.4849821,126.4329506,정좌표
669355,더치박스,"제주특별자치도 제주시 달마루길 18, 105호 (노형동)",33.4895613,126.4743621,정좌표
669363,깡촌흑돼지,"제주특별자치도 제주시 조천읍 함덕14길 2, 제2호",33.5412881,126.6671156,정좌표
669383,메밀꽃차롱,"제주특별자치도 제주시 연오로 136 (연동,(1층))",33.4812536,126.5008228,정좌표
669393,우리정육구이,제주특별자치도 제주시 천수로6길 1 (이도이동),33.5031156,126.5418414,정좌표
669402,삼양우숙이앤인생게장,"제주특별자치도 제주시 설촌로2길 23, 1층 105,106,107호 (삼양이동)",33.5218965,126.5839752,정좌표
669412,큰맛동태탕,제주특별자치도 제주시 수정2길 10 (외도일동),33.4924358,126.427942,정좌표
669422,청도,"제주특별자치도 제주시 서해안로 546, 1층 (용담삼동)",33.5199139,126.4970605,정좌표
669432,제주나무카페,제주특별자치도 제주시 조천읍 선교로 560,33.4727191,126.7061921,정좌표
669452,육회공작소,"제주특별자치도 제주시 신대로16길 47, 1층 (연동)",33.4867186,126.4914453,정좌표
669462,힘찬장어,"제주특별자치도 제주시 삼무로3길 32-1 (연동,(1층))",33.4905237,126.4925231,정좌표
669465,화산2020,"제주특별자치도 제주시 흥운길 85, 1층 (용담이동)",33.5158031,126.5139016,정좌표
669475,사천빠슈마라탕외도점,"제주특별자치도 제주시 우정로6길 32-1, 1층 (외도일동)",33.4904374,126.4277608,정좌표
669485,바로족발보쌈별관,"제주특별자치도 제주시 진군중길 3, 1층 (노형동)",33.4784891,126.4797085,정좌표
669495,광주생각,"제주특별자치도 제주시 고마로 21 (일도이동,서반아파트 101, 102호)",33.5123734,126.5386975,정좌표
669496,토크박스중흥점,"제주특별자치도 제주시 한라대학로 99 (노형동,(한라대학로111))",33.4766937,126.4750523,정좌표
669498,봄이네해바라기,"제주특별자치도 제주시 중앙로14길 24 (삼도이동, 제2호)",33.5113185,126.521793,정좌표
669508,테우,제주특별자치도 제주시 조천읍 조함해안로 418,33.5461754,126.6604242,정좌표
669688,기리시마,"제주특별자치도 제주시 구산로 3, 1층 (아라일동)",33.4843778,126.5366027,정좌표
669693,땅땅치킨봉개점,제주특별자치도 제주시 번영로 470 (봉개동),33.4914645,126.5922666,정좌표
669701,우도숯불갈비,제주특별자치도 제주시 우도면 우도로 184,33.5084176,126.9537289,정좌표
669706,스시궁,"제주특별자치도 제주시 도령로 11, 2층 (노형동)",33.4870338,126.480563,정좌표
669709,제주세호해장국일도점,"제주특별자치도 제주시 태성로2길 2, 1층 (일도이동)",33.4994761,126.5453019,정좌표
669719,들녘에,"제주특별자치도 제주시 조천읍 일주동로 1214-9, 1층",33.5363395,126.6701555,정좌표
669739,제주한우곱창,"제주특별자치도 제주시 신대로 165, 1층 (연동)",33.4823748,126.4967064,정좌표
669749,넘버원한우곱창,제주특별자치도 제주시 신산로 19-1 (일도이동),33.5114943,126.5319467,정좌표
669754,툇마루,제주특별자치도 제주시 원노형로 48 (노형동),33.4843479,126.4847479,정좌표
669755,육회한집노형점,"제주특별자치도 제주시 수덕9길 86-8, 1층 (노형동)",33.4829531,126.470212,정좌표
669757,맘스터치연삼로점,"제주특별자치도 제주시 연삼로 503, 1층 (이도이동)",33.4967027,126.5523698,정좌표
669767,올디너리,"제주특별자치도 제주시 서광로28길 21-1, 1층 (이도이동)",33.4987473,126.5274131,정좌표
669777,순곱이네일도점,"제주특별자치도 제주시 고마로 135, 유성빌딩 1층 (일도이동)",33.5025779,126.5429546,정좌표
669787,진카페,"제주특별자치도 제주시 달마루길 22, 지하1층 (노형동)",33.4899109,126.4739051,정좌표
669793,공간키친,제주특별자치도 제주시 신성로13길 13-1 (이도이동),33.4989472,126.5296674,정좌표
669798,큰맘할매순대국제주일도점,"제주특별자치도 제주시 천수로9길 1, 101호 (일도이동, 그랑펠리스)",33.5027478,126.5381725,정좌표
669808,김원꼬치점,"제주특별자치도 제주시 중앙로2길 7, 1층 (삼도이동)",33.5165402,126.524197,정좌표
669809,아란어가,"제주특별자치도 제주시 아란9길 14, 1층 (아라일동)",33.4723479,126.5436636,정좌표
669819,옛날아우내순대아라점,"제주특별자치도 제주시 인다3길 17, 1층 (아라일동)",33.4760657,126.5492812,정좌표
669821,가시버시정육구이,"제주특별자치도 제주시 삼무로1길 9, 1층 (연동)",33.4906047,126.4896961,정좌표
669831,모슬포해안도로,"제주특별자치도 제주시 신대로18길 16, 104호 (연동)",33.4847657,126.4947672,정좌표
669841,부솔,"제주특별자치도 제주시 광양7길 18 (이도이동,(시청1로8))",33.5008917,126.5311777,정좌표
669851,아이리스,제주특별자치도 제주시 국기로3길 5 (연동),33.47888,126.490968,정좌표
669860,제마닭,제주특별자치도 제주시 사장길 12 (연동),33.4845286,126.495589,정좌표
669870,서문일번지식당,"제주특별자치도 제주시 서문로4길 13-2, 134호 (용담일동,서문공설시장)",33.5117807,126.5181132,정좌표
669875,잔마이제원점,제주특별자치도 제주시 제원길 16 (연동),33.4884883,126.4892917,정좌표
669878,더스푼,"제주특별자치도 제주시 구남동1길 45, 1층 (아라이동)",33.4916487,126.5389939,정좌표
669888,고고맥주,"제주특별자치도 제주시 월랑로8길 1, 107호 (노형동)",33.4888119,126.4767628,정좌표
669889,섬채,"제주특별자치도 제주시 오라로 61, 2층 (오라이동)",33.4960287,126.5105206,정좌표
669899,오렌지나무,"제주특별자치도 제주시 설촌로10길 25, 1층 (삼양이동)",33.5239248,126.5831394,정좌표
669909,투다리정든점,제주특별자치도 제주시 달마루길 12 (노형동),33.4891285,126.4747302,정좌표
669921,응그레,"제주특별자치도 제주시 아란7길 46, 1층 (아라일동)",33.4717276,126.544619,정좌표
669931,가야포도원,"제주특별자치도 제주시 봉개대동4길 11, 1층 (봉개동)",33.4881375,126.5967008,정좌표
669941,미시까,"제주특별자치도 제주시 조천읍 신북로 537-1, 1층",33.5418131,126.6673961,정좌표
669961,다원우,"제주특별자치도 제주시 우령6길 75-1, 2층 (외도일동)",33.4846459,126.4298257,정좌표
669971,라쁠라주,"제주특별자치도 제주시 서해안로 518, 1층 제1호 (용담삼동)",33.5198301,126.4944679,정좌표
669981,옥돌해장국,"제주특별자치도 제주시 인다5길 11-16, 1층 (아라일동)",33.4758966,126.5482372,정좌표
669991,서흘포가든서사라점,"제주특별자치도 제주시 서사로 175, 1층 (오라일동)",33.4965544,126.52005,정좌표
670001,SG스크린골프광양점,"제주특별자치도 제주시 중앙로 187, 3층 (이도일동)",33.5030704,126.5285942,정좌표
670003,선미뷔페,"제주특별자치도 제주시 만덕로3길 11, 1층 (건입동)",33.5155876,126.5325772,정좌표
670008,왓덮,"제주특별자치도 제주시 동한두기길 9, 1층 (용담일동)",33.515735,126.5160382,정좌표
670013,나의작은주방돈까스집,"제주특별자치도 제주시 인다7길 12, 1층 (아라일동)",33.4765482,126.5459714,정좌표
670023,도두포차,"제주특별자치도 제주시 서해안로 146, 103동 지하1층 (도두일동)",33.5110314,126.4802212,정좌표
670033,낙지로,"제주특별자치도 제주시 신대로12길 19, 1층 (연동)",33.4887117,126.493783,정좌표
670043,불닭공장삼화점,"제주특별자치도 제주시 동화로1길 53-14, 1층 (화북일동)",33.5176348,126.5777695,정좌표
670052,아빠부엌,"제주특별자치도 제주시 우령2길 11, 1층 (외도일동)",33.4881567,126.4317637,정좌표
670062,체크인,"제주특별자치도 제주시 임항로 28, 8층 (건입동)",33.5163311,126.5279192,정좌표
670071,대흘퐁낭식당,"제주특별자치도 제주시 조천읍 중산간동로 644, 제2동 1층",33.5029546,126.6942576,정좌표
670079,을찌로국물떡볶이연동점,"제주특별자치도 제주시 신대로14길 49, 1층 (연동)",33.4877011,126.4912798,정좌표
670089,몬딹,"제주특별자치도 제주시 도령로13길 15, 1층 (연동)",33.4927286,126.4880527,정좌표
670093,김주학짬뽕,"제주특별자치도 제주시 동문로14길 10, 102호,103호 (일도이동)",33.5125177,126.5331801,정좌표
670103,우도몬딱,"제주특별자치도 제주시 우도면 우도해안길 794, 1층",33.5149034,126.9570909,정좌표
670113,모이세해장국노형점,"제주특별자치도 제주시 월랑로 61, 1층 (노형동)",33.4903407,126.4741096,정좌표
670123,산적,"제주특별자치도 제주시 월랑로4길 17, 1층 (노형동)",33.4886816,126.4790795,정좌표
670139,강씨고집,"제주특별자치도 제주시 구남동6길 33, 2층 (이도이동)",33.4875695,126.5364225,정좌표
670143,컬쳐드,"제주특별자치도 제주시 승천로 81, 지하1층 제2호 (아라이동)",33.4952739,126.539932,정좌표
670153,전이야기,제주특별자치도 제주시 우정로 44 (외도일동),33.4889879,126.4306867,정좌표
670159,정말맛있는식당,"제주특별자치도 제주시 사라봉길 5, 1층 (건입동)",33.5146043,126.5392335,정좌표
670169,달그락식탁,제주특별자치도 제주시 조천읍 신흥로 2,33.5438444,126.6537298,정좌표
670189,와와치킨,제주특별자치도 제주시 도공로 24-1 (도두일동),33.5041158,126.4655104,정좌표
670197,강연우동태찌개제주외도점,"제주특별자치도 제주시 우령서로 89, 101동 102호 (외도일동)",33.4887166,126.4268692,정좌표
670207,다옴토종닭,제주특별자치도 제주시 연신로 7-1 (일도이동),33.50014,126.5445644,정좌표
670210,떡칠애신촌,"제주특별자치도 제주시 조천읍 신촌3길 7, 1층",33.5336,126.6187196,정좌표
670222,하루나,"제주특별자치도 제주시 한라대학로 97, 1층 (노형동)",33.476505,126.4806081,정좌표
670262,외도그린포크정육식당,"제주특별자치도 제주시 우정로11길 9, 1층 (외도일동)",33.4879946,126.4319893,정좌표
670272,황금닭갈비장칼국수,"제주특별자치도 제주시 아란5길 31-4, 1층 (아라일동)",33.5540964,126.7958924,정좌표
670282,호식이두마리치킨연동신시가지점,"제주특별자치도 제주시 국기중길 5-6, 1층 (연동)",33.480287,126.4917548,정좌표
670314,고파크,"제주특별자치도 제주시 조천읍 남조로 2044-38, B동 1층",33.5111091,126.5021075,정좌표
670334,네네치킨외도점,"제주특별자치도 제주시 우령2길 11, 1층 (외도일동)",33.4881567,126.4317637,정좌표
670344,광림,제주특별자치도 제주시 제원길 6 (연동),33.4894654,126.4892715,정좌표
670348,다동뼈감탕,"제주특별자치도 제주시 도남로 118, 1층 (도남동)",33.4898149,126.5287361,정좌표
670358,사토,제주특별자치도 제주시 연동3길 36 (연동),33.4866728,126.4878341,정좌표
670368,국수도둑,제주특별자치도 제주시 한라대학로 97 (노형동),33.476505,126.4806081,정좌표
670371,자담치킨외도점,"제주특별자치도 제주시 우정로 89, 1층 (외도일동)",33.4848108,126.4311741,정좌표
670373,지미스,"제주특별자치도 제주시 우도면 우도해안길 1132, 시동 1층",33.4977772,126.9676695,정좌표
670383,노랑통닭아라점,"제주특별자치도 제주시 중앙로 490, 1층 (아라일동)",33.4794205,126.5433732,정좌표
670393,등대와바당,"제주특별자치도 제주시 도두항서길 37, 1~2층 (도두일동)",33.5060819,126.4646212,정좌표
670403,제주미담,"제주특별자치도 제주시 가령로 19, 1층 (이도이동)",33.5023425,126.5373625,정좌표
670413,진도새기,"제주특별자치도 제주시 광평동로 67, 1층 (노형동)",33.4827682,126.4695717,정좌표
670423,수영,"제주특별자치도 제주시 원노형6길 30 (노형동,(1층))",33.4834039,126.4827546,정좌표
670513,절라도아구찜,"제주특별자치도 제주시 오복2길 35-1 (이도이동,(법원동2로3))",33.4939866,126.5357815,정좌표
670518,태진해장국,"제주특별자치도 제주시 구산로 49, 1층 (아라일동)",33.4844084,126.540185,정좌표
670528,노형칼국수토종닭,제주특별자치도 제주시 광평길 19 (노형동),33.4810766,126.4694586,정좌표
670538,흥부네정식,제주특별자치도 제주시 연북로 74 (연동),33.4815331,126.4892489,정좌표
670545,노을코지,"제주특별자치도 제주시 서해안로 386, 1층 (용담삼동)",33.5110314,126.4802212,정좌표
670555,별이빛나는밤,"제주특별자치도 제주시 신성로 19, 1층 (도남동)",33.4963202,126.5216574,정좌표
670565,호랑이,"제주특별자치도 제주시 조천읍 신북로 506, 1층",33.5422663,126.6641053,정좌표
670585,쑤니에7080,"제주특별자치도 제주시 서해안로 648, 6층 604호 (용담삼동, 세진빌라)",33.5160114,126.506006,정좌표
670586,도야족발외도점,제주특별자치도 제주시 우정로4길 4 (외도일동),33.4920932,126.4300744,정좌표
670595,평담옥,"제주특별자치도 제주시 원노형로 66, 2층 (노형동)",33.4828091,126.4846166,정좌표
670605,달맞이,"제주특별자치도 제주시 신대로6길 13, 1층 (연동)",33.4922709,126.4951893,정좌표
670685,우도해물깡패,"제주특별자치도 제주시 우도면 우도해안길 810, 1~2층",33.5133865,126.9574805,정좌표
670695,고봉민김밥인아라점,"제주특별자치도 제주시 아란7길 11, 1층 (아라일동)",33.4261379,126.5626925,정좌표
670705,아라대패,"제주특별자치도 제주시 인다2길 12, 1층 (아라일동)",33.4719786,126.5501884,정좌표
670710,불타는갈매기외도본점,"제주특별자치도 제주시 우령8길 23, 1층 (외도일동)",33.4890375,126.4276311,정좌표
670711,명동찌개마을,"제주특별자치도 제주시 전농로 113, 102호 (삼도이동)",33.5046406,126.5251996,정좌표
670716,김재훈고사리육개장,"제주특별자치도 제주시 구남로2길 19, 1층 (이도이동)",33.4879379,126.5339906,정좌표
670726,그냥술집,"제주특별자치도 제주시 진동로1길 13, 1층 (화북일동)",33.5194966,126.5655728,정좌표
670727,부가네얼큰이연동점,제주특별자치도 제주시 노연로 137 (연동),33.4859291,126.4950214,정좌표
670732,교촌치킨노형점,"제주특별자치도 제주시 월랑로 35, 1층 (노형동)",33.4886585,126.4760231,정좌표
670742,꼬까삐,"제주특별자치도 제주시 도남로7길 46, 1층 (도남동)",33.496178,126.5272015,정좌표
670790,전설의짬뽕조천점,"제주특별자치도 제주시 조천읍 신북로 93, 101호",33.5359097,126.6233165,정좌표
670810,부산아지매집,제주특별자치도 제주시 정존1길 17 (노형동),33.4822745,126.4716969,정좌표
670812,무시로인제점,제주특별자치도 제주시 연수로3길 5 (일도이동),33.5026161,126.5435943,정좌표
670818,막쇠,"제주특별자치도 제주시 제원길 12, 1층 (연동)",33.4889953,126.4893163,정좌표
670978,더솔트랩,"제주특별자치도 제주시 아란8길 7, 1층 (아라일동)",33.4735731,126.5452315,정좌표
670979,노형둘레국수,제주특별자치도 제주시 과원북4길 15 (노형동),33.4814319,126.4836895,정좌표
670982,천해향,"제주특별자치도 제주시 삼봉로 354, 나동 101호 (봉개동,인성빌라)",33.4917934,126.5932484,정좌표
670992,도시어부,"제주특별자치도 제주시 월랑로10길 26, 1층 102호 (노형동, 대성빌리지)",33.4903496,126.4781347,정좌표
671002,오막한우막창,"제주특별자치도 제주시 도령로 132, 1층 (연동)",33.4928018,126.4914711,정좌표
671003,조반물,"제주특별자치도 제주시 조천읍 신촌북2길 38-1, 1층",33.5381736,126.6199194,정좌표
671163,제원삼겹살,"제주특별자치도 제주시 제원길 15, 1층 101호 (연동)",33.4884951,126.4896284,정좌표
671173,역전할머니맥주아라점,"제주특별자치도 제주시 중앙로 576, 1층 (아라일동)",33.4719689,126.5453583,정좌표
671183,돌미롱,"제주특별자치도 제주시 아란7길 14, 1층 (아라일동)",33.4717276,126.544619,정좌표
672143,안트래,제주특별자치도 제주시 연동13길 16 (연동),33.4884008,126.4944719,정좌표
672145,수선화식당,제주특별자치도 제주시 천수로6길 29 (이도이동),33.5010157,126.5432057,정좌표
672155,한국식당,제주특별자치도 제주시 평전1길 16 (삼도일동),33.5006298,126.517738,정좌표
672157,24시얼큰시원생고기김치찌개화북점,"제주특별자치도 제주시 동화로 74, 1층 (화북이동)",33.51845,126.5727211,정좌표
672167,온미소가,"제주특별자치도 제주시 원노형10길 32, 1층 (노형동)",33.4832934,126.48618,정좌표
672175,하꼬네,"제주특별자치도 제주시 신성로10길 5, 1층 (이도이동)",33.4963011,126.5300521,정좌표
672231,칠돈가함덕점,"제주특별자치도 제주시 조천읍 함와로 12, 1층",33.5145232,126.6777359,정좌표
672251,봉개족탕순대,"제주특별자치도 제주시 삼봉로 329, 1층 (봉개동)",33.49369,126.5942282,정좌표
672261,통큰국밥,"제주특별자치도 제주시 우정로5길 30, 1층 (외도일동)",33.4902913,126.4326462,정좌표
672266,주민상회,"제주특별자치도 제주시 도남로 49, 1층 (도남동)",33.4960164,126.5271817,정좌표
672274,꼬불집,"제주특별자치도 제주시 가령로 61-1, 1층 (이도이동)",33.49895,126.5371,정좌표
672284,개염지영말축,"제주특별자치도 제주시 연오로 68, 1층 (연동)",33.4872442,126.5014706,정좌표
672287,부지깽이,"제주특별자치도 제주시 광양13길 11-2, 1층 (이도이동)",33.4992737,126.5316548,정좌표
672367,우땅,제주특별자치도 제주시 우도면 우도해안길 352,33.5095289,126.943581,정좌표
672377,황금손가락이도점,제주특별자치도 제주시 구남동1길 44 (아라이동),33.4916487,126.5389939,정좌표
672387,김정자김밥,"제주특별자치도 제주시 신산로 53, 1층 (일도이동)",33.5088414,126.53358,정좌표
672397,부가네얼큰이함덕점,"제주특별자치도 제주시 조천읍 신북로 576, 1층",33.5398447,126.6707327,정좌표
672417,탕궁훠궈,"제주특별자치도 제주시 은남2길 41, 1층 (연동)",33.4881733,126.4913351,정좌표
672427,용담밭담,"제주특별자치도 제주시 서천길 16, 1층 (용담이동)",33.501532,126.5106976,정좌표
672437,섬토박이,"제주특별자치도 제주시 우도면 주흥1길 21, 1층",33.5166315,126.9495817,정좌표
672440,냉동고,"제주특별자치도 제주시 신대로14길 46, 1층 (연동)",33.4879789,126.4918076,정좌표
672450,마농제주본점,"제주특별자치도 제주시 우평로 45-1, 2층 (도평동)",33.480118,126.451244,정좌표
672460,와흘밥상,"제주특별자치도 제주시 조천읍 남조로 2228, 1층",33.4637884,126.6606792,정좌표
672480,금보가든,"제주특별자치도 제주시 조천읍 비자림로 639, 2층",33.4355195,126.6757539,정좌표
672500,모살물2호점,"제주특별자치도 제주시 삼무로9길 24, 1층 (연동)",33.4902009,126.4878546,정좌표
672510,월랑명가동태,"제주특별자치도 제주시 월랑로6길 25, 1층 (노형동)",33.4897882,126.4789569,정좌표
672513,한솥도시락제주한라대점,"제주특별자치도 제주시 한라대학로 73-1, 1층 (노형동)",33.4765287,126.4782796,정좌표
672523,까투리꼬치구이태양점,"제주특별자치도 제주시 신대로10길 22 (연동,101호(성두4로30))",33.4909493,126.4944568,정좌표
672526,한일반점,제주특별자치도 제주시 정존3길 1 (노형동),33.4822211,126.4736549,정좌표
672534,명품갈비하우스,제주특별자치도 제주시 동화로 72-2 (화북이동),33.51845,126.5727211,정좌표
672537,고씨회관,제주특별자치도 제주시 신대로14길 49 (연동),33.4877011,126.4912798,정좌표
672542,현서네두루치기,"제주특별자치도 제주시 화삼로1길 16, 1층 (화북일동)",33.5143764,126.5791822,정좌표
672552,칠십리,제주특별자치도 제주시 신광로 8 (연동),33.487011,126.488104,정좌표
672592,마마칼국수,"제주특별자치도 제주시 한라대학로 87, 1층 (노형동)",33.4765158,126.4796515,정좌표
672602,시골못난이투,"제주특별자치도 제주시 신대로16길 35, 1층 (연동)",33.4866919,126.4928789,정좌표
672612,옛날통닭여상점,"제주특별자치도 제주시 동문로 96, 1층 (일도이동)",33.5137593,126.5368476,정좌표
672617,담소,"제주특별자치도 제주시 원노형3길 34, 1층 (노형동)",33.4867993,126.4826168,정좌표
672633,구남동해장국,"제주특별자치도 제주시 구남동8길 51, 1층 (아라일동)",33.4870912,126.5381221,정좌표
672640,돈까스가게,"제주특별자치도 제주시 조천읍 함덕16길 4, 1층",33.5402985,126.6686629,정좌표
672660,한라진칼국수,"제주특별자치도 제주시 테우해안로 32, 1층 (내도동)",33.4953891,126.4383359,정좌표
672670,차곡,제주특별자치도 제주시 문연로 5 (연동),33.4902703,126.4982303,정좌표
672672,멕시카나연동점,제주특별자치도 제주시 은남4길 37 (연동),33.486177,126.4917538,정좌표
672680,서서방숯불닭갈비일도점,"제주특별자치도 제주시 천수로8길 5, 1층 (일도이동)",33.5028639,126.5430499,정좌표
672690,아라불족,"제주특별자치도 제주시 인다12길 1, 상가동 103호 (아라일동)",33.4735401,126.546878,정좌표
672693,돈나무,제주특별자치도 제주시 신광로10길 3 (연동),33.4836453,126.4890832,정좌표
672703,왕대박,"제주특별자치도 제주시 서광로32길 1, 1층 (이도이동)",33.5001826,126.5281733,정좌표
672743,가품,"제주특별자치도 제주시 원노형로 53, 1층 (노형동)",33.483788,126.485046,정좌표
672753,통큰갈비제주일도점,"제주특별자치도 제주시 고마로 105, 1층 (일도이동)",33.5051331,126.5416656,정좌표
672763,괸당집노형점,제주특별자치도 제주시 수덕11길 40 (노형동),33.4857695,126.4729105,정좌표
672771,김가네이도점,"제주특별자치도 제주시 신설로 55, 601동 B107호 (이도이동, 한일베라체아파트)",33.4929335,126.5473827,정좌표
672781,송키,"제주특별자치도 제주시 연삼로 344 (도남동,(1층))",33.4779277,126.5225228,정좌표
672783,맘스터치한라대점,"제주특별자치도 제주시 한라대학로 76 (노형동,(1층))",33.4761438,126.4785058,정좌표
672793,김밥꼬순내,제주특별자치도 제주시 신설로 42 (아라이동),33.4927007,126.5447578,정좌표
672803,굽네치킨용담점,"제주특별자치도 제주시 용담로 70, 1층 (용담이동)",33.5125029,126.5102578,정좌표
672805,만옥,제주특별자치도 제주시 중앙로2길 1 (건입동),33.5163102,126.5244947,정좌표
672813,참치대가,제주특별자치도 제주시 연삼로 336 (도남동),33.4773358,126.5252795,정좌표
672823,고도500,"제주특별자치도 제주시 산록북로 817, 1층 (아라일동)",33.4365084,126.5550263,정좌표
672828,생돈우리,"제주특별자치도 제주시 우평로 38, 1~2층 (노형동)",33.4799013,126.4619095,정좌표
672908,예향정제주,"제주특별자치도 제주시 신설로11길 2-9, 1층 (아라이동)",33.4912804,126.5445739,정좌표
672918,벨아벨테라스,"제주특별자치도 제주시 신대로22길 4, 1층 (연동)",33.4824642,126.4925609,정좌표
672928,베짱이컴퍼니,"제주특별자치도 제주시 아란2길 60, 1층 102호 (아라일동)",33.4717276,126.544619,정좌표
672938,학교종이땡땡땡,"제주특별자치도 제주시 제주대학로 113, 지하1층 (아라이동)",33.4603693,126.5621341,정좌표
672978,명가설렁탕,제주특별자치도 제주시 원노형남1길 14-1 (노형동),33.4838778,126.4820717,정좌표
672988,고향숯불막창외도점,제주특별자치도 제주시 우령2길 30 (외도일동),33.4866202,126.4314557,정좌표
672998,섬오름,제주특별자치도 제주시 조천읍 조함해안로 355-7,33.5498566,126.65593,정좌표
673018,별난술집,"제주특별자치도 제주시 연삼로 548, 1층 (일도이동)",33.5029625,126.553699,정좌표
673020,맘스터치제주시청점,"제주특별자치도 제주시 서광로 298, 2층 (이도이동)",33.5002907,126.528321,정좌표
673030,청미락횟집,제주특별자치도 제주시 서사로 111 (삼도일동),33.5023853,126.520166,정좌표
673040,동화흑돼지,"제주특별자치도 제주시 동화로1길 49-13 (화북일동,(동화3로15))",33.5182173,126.5777762,정좌표
673041,털보산해,"제주특별자치도 제주시 은남4길 29 (연동,원빌라102호(연중7로47))",33.4862119,126.4927022,정좌표
673048,금선수,"제주특별자치도 제주시 동광로1길 21 (이도일동,(광양초등길45))",33.5025297,126.5285823,정좌표
673049,오태식해바라기치킨일도점,"제주특별자치도 제주시 고마로17길 4, 2층 (일도이동)",33.505453,126.5417323,정좌표
673059,꼭들보쌈국수,"제주특별자치도 제주시 독짓골2길 10, 1층 (도남동)",33.4912643,126.5294701,정좌표
673069,심양양꼬치,"제주특별자치도 제주시 정존7길 8, 1층 (노형동)",33.4840749,126.4751351,정좌표
673079,탐라국바비큐,"제주특별자치도 제주시 연화로1길 7, 1층 (연동)",33.478715,126.4882306,정좌표
673085,루샹,"제주특별자치도 제주시 서광로29길 14, 1층 (이도일동)",33.5014975,126.5266885,정좌표
673092,종종캐주얼다이닝,"제주특별자치도 제주시 과원북2길 66-1, 1층 (연동)",33.4786902,126.4894446,정좌표
673129,지하,"제주특별자치도 제주시 광양14길 7, 지하1층 (이도이동)",33.4980228,126.5299477,정좌표
673147,물꼬해녀의집,"제주특별자치도 제주시 우도면 우도해안길 496, 1층",33.5074342,126.954269,정좌표
673687,칠성골흑돼지,"제주특별자치도 제주시 중앙로1길 11, 1층 (건입동)",33.5163838,126.5260509,정좌표
673716,킹콩부대찌개정부합동청사점,"제주특별자치도 제주시 청사로3길 11, 1층 (도남동)",33.4904733,126.5268548,정좌표
673748,뚱보조개,제주특별자치도 제주시 서광로28길 53 (이도이동),33.4969683,126.5297525,정좌표
673875,춘천명동닭갈비연동점,"제주특별자치도 제주시 연동9길 25 (연동,(은남4로 24))",33.487467,126.4921898,정좌표
673894,돈삼겹삼화점,"제주특별자치도 제주시 화삼북로4길 4-4, 1층 (화북일동)",33.5173799,126.5762952,정좌표
673920,대돈,"제주특별자치도 제주시 관덕로15길 29, 1~2층 (건입동)",33.5158785,126.5267774,정좌표
674577,더중국집,"제주특별자치도 제주시 신설로9길 8-3, 101호 (이도이동)",33.4943566,126.546782,정좌표
674604,베지근,"제주특별자치도 제주시 남녕로 7, 1층 (노형동)",33.4840614,126.4826385,정좌표
674630,돌담애분식,"제주특별자치도 제주시 남광로4길 15, 지하1층 (이도이동)",33.4921111,126.5397911,정좌표
674637,사려니숲길화덕피자,"제주특별자치도 제주시 조천읍 남조로 2133, 1층",33.4522268,126.6638002,정좌표
675181,탐라맛고을,"제주특별자치도 제주시 아연로 484-7, 1층 (아라일동)",33.4747642,126.512388,정좌표
675229,설악산황태,"제주특별자치도 제주시 서해안로 208, 1층 (도두일동)",33.5081258,126.4681694,정좌표
675573,달마야해물탕,"제주특별자치도 제주시 조천읍 신북로 535-1, 1층",33.5416852,126.6671558,정좌표
675623,아르떼,"제주특별자치도 제주시 조천읍 곱은달남길 218, 2층",33.5026669,126.6713054,정좌표
675643,계난리,제주특별자치도 제주시 신대로10길 19 (연동),33.4906862,126.4948401,정좌표
675670,살랑살랑샤브,"제주특별자치도 제주시 서해안로 612, 1~2층 (용담삼동)",33.517066,126.5025097,정좌표
675791,제주붉은대게,"제주특별자치도 제주시 서해안로 470, 1층 (용담삼동)",33.5187147,126.4894176,정좌표
675827,엄쟁이족발,제주특별자치도 제주시 월랑로6길 38 (노형동),33.4903972,126.4800233,정좌표
675829,쉐프의스시이야기,제주특별자치도 제주시 신광로 36 (연동),33.488953,126.48977,정좌표
675955,명가손만두와보말칼국수,제주특별자치도 제주시 선덕로5길 19 (연동),33.4878975,126.5000993,정좌표
676060,풍원,"제주특별자치도 제주시 우도면 우도해안길 340, 1층",33.5074342,126.954269,정좌표
678156,비에이치씨오라점,"제주특별자치도 제주시 연사길 79, 1층 (오라이동)",33.4821613,126.5126291,정좌표
678183,우리동네숯불갈비,"제주특별자치도 제주시 추자면 추자로 10-2, 1층",33.9631999,126.2977139,정좌표
678185,동새벽김밥,"제주특별자치도 제주시 연삼로 978, 1층 (도련이동)",33.5107139,126.6051651,정좌표
678201,우도예쁘다카페,"제주특별자치도 제주시 우도면 우도해안길 940, 1층",33.5074342,126.954269,정좌표
678226,예닮국수,"제주특별자치도 제주시 우정로11길 4, 1층 (외도일동)",33.4876697,126.4314658,정좌표
678236,한라생돈,"제주특별자치도 제주시 연화중길 7, 1층 (연동)",33.4781581,126.4889116,정좌표
678484,진성반점,제주특별자치도 제주시 제주대학로 109 (아라이동),33.4603431,126.561742,정좌표
678501,사려니가든,"제주특별자치도 제주시 동광로23길 1, 1층 (일도이동)",33.5100237,126.5431645,정좌표
678508,추억의책가방,"제주특별자치도 제주시 동문로 98-1, 1층 (일도이동)",33.5138058,126.5371966,정좌표
678509,오름나그네,제주특별자치도 제주시 조천읍 선교로 525,33.4590778,126.7120882,정좌표
684773,남녕국수,제주특별자치도 제주시 원노형5길 3 (노형동),33.4882484,126.484779,정좌표
684901,쉐프이야기,제주특별자치도 제주시 신광로4길 19 (연동),33.4887201,126.4878954,정좌표
684937,아라골가마솥순대국,제주특별자치도 제주시 중앙로 586 (아라일동),33.4711642,126.5452384,정좌표
684948,삼화포구,제주특별자치도 제주시 서흘1길 26 (삼양일동),33.5287466,126.5891889,정좌표
684966,본죽외도점,제주특별자치도 제주시 우정로 52 (외도일동),33.4881821,126.4307744,정좌표
684993,멋진만남,제주특별자치도 제주시 조천읍 종인내길 365,33.4784763,126.6358838,정좌표
685953,무상찻집,"제주특별자치도 제주시 서광로5길 10, 1층 (용담일동)",33.5009806,126.5144369,정좌표
686131,이화원,"제주특별자치도 제주시 달마루길 20, 2~3층 (노형동)",33.4896778,126.4741589,정좌표
686499,대풍미락횟집함덕본점,제주특별자치도 제주시 조천읍 조함해안로 446,33.5454119,126.6621016,정좌표
686887,천복,"제주특별자치도 제주시 수덕9길 4 (노형동,(수덕3로6) 102호)",33.4850577,126.4757502,정좌표
686888,맵수다노형점,"제주특별자치도 제주시 월랑로 48, A,B,C동 1층 (노형동)",33.4896842,126.4755575,정좌표
686972,또옵서,"제주특별자치도 제주시 번영로 459 (봉개동,(동부관광도로423))",33.4923139,126.5915685,정좌표
686974,돈짱,"제주특별자치도 제주시 서해안로 131, 1층 (도두일동)",33.5029313,126.4634855,정좌표
687066,썬더치킨외도점,제주특별자치도 제주시 우정로15길 31 (외도일동),33.4874934,126.432418,정좌표
687073,김이박,"제주특별자치도 제주시 인다9길 20, 1층 (아라일동)",33.4261379,126.5626925,정좌표
687313,청춘술집,"제주특별자치도 제주시 광양8길 8, 2,3층 (이도이동)",33.5000086,126.5286314,정좌표
687369,초풍돈,"제주특별자치도 제주시 월랑북길 30, 1층 (노형동)",33.4919386,126.4769211,정좌표
687370,만강촌옛날칼국수외도점,"제주특별자치도 제주시 우정로11길 6 (외도일동,(우정동5로6))",33.4876558,126.43172,정좌표
687381,간또,"제주특별자치도 제주시 연동7길 19, 1층 (연동)",33.4881844,126.4909895,정좌표
687389,바삭돈가스아라점,"제주특별자치도 제주시 아란5길 31-2, 1층 (아라일동)",33.5540964,126.7958924,정좌표
687456,남문숯불바베큐앤치킨월랑점,"제주특별자치도 제주시 월랑로4길 19, 101호 (노형동)",33.4887961,126.4792271,정좌표
687474,이도아구찜,"제주특별자치도 제주시 남광북1길 31-1, 1층 (이도이동)",33.4961298,126.5367525,정좌표
687477,노가리앤비어(도남점),"제주특별자치도 제주시 신성로10길 1, 1층 (이도이동)",33.496489,126.5300059,정좌표
687487,미소짓는흑도야지,"제주특별자치도 제주시 일주서로 7682, 1층 (이호이동)",33.4938002,126.467257,정좌표
687497,연한돈,"제주특별자치도 제주시 선덕로 6, 1층 (연동)",33.4855045,126.4974044,정좌표
687506,어린왕자,"제주특별자치도 제주시 과원북4길 19, 3층 (노형동)",33.4813384,126.4843,정좌표
687530,상위호환,"제주특별자치도 제주시 서광로32길 16-1, 2층 (이도이동)",33.49914,126.5285191,정좌표
687540,경성주막1929삼화점,"제주특별자치도 제주시 화삼로1길 15, A동 1층 (화북일동)",33.5143764,126.5791822,정좌표
687543,조은수산민물장어숯불구이,"제주특별자치도 제주시 복지로북길 36-2, 1층 (도남동)",33.4887375,126.5219401,정좌표
687553,궁,"제주특별자치도 제주시 화삼로1길 5, 1층 (화북일동)",33.5143764,126.5791822,정좌표
687562,돈풍,"제주특별자치도 제주시 원노형로 23 (노형동,(백두6로 43)102호 외 1필지)",33.486838,126.485122,정좌표
687572,엄지족발보쌈,"제주특별자치도 제주시 월랑로10길 9, 1층 (노형동)",33.489764,126.4769205,정좌표
687580,롤타이드,"제주특별자치도 제주시 조천읍 조함해안로 490, 1층",33.5425589,126.665241,정좌표
687600,더블랭크,"제주특별자치도 제주시 도남서길 22, 1층 (도남동)",33.4933575,126.5235284,정좌표
687605,포다1975,"제주특별자치도 제주시 서해안로 578, 2층 (용담삼동)",33.5186289,126.4996401,정좌표
687615,다다포차,"제주특별자치도 제주시 동문로 28-2, 1층 (일도일동)",33.5127839,126.5297799,정좌표
687617,스시테이,"제주특별자치도 제주시 신설로6길 2-11, 1층 (아라이동)",33.4938082,126.5429455,정좌표
687627,삼치회사랑,"제주특별자치도 제주시 연삼로 355, 1층 (도남동, JNC패밀리4차아파트)",33.4904945,126.5197851,정좌표
687632,김밥천국신제주점,"제주특별자치도 제주시 제원1길 14, 1층 (연동)",33.4895149,126.4878654,정좌표
687642,삼다돈,"제주특별자치도 제주시 원노형남1길 27, 101호 (노형동)",33.4841237,126.4833779,정좌표
687962,신제주그랜드,제주특별자치도 제주시 신대로 70 (연동),33.4911453,126.4964171,정좌표
687972,만원포차,"제주특별자치도 제주시 남성로 108 (용담일동,(남성로 91))",33.50785,126.5154431,정좌표
687973,한신포차제주연동점,제주특별자치도 제주시 신대로16길 49 (연동),33.4867374,126.4912814,정좌표
687983,커먼브릭,제주특별자치도 제주시 월랑로 9 (노형동),33.4869377,126.4781019,정좌표
687984,전설의짬뽕,제주특별자치도 제주시 동광로 9 (이도일동),33.5039234,126.5321011,정좌표
687994,꽁양꽁양,"제주특별자치도 제주시 산천단동3길 16, 1층 (아라일동)",33.4491104,126.5593387,정좌표
688004,착한제주고등어,"제주특별자치도 제주시 신산로2길 25, 1층 (일도일동)",33.512177,126.5293833,정좌표
688014,제주흑돼지마씸,"제주특별자치도 제주시 탑동로 18, 1층 2호 (삼도이동)",33.5174298,126.522971,정좌표
688024,토크타임,"제주특별자치도 제주시 월랑로10길 29 (노형동,(월랑4로39))",33.490798,126.4781581,정좌표
688025,밀밭,"제주특별자치도 제주시 수덕로 13, 102호 (노형동,노형이화2차아파트)",33.4878751,126.4750728,정좌표
688088,만객,제주특별자치도 제주시 제원길 6 (연동),33.4894654,126.4892715,정좌표
688089,선명희피자삼양화북점,제주특별자치도 제주시 일주동로 372 (삼양이동),33.5209896,126.5838194,정좌표
688099,정한토속삼계탕원조설렁탕,제주특별자치도 제주시 신대로18길 16 (연동),33.4847657,126.4947672,정좌표
688179,편의점앞칼국수집,제주특별자치도 제주시 흥운길 38 (용담이동),33.5122029,126.5126017,정좌표
688182,호끌락다락,"제주특별자치도 제주시 조천읍 함덕10길 6, 1층",33.5417351,126.6640952,정좌표
688202,토담골,"제주특별자치도 제주시 신설로 28, 1층 (이도이동)",33.4969863,126.5353375,정좌표
688206,유군초밥,"제주특별자치도 제주시 서광로32길 19, 2층 (이도이동)",33.4990628,126.5288497,정좌표
688216,조오타설렁탕,"제주특별자치도 제주시 월랑로4길 34, 1층 (노형동)",33.4894174,126.4804084,정좌표
688240,월성삼계탕,"제주특별자치도 제주시 서광로5길 12, 101호 (용담일동, 현우빌라)",33.5011799,126.51445,정좌표
688241,꼬꼬반점,제주특별자치도 제주시 광양7길 32 (이도이동),33.5014834,126.5323407,인근좌표
688246,칠성낙지,"제주특별자치도 제주시 서부두남길 16-2, 1층 (건입동)",33.5154602,126.5278414,정좌표
688251,미미한식탁제주,제주특별자치도 제주시 국기로 5 (연동),33.4812668,126.4901024,정좌표
688261,귀족홍길동,"제주특별자치도 제주시 수덕5길 8, 1층 (노형동)",33.4869987,126.4769,정좌표
688269,아라돼지,"제주특별자치도 제주시 중앙로 583, 1층 제1호 (아라일동)",33.4712556,126.5459598,정좌표
688279,스크루지펍,제주특별자치도 제주시 국기로 44 (연동),33.4781597,126.4907448,정좌표
688289,무한정,"제주특별자치도 제주시 도두항서7길 3, 1층 (도두일동)",33.503471,126.4638957,정좌표
688299,왕생가든,"제주특별자치도 제주시 연신로 261-3, 1층 (영평동)",33.4821067,126.5605716,정좌표
688305,동천숯불갈비,"제주특별자치도 제주시 관덕로8길 8 (삼도이동,(남문로20))",33.5103259,126.5236104,정좌표
688309,만리성,제주특별자치도 제주시 진군길 31-12 (노형동),33.4797668,126.4817066,정좌표
688319,진산,제주특별자치도 제주시 동문로 146 (일도이동),33.5131503,126.5419379,정좌표
688321,백록집,"제주특별자치도 제주시 조천읍 함덕로 24, 1층",33.5418111,126.6727526,정좌표
688459,육장갈비외도점,"제주특별자치도 제주시 우정로11길 4, 1층 (외도일동)",33.4876697,126.4314658,정좌표
688462,팔복고기상회,"제주특별자치도 제주시 사라봉길 11, 1층 (건입동)",33.5148007,126.5396801,정좌표
688476,봉구비어제주일도점,제주특별자치도 제주시 고마로 92 (일도이동),33.5060804,126.5407252,정좌표
688481,계림,"제주특별자치도 제주시 일주서로 7810, 1층 (연동)",33.4933775,126.4810344,정좌표
688801,한정식담다,"제주특별자치도 제주시 해안마을10길 32, 1층 (해안동)",33.44736,126.4556927,정좌표
688802,어가,"제주특별자치도 제주시 1100로 3213-8, 지하2층 (노형동)",33.4728766,126.4832199,정좌표
688812,흑백돈,"제주특별자치도 제주시 조천읍 신북로 586, 1층",33.5386704,126.6458435,정좌표
688832,탐라요정,"제주특별자치도 제주시 광양10길 21, 1층 (이도이동)",33.4984941,126.5283385,정좌표
688842,신궁양궁카페,"제주특별자치도 제주시 신성로13길 5, 3층 (이도이동)",33.4995971,126.5292066,정좌표
688843,함덕에이플러스가든,"제주특별자치도 제주시 조천읍 함덕12길 51, 쉬젠비아채아파트 1층 101호",33.5418384,126.6637189,정좌표
688861,바당모살,"제주특별자치도 제주시 조천읍 함덕로 20, 1층",33.5137212,126.6815264,정좌표
688881,돈김치찜,"제주특별자치도 제주시 화삼로1길 5, 1층 (화북일동)",33.5143764,126.5791822,정좌표
688884,포차또랑,"제주특별자치도 제주시 광양10길 6, 2층 (이도이동)",33.4993,126.5294698,정좌표
688886,공단해장국,"제주특별자치도 제주시 복지로 96, 1층 (도남동)",33.487274,126.5239946,정좌표
688896,고창댁풍천장어낙지,"제주특별자치도 제주시 동제원길 42, 1층 (화북일동)",33.5201022,126.5601746,정좌표
688906,혜자,"제주특별자치도 제주시 다랑곶길 5, 1층 (노형동)",33.4872668,126.4792022,정좌표
688913,지코바아라점,"제주특별자치도 제주시 인다9길 27, 1층 101호 (아라일동)",33.4261379,126.5626925,정좌표
688923,비에이치씨무수천점,"제주특별자치도 제주시 노형로 44, 1층 (해안동)",33.4626738,126.4520942,정좌표
688933,마중,"제주특별자치도 제주시 고마로18길 5, 1층 (일도이동)",33.504269,126.5410236,정좌표
688941,네네치킨연동점,제주특별자치도 제주시 삼무로 82 (연동),33.4895354,126.4954734,정좌표
689021,국수마당본점,제주특별자치도 제주시 삼성로 65 (일도이동),33.5080638,126.5322532,정좌표
689031,항아리뚜껑아라점,"제주특별자치도 제주시 아란4길 88, 1층 (아라일동)",33.4711508,126.5421455,정좌표
689033,황가돈,"제주특별자치도 제주시 조천읍 신북로 455, 1층",33.5348965,126.6238226,정좌표
689051,아랑조을국수,"제주특별자치도 제주시 인다9길 3, 1층 (아라일동)",33.4370094,126.5656392,정좌표
689061,세컨드하우스,"제주특별자치도 제주시 인다2길 8-2, 101호 (아라일동)",33.4719786,126.5501884,정좌표
689068,제주삼춘네우도점,"제주특별자치도 제주시 우도면 우도해안길 1112, 1층",33.4976527,126.9690646,정좌표
689078,시머폿,"제주특별자치도 제주시 인다1길 65, 1층 (아라이동)",33.4742514,126.5523405,정좌표
689088,국물닭발집,"제주특별자치도 제주시 중앙로 195-2, 1층 100호 (이도일동, 포트빌)",33.5019823,126.5284947,정좌표
689098,제불노형본점,"제주특별자치도 제주시 월랑로6길 5, 1층 (노형동)",33.4886755,126.4775518,정좌표
689108,막둥이횟집,제주특별자치도 제주시 원노형6길 12-3 (노형동),33.4848845,126.4825544,정좌표
689116,공항가족식당,"제주특별자치도 제주시 공항로1길 9, 1층 (용담이동)",33.5034316,126.4999431,정좌표
689126,밥이맛있는집,"제주특별자치도 제주시 서광로4길 18, 1층 (오라일동)",33.4985378,126.5140945,정좌표
689136,김만덕객주,"제주특별자치도 제주시 임항로 68, 김만덕객주터 마동,사동 1층 (건입동)",33.5165796,126.532216,정좌표
689146,신짜우,"제주특별자치도 제주시 동화로1길 53-1, 1층 (화북일동)",33.5178426,126.5768663,정좌표
689156,토리노,"제주특별자치도 제주시 관덕로 41, 1층 (일도일동)",33.513411,126.5238282,정좌표
689166,최부자,"제주특별자치도 제주시 승천로 17, 1층 (이도이동)",33.4964652,126.5393499,정좌표
689206,투다리남서울점,제주특별자치도 제주시 신대로10길 24-1 (연동),33.490963,126.4941682,정좌표
689208,어신,제주특별자치도 제주시 신대로12길 39 (연동),33.4885921,126.4924059,정좌표
689218,정글북바이앨리스,"제주특별자치도 제주시 노연로 80, 2층 (연동)",33.4847577,126.4887056,정좌표
689228,범양,"제주특별자치도 제주시 관덕로 64-2, 1층 (이도일동)",33.5127256,126.5260118,정좌표
689238,도르멍국수,"제주특별자치도 제주시 조천읍 중산간동로 1305, 제1동 1층",33.5029546,126.6942576,정좌표
689258,노네임드봉개,"제주특별자치도 제주시 봉개동길 29-1, 제1동 1층 (봉개동)",33.4888019,126.593518,정좌표
689268,홍익스테이크제주점,"제주특별자치도 제주시 월랑로6길 17, 1층 (노형동)",33.4892317,126.4782059,정좌표
689269,남다른대구막창연동점,"제주특별자치도 제주시 신대로 131, 1층 (연동)",33.4854558,126.4968092,정좌표
689279,가야국수,"제주특별자치도 제주시 다랑곶길 19, 1층 (노형동)",33.4879663,126.4800776,정좌표
689287,산방산,"제주특별자치도 제주시 신대로16길 44, 1층 (연동)",33.487151,126.4914841,정좌표
689319,24시뼈다귀탕삼화점,"제주특별자치도 제주시 일주동로 222, 1층 (화북일동)",33.5186219,126.5692996,정좌표
689329,호봉토스트시청점,"제주특별자치도 제주시 중앙로 205, 1층 (이도일동)",33.5030704,126.5285942,정좌표
689337,대게나라,"제주특별자치도 제주시 연북로 550, 지1층 (아라일동)",33.4858923,126.518754,정좌표
689385,돈사무소노형점,"제주특별자치도 제주시 정존11길 39, 1층 (노형동)",33.4866334,126.4740283,정좌표
689395,아구가좋아,"제주특별자치도 제주시 우정로 22, 1층 (외도일동)",33.4909744,126.4307186,정좌표
689398,소렉,"제주특별자치도 제주시 은남2길 41, 1층 (연동)",33.4881733,126.4913351,정좌표
689408,녹두네,제주특별자치도 제주시 원노형로 42 (노형동),33.4850452,126.484782,정좌표
689414,은영수산,제주특별자치도 제주시 금산5길 15 (화북일동),33.5243457,126.564524,정좌표
689415,형제돼지갈비,제주특별자치도 제주시 신산로 51-1 (일도이동),33.5089819,126.5335744,정좌표
689416,검은쇠몰고오는,제주특별자치도 제주시 신대로20길 27 (연동),33.4835685,126.4934387,정좌표
689426,주민상회외도점,제주특별자치도 제주시 우정로13길 7 (외도일동),33.4870794,126.4319821,정좌표
689429,바다119,"제주특별자치도 제주시 구남로2길 11, 1층 (이도이동)",33.4882932,126.5332336,정좌표
689437,온평,제주특별자치도 제주시 서광로32길 27 (이도이동),33.4983903,126.5293174,정좌표
689447,비에이치씨치킨일도점,"제주특별자치도 제주시 동문로 126, 지1층 101호 (일도이동)",33.5133375,126.537403,정좌표
689457,내고향해장국,제주특별자치도 제주시 월랑로4길 14 (노형동),33.4882352,126.4789173,정좌표
689467,정실곤드레집,"제주특별자치도 제주시 아연로 176, 1층 (오라이동)",33.4747642,126.512388,정좌표
689477,제주오면돼지,"제주특별자치도 제주시 서해안로 560 (용담삼동,(서해안로111))",33.5196613,126.4986073,정좌표
689480,돌담집,제주특별자치도 제주시 용두암길 52 (용담이동),33.5130364,126.5139898,정좌표
689484,조아맘치킨피자,제주특별자치도 제주시 신대로 134 (연동),33.4853771,126.4961887,정좌표
689486,돈보따리,제주특별자치도 제주시 제원길 6 (연동),33.4894654,126.4892715,정좌표
689542,아름다운한라산,제주특별자치도 제주시 선돌목동길 56-46 (오등동),33.4446301,126.5445663,정좌표
689622,인생건어물노형점,제주특별자치도 제주시 정존11길 31 (노형동),33.4861394,126.4747621,정좌표
689626,제주나누기,"제주특별자치도 제주시 신성로 105, 2층 (이도이동)",33.4971422,126.530194,정좌표
689630,해선,제주특별자치도 제주시 서부두길 26 (건입동),33.5183177,126.5285583,정좌표
689670,여진이네,"제주특별자치도 제주시 전농로 46, 1층 (삼도일동)",33.5043145,126.5180432,정좌표
689675,뮌헨,"제주특별자치도 제주시 수덕9길 48, 102동 101호 (노형동,대원상록수5차)",33.4853357,126.4730493,정좌표
689695,호박이네,제주특별자치도 제주시 신광로10길 21 (연동),33.4837342,126.4874312,정좌표
689705,제주밤밤,"제주특별자치도 제주시 수덕로 33, 1층 (노형동)",33.4866641,126.4735231,정좌표
689712,돈게도라,제주특별자치도 제주시 사장길 8 (연동),33.4848729,126.495582,정좌표
689722,제주깊은바당,제주특별자치도 제주시 도두항서길 15 (도두일동),33.5057148,126.4662828,정좌표
689732,맛뜨락,"제주특별자치도 제주시 구남동2길 19-2, 1층 (이도이동)",33.4892362,126.5357484,정좌표
689735,푸른솔맑은향,"제주특별자치도 제주시 고사마루길 109, 제2동 지하1층 (노형동)",33.4717506,126.4741149,정좌표
689745,토대력,제주특별자치도 제주시 신대로14길 48 (연동),33.4879774,126.4916064,정좌표
689753,동문삼원횟집,"제주특별자치도 제주시 관덕로14길 18, 1~2층 (이도일동)",33.5116574,126.5261752,정좌표
689763,서문장터해장국,"제주특별자치도 제주시 탑동로 134, 1층 (용담일동)",33.5133799,126.5181309,정좌표
689773,공주네국수,"제주특별자치도 제주시 삼봉로 353, 1층 (봉개동)",33.4913827,126.5937948,정좌표
689783,번지없는주막,제주특별자치도 제주시 원노형로 42 (노형동),33.4850452,126.484782,정좌표
689819,모꼬지,"제주특별자치도 제주시 신설로7길 6, 1층 (아라이동)",33.4937736,126.5451156,정좌표
689835,벌랑포구,"제주특별자치도 제주시 벌랑길 61, 1층 (삼양삼동)",33.5260854,126.5769939,정좌표
689844,스페샬삼도점,"제주특별자치도 제주시 고전길 31 (이도일동,(1층))",33.5084382,126.5244529,정좌표
689852,제주창스닥,"제주특별자치도 제주시 선덕로 4, 1층 (연동)",33.485454,126.4971084,정좌표
689862,페리카나신제주점,제주특별자치도 제주시 신대로 124 (연동),33.4863439,126.496215,정좌표
689870,두툼한고기돈돼지,"제주특별자치도 제주시 조천읍 함덕19길 3, 1층",33.5410492,126.6698885,정좌표
689890,꿀꿀이식당,"제주특별자치도 제주시 삼무로5길 3, 1층 (연동)",33.4905172,126.4922811,정좌표
689895,주민상회아라점,"제주특별자치도 제주시 인다6길 61, 1층 (아라일동)",33.3321457,126.2577419,정좌표
689897,고요새,제주특별자치도 제주시 선사로8길 11 (삼양일동),33.5271456,126.5895044,정좌표
689907,외도반점,"제주특별자치도 제주시 우정로7길 24, 102호 (외도일동)",33.488977,126.4334586,정좌표
689917,방일해장국외도점,"제주특별자치도 제주시 우정로16길 14, 1층 (외도일동)",33.4859289,126.4288395,정좌표
689945,신마포갈매기제주시청점,"제주특별자치도 제주시 신성로13길 31, 1층 (이도이동)",33.4976068,126.5306004,정좌표
689955,노가리앤비어연동점,"제주특별자치도 제주시 삼무로7길 40, 1층 (연동)",33.4901947,126.4932659,정좌표
689964,통물,"제주특별자치도 제주시 조천읍 신북로 468, 1층",33.5435511,126.6602687,정좌표
690044,올래정육식당,"제주특별자치도 제주시 테우해안로 166, 지하1층 (이호일동)",33.4968019,126.4515591,정좌표
690050,은빛고을,"제주특별자치도 제주시 지석15길 1, 1층 (삼양이동)",33.5215517,126.586392,정좌표
690060,걸작떡볶이제주이도점,"제주특별자치도 제주시 남광로2길 7-2, 1층 (이도이동)",33.4918688,126.5376506,정좌표
690070,아임파인,"제주특별자치도 제주시 지석8길 13-20, 1층 (삼양이동)",33.5198805,126.5822428,정좌표
690080,오롯,"제주특별자치도 제주시 신설로11길 2-10, 1층 (아라이동)",33.4912804,126.5445739,정좌표
690090,다시올레국수,"제주특별자치도 제주시 평전길 6, 1층 (삼도일동)",33.5005571,126.5193491,정좌표
690091,영주말가든,"제주특별자치도 제주시 연북로 196, 1층 (오라이동)",33.4858923,126.518754,정좌표
690101,소완도식당,"제주특별자치도 제주시 임항로 80, 6동 1층 (건입동)",33.5183479,126.5387193,정좌표
690108,디디치킨연동점,"제주특별자치도 제주시 국기로 43, 1층 (연동)",33.479361,126.4903477,정좌표
690118,제주한라더커먼스,"제주특별자치도 제주시 한라대학로 38, 지하1층 (노형동, 금호세계교육관)",33.4770394,126.4748646,정좌표
690128,다윤이네,"제주특별자치도 제주시 구남로 43, 제3호 (이도이동, 주공2아파트)",33.4904229,126.533018,정좌표
690133,국수대표,"제주특별자치도 제주시 노형14길 12, 1층 (노형동)",33.4771889,126.4742632,정좌표
690143,해남아줌마,제주특별자치도 제주시 무근성7길 11 (삼도이동),33.5138019,126.5198694,정좌표
690151,용팔이막창노형점,제주특별자치도 제주시 월랑로4길 17 (노형동),33.4886816,126.4790795,정좌표
690161,풍미원,"제주특별자치도 제주시 건주로4길 6-4, 2층 (도련일동)",33.5166785,126.5790859,정좌표
690171,골프존클럽하우스,제주특별자치도 제주시 월랑로 51 (노형동),33.489732,126.4748325,정좌표
690173,통큰불곱창,제주특별자치도 제주시 연삼로 503 (이도이동),33.5005643,126.543509,정좌표
690183,정우말가든,제주특별자치도 제주시 아연로 17 (연동),33.4802532,126.4975769,정좌표
690193,김명자굴국밥화북점,제주특별자치도 제주시 동화로 32 (화북일동),33.517396,126.5726802,정좌표
690203,한국교회이기풍선교기념관,제주특별자치도 제주시 조천읍 남조로 2125,33.4562845,126.6600087,정좌표
690207,풍채,"제주특별자치도 제주시 광양13길 6-5 (이도이동,(고산1로 8))",33.4984889,126.5316196,정좌표
690211,경주댁소주방,제주특별자치도 제주시 진군길 56 (노형동),33.4771304,126.4808059,정좌표
690213,더샤브,"제주특별자치도 제주시 전농로 113, 101호 (삼도이동)",33.5046406,126.5251996,정좌표
690222,허디거디이도점,"제주특별자치도 제주시 신설로11길 2-8, 1층 (아라이동)",33.4912804,126.5445739,정좌표
690232,제주이모집,"제주특별자치도 제주시 동문로6길 1, 1층 (일도일동)",33.5128098,126.5290734,정좌표
690242,문희,"제주특별자치도 제주시 신설로11길 13, 1층 (아라이동)",33.492908,126.5461683,정좌표
690266,한솥도시락제주화북점,"제주특별자치도 제주시 화삼로 9, 1층 (화북일동)",33.5143764,126.5791822,정좌표
690276,사천빠슈마라탕,"제주특별자치도 제주시 조천읍 조함해안로 514, 2층",33.5424913,126.667586,정좌표
690296,니들이족발을알어,"제주특별자치도 제주시 우정로4길 3-2, 1층 (외도일동)",33.4917078,126.4301825,정좌표
690305,세피베이글,"제주특별자치도 제주시 조천읍 함덕27길 32-8, 1층",33.5420322,126.6726878,정좌표
690325,이솔라,"제주특별자치도 제주시 감수북길 41, 2층 (삼양이동)",33.5256376,126.5841005,정좌표
690335,두끼떡볶이제주노형점,"제주특별자치도 제주시 연북로 48, 203호 (노형동)",33.4858923,126.518754,정좌표
690345,순두부엔짬뽕,"제주특별자치도 제주시 통물길 30, 지하1층 (외도일동)",33.4894183,126.4348515,정좌표
690505,네네치킨조천함덕점,"제주특별자치도 제주시 조천읍 함덕20길 3, 1층",33.542551,126.667092,정좌표
690525,히아담,제주특별자치도 제주시 과원로 28 (연동),33.4760842,126.4865249,정좌표
690535,숲속의도토리,제주특별자치도 제주시 도근내길 18 (외도일동),33.4924245,126.4330307,정좌표
690545,선인가든,제주특별자치도 제주시 조천읍 선교로 201-8,33.4859035,126.700641,정좌표
690557,레드제플린,제주특별자치도 제주시 신광로 37 (연동),33.4887215,126.4903787,정좌표
690569,홍키호테,"제주특별자치도 제주시 인다14길 40, 1층 (아라일동)",33.4714067,126.5468857,정좌표
690579,호진명도암식당,"제주특별자치도 제주시 명림로 163, 1층 (봉개동)",33.4724271,126.6105952,정좌표
690580,큰동네국수,제주특별자치도 제주시 신광로6길 2 (연동),33.4880428,126.4896524,정좌표
690587,제노티카,"제주특별자치도 제주시 국기로 35, 2층 (연동)",33.4787871,126.4903725,정좌표
690594,드리켜비어,"제주특별자치도 제주시 신설로2길 2, 1층 (이도이동)",33.4943334,126.5427581,정좌표
690596,갈비아빠,"제주특별자치도 제주시 신대로18길 51, 1층 (연동)",33.4846103,126.4910386,정좌표
690606,페리카나치킨일도점,"제주특별자치도 제주시 천수로 25-1, 1층 (이도이동)",33.5029093,126.539939,정좌표
690608,맵수다,제주특별자치도 제주시 신광로4길 7 (연동),33.4887235,126.4890606,정좌표
690618,괸당집외도점,"제주특별자치도 제주시 우정로13길 7 (외도일동,(우정동6로7))",33.4870794,126.4319821,정좌표
690628,빨간집,"제주특별자치도 제주시 광양13길 7, 1층 (이도이동)",33.4989419,126.5311998,정좌표
690708,뽀요요,"제주특별자치도 제주시 우도면 우도해안길 128, 1층",33.4942494,126.9467981,정좌표
690718,향나무집,"제주특별자치도 제주시 오복4길 26, 1층 (이도이동)",33.4943505,126.5374012,정좌표
690724,불닭공장아라점,"제주특별자치도 제주시 중앙로 555, 1층 (아라일동)",33.4737697,126.5459253,정좌표
690726,리얼안심탕수육앤리얼하노이,"제주특별자치도 제주시 건주로4길 20, 1층 (도련일동)",33.5166785,126.5790859,정좌표
690731,마차이짬뽕,"제주특별자치도 제주시 과원북4길 19, 1층 (노형동)",33.4813384,126.4843,정좌표
690741,제주탑동골목,"제주특별자치도 제주시 중앙로5길 13, 1층 (일도일동)",33.5153315,126.526115,정좌표
690751,보목바다나라횟집2호점,"제주특별자치도 제주시 아란9길 19, 1층 (아라일동)",33.4723479,126.5436636,정좌표
690761,백마가든,"제주특별자치도 제주시 조천읍 중산간동로 347, 1층",33.5029546,126.6942576,정좌표
690781,일품샤브샤브,제주특별자치도 제주시 동광로 161 (일도이동),33.5064332,126.5384595,정좌표
690790,제주맑음,"제주특별자치도 제주시 관덕로3길 1-1, 1층 (삼도이동)",33.5134302,126.5210586,정좌표
690800,화수분,제주특별자치도 제주시 연수중길 3 (일도이동),33.502418,126.5458478,정좌표
690944,금산서당골,제주특별자치도 제주시 아봉로 73-1 (아라이동),33.4711455,126.5604727,정좌표
691024,제주관덕정분식,"제주특별자치도 제주시 관덕로8길 7-9, 1층 (일도일동)",33.5125989,126.5243823,정좌표
691034,바베큐통족구이보쌈아라점,"제주특별자치도 제주시 아란5길 19-5, 1층 (아라일동)",33.5540964,126.7958924,정좌표
691036,자담치킨함덕점,"제주특별자치도 제주시 조천읍 함와로 23, 1층",33.5145232,126.6777359,정좌표
691104,구구토종닭,"제주특별자치도 제주시 조천읍 남조로 1767, 1층",33.4254173,126.6744246,정좌표
691280,사계오름,제주특별자치도 제주시 복지로3길 2-9 (도남동),33.4892832,126.5217059,정좌표
691288,서민당,"제주특별자치도 제주시 연신로 24, 1층 (이도이동)",33.4987724,126.5450264,정좌표
691317,해즈빈노형씨지브이점,"제주특별자치도 제주시 노형로 407, 516호 (노형동)",33.485812,126.4783486,정좌표
691325,피시야,"제주특별자치도 제주시 조천읍 조함해안로 582, 1층",33.5440419,126.6735793,정좌표
691403,메밀꽃제주,제주특별자치도 제주시 조천읍 중산간동로 478,33.5029546,126.6942576,정좌표
691479,노형막창고을,"제주특별자치도 제주시 월랑로10길 36 (노형동,(월랑4로52))",33.4910274,126.4789944,정좌표
691484,금강,"제주특별자치도 제주시 서부두남길 22, 1층 (건입동)",33.5160092,126.5277567,정좌표
691504,일비집,"제주특별자치도 제주시 조천읍 신북로 227, 1층",33.5362849,126.6371856,정좌표
691516,제주클럽하우스,"제주특별자치도 제주시 중앙로 492, 2층 (아라일동)",33.4814679,126.5411458,정좌표
691518,유카페,"제주특별자치도 제주시 신대로10길 36-1, 1층 (연동)",33.4911208,126.4926171,정좌표
691522,일구칠사뼈감탕,"제주특별자치도 제주시 첨단로3길 10, 2층 (영평동)",33.4564727,126.5714479,정좌표
691570,막창먹는놈함덕점,"제주특별자치도 제주시 조천읍 신북로 521-1, 1층",33.5419572,126.66571,정좌표
691638,제주본가,"제주특별자치도 제주시 조천읍 비자림로 684, 1층",33.4319106,126.696186,정좌표
691654,회포,"제주특별자치도 제주시 동화로 7, 107호 (화북일동)",33.5194134,126.5732014,정좌표
691657,제주여행가야밀면,"제주특별자치도 제주시 원노형9길 14, 1층 (노형동)",33.4880214,126.4849432,정좌표
691706,지오,"제주특별자치도 제주시 도남로3길 6, 1층 (도남동)",33.4978986,126.5261738,정좌표
691715,맛있는집밥,"제주특별자치도 제주시 원노형로 8, 1층 102호 (노형동, 조양주택)",33.4877643,126.4836476,정좌표
691735,문희영해물아구찜,"제주특별자치도 제주시 연북로 199, 1층 (오라이동)",33.4822496,126.5026002,정좌표
691829,노포갈비,"제주특별자치도 제주시 신성로 82-2, 1층 (도남동)",33.4953799,126.5280921,정좌표
691908,담,제주특별자치도 제주시 삼무로9길 39 (연동),33.4901971,126.4948013,정좌표
691912,고기중독,제주특별자치도 제주시 신대로12길 32 (연동),33.4888522,126.493188,정좌표
691929,파스쿠찌 삼화지구점,"제주특별자치도 제주시 건주로4길 10-4, 2층 (도련일동)",33.516388,126.579891,정좌표
691958,우도상회,"제주특별자치도 제주시 우도면 하우목길 64, 1층",33.5134546,126.9487881,정좌표
691971,정선할매곤드레밥,"제주특별자치도 제주시 승천로 81, 1층 (아라이동)",33.4952739,126.539932,정좌표
692009,신촌살롱,"제주특별자치도 제주시 조천읍 신북로 77, B동 1층",33.5349126,126.6221093,정좌표
692011,주민상회한라대점,"제주특별자치도 제주시 진군길 50, 1층 (노형동)",33.4774946,126.4808081,정좌표
692015,물팡과허벅,"제주특별자치도 제주시 원노형로 35, 103호 (노형동)",33.485575,126.4851289,정좌표
692017,일공오이,"제주특별자치도 제주시 진남로6길 23, 1층 (화북일동)",33.5208285,126.5656779,정좌표
692020,호또모또,"제주특별자치도 제주시 서해안로 291-4, 2층 (도두이동)",33.5055899,126.4897243,정좌표
692041,좋은아저씨,"제주특별자치도 제주시 우정로11길 14, 1층 (외도일동)",33.4876624,126.4324526,정좌표
692057,7번가피자제주외도점,"제주특별자치도 제주시 우정로 22, 1층 (외도일동)",33.4909744,126.4307186,정좌표
692081,추자북경,"제주특별자치도 제주시 추자면 신양서길 13-9, 1층",33.9419531,126.3204842,정좌표
692085,방일해장국아라점,"제주특별자치도 제주시 중앙로 532, 1층 (아라일동)",33.4757165,126.5446491,정좌표
692095,스시우다,"제주특별자치도 제주시 용마로 30, 1층 (용담삼동)",33.5143245,126.5058034,정좌표
692158,백리향,제주특별자치도 제주시 조천읍 신북로 244,33.5370188,126.6385048,정좌표
695134,원조홍가네,제주특별자치도 제주시 월랑로 31 (노형동),33.4884791,126.4763168,정좌표
695194,제주삼다도횟집1호점,제주특별자치도 제주시 서해안로 568 (용담삼동),33.5192719,126.4991403,정좌표
695228,이화성,제주특별자치도 제주시 조천읍 남조로 1788,33.4273158,126.6744882,정좌표
695262,손가네,제주특별자치도 제주시 중앙로1길 2 (건입동),33.5163085,126.5252557,정좌표
695269,진두루치기,"제주특별자치도 제주시 중앙로2길 15-1, 1층 (삼도이동)",33.5167752,126.5231887,정좌표
695283,라지마할,"제주특별자치도 제주시 신광로 43, 2층 (연동)",33.4882715,126.4903671,정좌표
695305,밀면촌,제주특별자치도 제주시 승천로 15 (이도이동),33.4965815,126.5391973,정좌표
695359,삼다가,"제주특별자치도 제주시 신대로9길 27, 1층 (연동)",33.4909234,126.499677,정좌표
695366,조아찌,"제주특별자치도 제주시 테우해안로 160, 1층 (이호일동)",33.4967224,126.4508256,정좌표
695416,까사델마마223,"제주특별자치도 제주시 조천읍 신촌서5길 99-1, 제2동 1층",33.5354905,126.6151871,정좌표
695784,아라오리,"제주특별자치도 제주시 516로 3155-30, 1층 (아라일동)",33.4554067,126.5507214,정좌표
695786,화초,"제주특별자치도 제주시 동광로 26, 2층 (이도이동)",33.50175,126.5319,정좌표
695804,마포화곱창,"제주특별자치도 제주시 연삼로 436, 1층 101호 (이도이동, 하늘그린5차)",33.4924868,126.5350872,정좌표
695837,원항아리칼국수,제주특별자치도 제주시 복지로1길 11 (도남동),33.488648,126.5204611,정좌표
695873,은행나무집,제주특별자치도 제주시 국기중길 22-9 (연동),33.4784438,126.4914241,정좌표
695883,명동춘천닭갈비인제점,제주특별자치도 제주시 연수로1길 4 (일도이동),33.5019125,126.5436405,정좌표
695887,부에난떡볶이제주점,"제주특별자치도 제주시 정원로 41, 1층 (노형동)",33.4803463,126.4777974,정좌표
695892,민타이,"제주특별자치도 제주시 노형11길 16, 1층 (노형동)",33.4771889,126.4742632,정좌표
695948,반올림피자샵노형점,"제주특별자치도 제주시 광평동로 49, 1층 (노형동)",33.4827682,126.4695717,정좌표
695967,동막골,"제주특별자치도 제주시 구산로 43-1, 1층 (아라일동)",33.4842569,126.5392633,정좌표
696291,라멩하우스,"제주특별자치도 제주시 조천읍 북촌7길 7, 1층",33.5484422,126.6936876,정좌표
696341,가야아구찜,"제주특별자치도 제주시 도공로 20, 1층 (도두일동)",33.5044863,126.4652875,정좌표
696353,무지개맥주서사라점,"제주특별자치도 제주시 서광로 221, 1층 (삼도일동)",33.5000762,126.5203753,정좌표
696368,서가앤쿡노형점,"제주특별자치도 제주시 노형8길 16, 1,2층 (노형동)",33.4846371,126.4840747,정좌표
696441,신옛촌제주점,"제주특별자치도 제주시 오도11길 19-14, 1층 (이호이동)",33.4897049,126.4607549,정좌표
696572,진돼지,"제주특별자치도 제주시 은수길 65, B동 1층 (연동)",33.5111091,126.5021075,정좌표
696642,이퀄,"제주특별자치도 제주시 산지로 21, 1층 (건입동)",33.5151532,126.5295461,정좌표
696689,탐라우돈,제주특별자치도 제주시 다랑곶2길 52 (노형동),33.4908253,126.4759744,정좌표
697109,빙고,제주특별자치도 제주시 사장1길 33 (연동),33.4850803,126.492243,정좌표
697112,모두모여,제주특별자치도 제주시 수덕로 79 (노형동),33.4838727,126.4699215,정좌표
697113,등촌샤브칼국수,"제주특별자치도 제주시 화삼로 19, 2층 (화북일동)",33.5143764,126.5791822,정좌표
697477,만금,"제주특별자치도 제주시 수덕5길 58, 1층 (노형동)",33.4840413,126.4732162,정좌표
697513,맛집올레,"제주특별자치도 제주시 지석13길 9, 101호",33.52189,126.5331,정좌표
697527,안녕제주,"제주특별자치도 제주시 조천읍 함덕18길 19, 1층",33.5386457,126.6711623,정좌표
697777,포35,"제주특별자치도 제주시 문송길 35, 1층 (연동)",33.4865013,126.4974507,정좌표
697795,본죽제주법원점,"제주특별자치도 제주시 중앙로 320-1, 1층 (이도이동)",33.50361,126.5383496,정좌표
697815,청담이상신제주점,"제주특별자치도 제주시 원노형로 66, 1층 (노형동)",33.4828091,126.4846166,정좌표
697835,삼미횟집제주공항점,제주특별자치도 제주시 도두항서5길 1 (도두일동),33.5045622,126.4638484,정좌표
698123,제주돔베고기집,제주특별자치도 제주시 월랑로4길 6 (노형동),33.4878961,126.4785434,정좌표
698355,한라구공탄,"제주특별자치도 제주시 수정길 10, 1층 (외도일동)",33.4916866,126.4290068,정좌표
698398,제제김밥,"제주특별자치도 제주시 원노형로 43-1, 1층 (노형동)",33.4846762,126.4851349,정좌표
698472,등불,제주특별자치도 제주시 삼무로 74 (연동),33.4895616,126.4945088,정좌표
698490,도마족발,제주특별자치도 제주시 용화로10길 1 (용담이동),33.5096203,126.5079879,정좌표
698492,심이네,"제주특별자치도 제주시 동문로 19-1, 1층 (일도일동)",33.5132533,126.5288367,정좌표
698529,봉구비어,"제주특별자치도 제주시 서광로32길 15, 2층 (이도이동)",33.4992888,126.5286737,정좌표
698737,헬로우도,"제주특별자치도 제주시 우도면 우도해안길 218, 1층 제1호",33.4998615,126.9442011,정좌표
698796,대도식당연동점,"제주특별자치도 제주시 은남길 31, 1층 (연동)",33.4869958,126.4959294,정좌표
698810,난타오천용담점,"제주특별자치도 제주시 용담로 84 (용담이동,(1층))",33.5122604,126.5116062,정좌표
698814,한솥도시락제주연동대림점,"제주특별자치도 제주시 국기로 9 (연동,(1층))",33.4808488,126.4900718,정좌표
698866,팔플러스퓨전중식,"제주특별자치도 제주시 성신로1길 23, 1층 (연동)",33.491806,126.4878905,정좌표
698897,고향각재기,"제주특별자치도 제주시 구남동5길 1, 1층 (이도이동)",33.4905946,126.5413035,정좌표
698903,함덕식탁,"제주특별자치도 제주시 조천읍 함덕로 28, 1층",33.5419571,126.6723272,정좌표
699077,땅땅치킨삼도점,"제주특별자치도 제주시 서사로 79, 1층 (삼도이동)",33.5053694,126.5202379,정좌표
699078,부가네얼큰이본점,"제주특별자치도 제주시 관덕로 15, 1층 (삼도이동)",33.5132482,126.5209196,정좌표
699102,상구비어삼화점,"제주특별자치도 제주시 화삼로 166, 105호 (삼양이동, 부영5차상가동)",33.5143764,126.5791822,정좌표
699105,자작나무,"제주특별자치도 제주시 아연로 23, 1층 (연동)",33.4798361,126.49798,정좌표
699267,호로락,"제주특별자치도 제주시 우도면 우도해안길 1132, 1층",33.4977772,126.9676695,정좌표
699456,레이지리자드,"제주특별자치도 제주시 조천읍 함와로 566-29, 212동 1층",33.5145232,126.6777359,정좌표
699460,피맥데이,"제주특별자치도 제주시 고마로 90, 2층 (일도이동)",33.5062096,126.5406757,정좌표
699461,올레실내포장마차,제주특별자치도 제주시 추자면 추자로 52,33.9625462,126.2941947,정좌표
699470,돈후명가,제주특별자치도 제주시 연동7길 42 (연동),33.4862644,126.4904913,정좌표
699483,동방명품치킨,제주특별자치도 제주시 번영로 527 (봉개동),33.4890582,126.5976737,정좌표
699532,청림해장,제주특별자치도 제주시 남광로2길 7 (이도이동),33.4918688,126.5376506,정좌표
699550,용두골,"제주특별자치도 제주시 서해안로 644, 2층 (용담삼동)",33.5164234,126.505585,정좌표
699555,담뽀뽀,"제주특별자치도 제주시 아란2길 56, 1층 (아라일동)",33.4261379,126.5626925,정좌표
699595,대왕민물장어,제주특별자치도 제주시 남광북1길 32-1 (이도이동),33.49593,126.5368613,정좌표
699599,규태네,"제주특별자치도 제주시 노연로 55 (노형동,(연동로136))",33.4861611,126.4861656,정좌표
699683,탐궁숯불갈비,"제주특별자치도 제주시 우령6길 61, 1층 (외도일동)",33.4857889,126.4291058,정좌표
699692,부가네얼큰이한라점,제주특별자치도 제주시 정존5길 1 (노형동),33.4830005,126.4745729,정좌표
699702,일품,"제주특별자치도 제주시 동광로6길 17, 1층 (이도이동)",33.5006224,126.5326447,정좌표
699726,황재돈,"제주특별자치도 제주시 우정로13길 5 (외도일동,102호(우정동6로5))",33.4871048,126.4317772,정좌표
699731,솔지시청점,제주특별자치도 제주시 광양13길 14 (이도이동),33.4990825,126.5318819,정좌표
699955,신정,"제주특별자치도 제주시 고마로14길 16 (일도이동,용인아파트상가102호(가령골1로30))",33.505902,126.5394753,정좌표
699963,먹고보자,제주특별자치도 제주시 선반로 40 (화북일동),33.5147875,126.5622161,정좌표
699979,국수마씸,"제주특별자치도 제주시 관덕로2길 24 (삼도이동,(1층))",33.510963,126.5210123,정좌표
700083,민들레식탁,제주특별자치도 제주시 국기로 29 (연동),33.4792785,126.4900788,정좌표
700093,서사라모이세해장국직영점,"제주특별자치도 제주시 서광로5길 37, 101호 (용담일동)",33.5034172,126.5142597,정좌표
700113,컨츄리,제주특별자치도 제주시 만덕로 23 (건입동),33.5145223,126.532226,정좌표
700121,금커피별빙수제주일도점,제주특별자치도 제주시 동광로 112 (일도이동),33.5062451,126.539474,정좌표
700123,저팔계깡통숯불구이,"제주특별자치도 제주시 조천읍 신북로 523, 1층",33.5420349,126.6660566,정좌표
700809,불타는여고24시떡볶이중앙여고점,"제주특별자치도 제주시 구남동5길 14, 1층 (이도이동)",33.4899183,126.5402938,정좌표