Column1,name,address,Latitude,Longitude,상태
1718954,무우수커피로스터스,제주특별자치도 제주시 조천읍 조천11길 22-2,33.5378,126.6384,정좌표
1719034,더벤티제주노형점,"제주특별자치도 제주시 월랑로 5, 1층 (노형동)",33.48669,126.4783,정좌표
1719062,베이크,제주특별자치도 제주시 우정로 60 (외도일동),33.48752,126.4307,정좌표
1719085,노형로22번가,"제주특별자치도 제주시 노형로 22, 2층 (해안동)",33.46162,126.4505,정좌표
1719087,앤티앤스프레즐제주시청점,"제주특별자치도 제주시 중앙로 222, 1층 (이도이동)",33.49975,126.5295,정좌표
1719140,디오커피랩,"제주특별자치도 제주시 과원로 70, 1층 (연동)",33.4758,126.4912,정좌표
1719176,카페679,"제주특별자치도 제주시 조천읍 선교로 679, 1층",33.44769,126.7035,정좌표
1719190,블루메베이글,"제주특별자치도 제주시 가령로4길 3, 1층 (이도이동)",33.49671,126.5331,정좌표
1719259,지에스25노형타워점,"제주특별자치도 제주시 노형로 407, 노형타워 1층 108호 (노형동)",33.48582,126.4783,정좌표
1719556,도리관광농원,"제주특별자치도 제주시 조천읍 비자림로 607, 1~2층",33.43395,126.6727,정좌표
1719562,고도,"제주특별자치도 제주시 어영길 15, 1층 (용담삼동)",33.51907,126.4951,정좌표
1719746,오렌다핏,"제주특별자치도 제주시 조천읍 함덕18길 19, 2층",33.53948,126.6702,정좌표
1719752,탤러해시,"제주특별자치도 제주시 월랑로 47, 주립빌딩 1층 (노형동)",33.48947,126.475,정좌표
1719755,아꼬운제주,"제주특별자치도 제주시 오광로 92, 현하우스 1층 (이호이동)",33.48781,126.4591,정좌표
1719765,이든,"제주특별자치도 제주시 진남로 21-37, 1층 (화북일동)",33.52345,126.5647,정좌표
1719770,탐앤탐스커피외도점,"제주특별자치도 제주시 월대5길 6, 1층 (외도이동)",33.49453,126.4356,정좌표
1719812,세븐일레븐현대오피스텔점,"제주특별자치도 제주시 도령로 87, 현대오피스텔 1층 103호 (연동)",33.49087,126.4873,정좌표
1719819,세듈러스,"제주특별자치도 제주시 아란11길 9-1, 1층 (아라일동)",33.4702,126.543,정좌표
1719824,양가형제노형,"제주특별자치도 제주시 노형4길 10, 1층 1호 (노형동)",33.48181,126.4753,정좌표
1719901,오설록딜리버리스토어,"제주특별자치도 제주시 연북로 92, 진현빌딩 3층 (연동)",33.4815,126.4912,정좌표
1719933,씨유제주스카이점,"제주특별자치도 제주시 노연로 117-1, 1층 (연동, 거송빌)",33.486,126.4928,정좌표
1720013,베이커블,"제주특별자치도 제주시 노형7길 9-5, 라니빌 1층 (노형동)",33.48046,126.4768,정좌표
1720033,세븐일레븐제주대학교병원점,"제주특별자치도 제주시 아란13길 15, 제주대학교병원 본관3동 지하1층 (아라일동)",33.46721,126.5452,정좌표
1720043,칼라,"제주특별자치도 제주시 화삼북로2길 19, 103호 (화북일동)",33.51614,126.5767,인근좌표
1720385,엔제리너스제주공항1층점,"제주특별자치도 제주시 공항로 2, 제주국제공항 여객청사 1층 (용담이동)",33.50621,126.4964,정좌표
1720504,지에스25도련희망점,"제주특별자치도 제주시 도련길 22, 1층 (도련일동)",33.50903,126.5877,정좌표
1720505,읍천리382제주연동점,"제주특별자치도 제주시 연북로 82, 신성빌딩 1층 (연동)",33.48153,126.4901,정좌표
1720536,경성꽈배기노형점,"제주특별자치도 제주시 연북로 24, 아델리안 지하1층 103호 (노형동)",33.48167,126.4839,정좌표
1720566,연화차,"제주특별자치도 제주시 조천읍 선교로 46, 1층",33.48757,126.7148,정좌표
1721376,벌크커피제주시청점,"제주특별자치도 제주시 중앙로 228, 1층 (이도이동)",33.49928,126.5298,정좌표
1721386,마마파운드,"제주특별자치도 제주시 신설로9길 20, 가동 1층 101호 (이도이동, 영성빌라)",33.49407,126.5457,정좌표
1721407,올에프,"제주특별자치도 제주시 조천읍 함덕6길 36, 1층",33.54031,126.6608,정좌표
1721457,요우르,"제주특별자치도 제주시 조천읍 조함해안로 343, 1층",33.54931,126.6541,정좌표
1721617,더벤티제주삼화점,"제주특별자치도 제주시 건주로4길 6-8, 1층 104호 (도련일동)",33.51677,126.5803,정좌표
1721627,아스쿰,"제주특별자치도 제주시 연북신설길 39, 1층 (이도이동)",33.49645,126.5523,정좌표
1721638,세븐일레븐제주더호텔점,"제주특별자치도 제주시 삼무로 74, 1층 (연동)",33.48958,126.4945,정좌표
1721648,씨유제주연문로점,"제주특별자치도 제주시 연문2길 3, 1층 (연동)",33.49296,126.4989,정좌표
1721651,미미고찹쌀꽈배기제주시청점,"제주특별자치도 제주시 신성로13길 22, 1층 (이도이동)",33.49832,126.5298,정좌표
1721682,샐러두잇,"제주특별자치도 제주시 비월1길 12, 1층 (연동, 옥산빌라)",33.48499,126.4983,정좌표
1721686,씨유제주신산점,"제주특별자치도 제주시 신산로 50, 1층 (일도이동)",33.50912,126.5329,정좌표
1721830,공설,"제주특별자치도 제주시 공설로 15, 1층 (삼도일동)",33.49854,126.5167,정좌표
1721902,오마이파운드,"제주특별자치도 제주시 은남4길 40, 1층 (연동)",33.48656,126.4915,정좌표
1721917,에이바우트커피도련점,"제주특별자치도 제주시 건주로3길 11, 1층 (도련일동)",33.51613,126.5814,정좌표
1721922,소소두부,"제주특별자치도 제주시 남성로 160, 1층 (삼도이동)",33.50916,126.5226,정좌표
1721931,롤링브루잉,"제주특별자치도 제주시 동문로 21-1, 1층 (일도일동)",33.51311,126.5291,정좌표
1721969,미미커피,"제주특별자치도 제주시 구남동4길 38, 1층 (이도이동)",33.48759,126.5366,정좌표
1721986,벌크커피신제주점,"제주특별자치도 제주시 삼무로 18, 제주연동 하우스디어반 1층 101호 (연동)",33.4896,126.4887,정좌표
1722009,가끔,"제주특별자치도 제주시 중앙로7길 16, 2층 (일도일동)",33.51477,126.5264,정좌표
1722017,로드33,"제주특별자치도 제주시 문송길 33, 행복채움 1층 101호 (연동)",33.48662,126.4974,정좌표
1722021,경화제과,"제주특별자치도 제주시 노형7길 7, 1층 (노형동)",33.48058,126.4765,정좌표
1722033,뉴욕버거제주공항점,"제주특별자치도 제주시 공항로 2, 제주국제공항 1층 (용담이동)",33.50621,126.4964,정좌표
1722197,똥그리커피앤디저트,"제주특별자치도 제주시 지석4길 17, 다동 1층 102호 (삼양이동, 대일아파트)",33.51961,126.5799,정좌표
1722205,봄봄화북점,"제주특별자치도 제주시 진동로 55, 1층 (화북일동)",33.52406,126.5674,정좌표
1722213,씨유제주이도광양점,"제주특별자치도 제주시 동광로5길 16, 1층 (이도일동)",33.5031,126.5309,정좌표
1722216,씨유제주일도중앙점,"제주특별자치도 제주시 동광로17길 36, 1층 (일도이동)",33.50978,126.5386,정좌표
1722226,카페진정성종점,"제주특별자치도 제주시 서해안로 124, 1층 (이호일동)",33.50241,126.4623,인근좌표
1722543,프랭크버거제주삼화점,"제주특별자치도 제주시 화삼북로2길 19, 1층 102호 (화북일동)",33.51614,126.5767,인근좌표
1722641,우땅밤,"제주특별자치도 제주시 삼봉로 39, 1동 1층 (도련이동)",33.51785,126.589,정좌표
1722662,아이닉스피씨방,"제주특별자치도 제주시 중앙로 321, 2층 (이도이동)",33.49262,126.5361,정좌표
1722663,세븐일레븐제주월랑점,"제주특별자치도 제주시 월랑로10길 26, 1층 101호 (노형동, 대성빌리지)",33.49037,126.4781,정좌표
1722665,봄봄한북로점,"제주특별자치도 제주시 한북로 132, 1층 (오등동)",33.46338,126.5301,정좌표
1722675,에이바우트커피삼화점,"제주특별자치도 제주시 동화로 56, 1층 (화북일동)",33.51542,126.5727,정좌표
1722751,과일애제주,"제주특별자치도 제주시 남광로 14, 1층 (이도이동)",33.49267,126.5379,정좌표
1722758,피자알볼로노형점,"제주특별자치도 제주시 노형6길 9, 1층 (노형동)",33.48162,126.4781,정좌표
1722867,카페헤이브라운,"제주특별자치도 제주시 아란2길 59, 1층 (아라일동)",33.47212,126.5411,정좌표
1722880,요거프레소신제주점,"제주특별자치도 제주시 과원북4길 61 (연동, 덕양빌딩)",33.48122,126.4882,정좌표
1723032,래빗,"제주특별자치도 제주시 복지로북길 14, 1층 (도남동)",33.48884,126.5217,정좌표
1723075,카페에이밀,"제주특별자치도 제주시 인다9길 33, 1층 (아라일동)",33.47554,126.5488,정좌표
1723108,더아일랜더,"제주특별자치도 제주시 중앙로7길 31, 1층 (일도일동)",33.5149,126.528,정좌표
1723272,소로로마카롱,"제주특별자치도 제주시 설촌로2길 6, 1층 101호 (삼양이동, 씨큐브)",33.52179,126.582,정좌표
1723292,팩토리소란,"제주특별자치도 제주시 한북로 337-5, 지하1층 (아라일동)",33.45583,126.5494,정좌표
1723297,설빙제주아라점,"제주특별자치도 제주시 박성내동길 3, 1층 (아라이동)",33.49396,126.5409,정좌표
1723377,올래국수,"제주특별자치도 제주시 귀아랑길 24, 1층 (연동)",33.49151,126.4973,정좌표
1724638,모앙,"제주특별자치도 제주시 인다5길 12-4, 1층 (아라일동)",33.47593,126.5473,정좌표
1724726,오운커피,"제주특별자치도 제주시 아란11길 23, 1층 (아라일동)",33.47024,126.5413,정좌표
1724751,솔트스톤,"제주특별자치도 제주시 연삼로 495, 1층 (이도이동)",33.50038,126.5425,정좌표
1724853,지에스25삼도동양점,"제주특별자치도 제주시 홍랑길 20, 1층 101호 (삼도일동, 동양맨션)",33.50155,126.5233,정좌표
1724863,아이스크림연구소제주점앤303열정버거,"제주특별자치도 제주시 정존11길 39, 1층 (노형동)",33.48674,126.474,정좌표
1724869,티엔느케이크,"제주특별자치도 제주시 인다4길 41-14, 아라진 1층 (아라일동)",33.47089,126.55,정좌표
1724875,카페7,"제주특별자치도 제주시 용문로 168, 1층 (용담이동)",33.50893,126.5112,정좌표
1724887,원더샌드위치연동점,"제주특별자치도 제주시 귀아랑길 13, 1층 (연동)",33.49222,126.4976,정좌표
1724891,씨유제주한라마을점,"제주특별자치도 제주시 진군남4길 9, 1층 (노형동)",33.47569,126.4804,정좌표
1724896,세븐일레븐제주신설동점,"제주특별자치도 제주시 신설동길 23, 1층 (이도이동)",33.49647,126.5486,정좌표
1724899,씨유제주해밀타운점,"제주특별자치도 제주시 조천읍 신북로 460, 1층 101호",33.54355,126.6595,정좌표
1724919,마마미니,"제주특별자치도 제주시 조천읍 와선로 238, 1층",33.48448,126.698,정좌표
1724929,도그헤븐,"제주특별자치도 제주시 삼무로 74, 2층 (연동)",33.48958,126.4945,정좌표
1724939,씨유제주벤처오름점,"제주특별자치도 제주시 첨단로 199, 엠제이벤처오름 1층 106호 (영평동)",33.45456,126.572,정좌표
1724949,씨유제주건입현대점,"제주특별자치도 제주시 연무정길 20, 1층 (건입동)",33.51712,126.5365,정좌표
1724953,오엘이에프,"제주특별자치도 제주시 조천읍 와흘상길 30, 1,2층",33.49405,126.6333,정좌표
1725167,절물자연휴양림휴게소,"제주특별자치도 제주시 명림로 584, 절물휴양림 1층 (봉개동)",33.4379,126.6261,정좌표
1725266,오마뎅,"제주특별자치도 제주시 아란5길 19-12, 1층 (아라일동)",33.47476,126.5447,정좌표
1725276,스윗카페우도,"제주특별자치도 제주시 우도면 우도로 5-6, 1층",33.49365,126.9511,정좌표
1725280,에어푸드,"제주특별자치도 제주시 공항로 2, 렌트카하우스 1층 (용담이동)",33.50621,126.4964,정좌표
1725290,베트남,"제주특별자치도 제주시 은수길 69, 수목원 테마파크 관광지내 (연동)",33.47065,126.4882,정좌표
1725370,몽돌보롬,"제주특별자치도 제주시 은수길 69, 수목원 테마파크 관광지내 (연동)",33.47065,126.4882,정좌표
1725618,제주이씨,"제주특별자치도 제주시 은수길 69, 수목원 테마파크 관광지 내 (연동)",33.47065,126.4882,정좌표
1725698,와이키키제주,"제주특별자치도 제주시 은수길 69, 수목원 테마파크 관광지 내 (연동)",33.47065,126.4882,정좌표
1726198,원더캣츠,"제주특별자치도 제주시 은수길 69, 수목원 테마파크 관광지 내 (연동)",33.47065,126.4882,정좌표
1726234,더로맨틱내생에가장아름다운날들,"제주특별자치도 제주시 조천읍 교래1길 26-1, 1층",33.43784,126.6749,정좌표
1742434,씨유제주사리탑교차로점,"제주특별자치도 제주시 조천읍 조천우회로 223, 1층",33.52784,126.633,정좌표
1742450,싱싱청과마트,"제주특별자치도 제주시 서문로 16, 1층 (용담일동)",33.50956,126.5132,정좌표
1742453,지에스25제주대동점,"제주특별자치도 제주시 대동길 2, 1층 (이호이동)",33.49427,126.4632,정좌표
1742462,용꽈배기삼양점,"제주특별자치도 제주시 서흘길 19, 1층 (삼양일동)",33.52728,126.5883,정좌표
1742517,씨유제주다들점,"제주특별자치도 제주시 도령로15길 8, 1층 (연동)",33.49319,126.4898,정좌표
1742527,미스터힐링제주시청점,"제주특별자치도 제주시 서광로 301, 4층 (이도일동)",33.50084,126.5284,정좌표
1742869,청춘핫도그연동점,"제주특별자치도 제주시 선덕로 22, 1층 103호 (연동, 연동 위더스빌)",33.48543,126.499,정좌표
1742872,씨유제주건입만덕점,"제주특별자치도 제주시 만덕로 27, 1층 (건입동)",33.51403,126.5323,정좌표
1742882,씨유제주한북로점,"제주특별자치도 제주시 한북로 165, 1층 (오등동)",33.463,126.5337,정좌표
1742892,지에스25노형중앙점,"제주특별자치도 제주시 다랑곶길 19, 1층 (노형동)",33.48802,126.48,정좌표
1742901,동쪽빵앗간,"제주특별자치도 제주시 화삼로 110, 상가동 107호 (도련이동, 제주삼화엘에이치3단지)",33.51486,126.5863,정좌표
1742916,여누카페,"제주특별자치도 제주시 조천읍 남조로 1842, 1~2층",33.43221,126.6737,정좌표
1743152,솔라니빙떡,"제주특별자치도 제주시 남녕로 36, 1층 101호 (연동, 영진그린빌라)",33.49092,126.4809,정좌표
1743156,이디야커피시청고산동산점,"제주특별자치도 제주시 중앙로 264, 1층 101호 (이도이동, 위드빌)",33.4964,126.5318,정좌표
1743194,세븐일레븐제주일도센터점,"제주특별자치도 제주시 고마로 37-1, 1층 (일도이동)",33.51076,126.5391,정좌표
1743196,제주서부휴게소점,"제주특별자치도 제주시 노형로 89, 제주매직월드 C동 1층 (해안동)",33.46494,126.4552,정좌표
1743206,씨유제주도남점,"제주특별자치도 제주시 연삼로 366, 1층 100호 (도남동)",33.49296,126.5314,정좌표
1743286,세븐일레븐동문시장점,제주특별자치도 제주시 동문로4길 24 (일도일동),33.51208,126.5268,정좌표
1743342,훕,"제주특별자치도 제주시 전농로 54-1, 1층 (삼도일동)",33.50424,126.519,정좌표
1743359,더카페,"제주특별자치도 제주시 조천읍 조천18길 50-7, 1층",33.53722,126.6457,정좌표
1743407,씨유제주이도성지점,"제주특별자치도 제주시 중앙로19길 15, 1층 (이도일동)",33.50915,126.5253,정좌표
1743408,씨유제주신광점,"제주특별자치도 제주시 성신로 20, 1층 (연동)",33.49169,126.4854,정좌표
1743409,씨유제주서부휴게소점,"제주특별자치도 제주시 노형로 89, 제주매직월드 C동 1층 (해안동)",33.46494,126.4552,정좌표
1743419,씨유노형대화점,"제주특별자치도 제주시 노형로 349, 1층 (노형동)",33.48212,126.4737,정좌표
1743429,엘스테이,"제주특별자치도 제주시 구남동6길 15, 1층 (이도이동)",33.48818,126.5377,정좌표
1743466,스윗띵마카롱,"제주특별자치도 제주시 구남로6길 25, 1층 (이도이동)",33.48842,126.5356,정좌표
1743484,더맛있는카페,"제주특별자치도 제주시 신설로 32, 1층 (이도이동)",33.49314,126.5436,정좌표
1743486,세븐일레븐제주그랜드호텔점,"제주특별자치도 제주시 연동4길 8, 1층 (연동)",33.49723,126.5008,정좌표
1743542,세븐일레븐제주롯데오토하우스,"제주특별자치도 제주시 용해로 92, 1층 (용담이동)",33.50895,126.5015,정좌표
1743552,세븐일레븐신대로점,"제주특별자치도 제주시 신대로 149, 1층 (연동)",33.48402,126.4967,정좌표
1743560,서서히,"제주특별자치도 제주시 동광로16길 14, 1층 (이도이동)",33.5047,126.5391,정좌표
1743583,탐앤탐스제주노형점,"제주특별자치도 제주시 신형로 14, 1층 (노형동)",33.48228,126.4766,정좌표
1743614,리온,"제주특별자치도 제주시 도남로 117, 울담빌딩 1층 104호 (도남동)",33.49012,126.529,정좌표
1743619,청연,"제주특별자치도 제주시 도남로 189, 1층 104호 (아라일동)",33.48569,126.5345,정좌표
1743634,세븐일레븐제주삼화센터점,"제주특별자치도 제주시 건주로4길 10-3, 1층 (도련일동)",33.51634,126.5795,정좌표
1743714,씨유제주서부중앙점,"제주특별자치도 제주시 노형로 2, 1층 (해안동)",33.46065,126.4483,정좌표
1743724,젤마씨,"제주특별자치도 제주시 월광로 77, 1층 (노형동)",33.4876,126.4674,정좌표
1743828,노형로또마트,"제주특별자치도 제주시 수덕로 6, 1층 (노형동)",33.48866,126.4753,정좌표
1743837,코기절미,제주특별자치도 제주시 1100로 3198-20 (노형동),33.47295,126.4858,정좌표
1743855,지에스25제주이도점,"제주특별자치도 제주시 오복4길 4, 1층 (이도이동)",33.49574,126.5361,정좌표
1743935,크라우드피시중앙로점,"제주특별자치도 제주시 관덕로11길 8, 2층 (일도일동)",33.51384,126.5256,정좌표
1743936,세븐일레븐제주북초교점,"제주특별자치도 제주시 탑동로15길 47, 1층 (삼도이동, 그린빌)",33.51633,126.5218,정좌표
1743945,세븐일레븐제주남성로점,"제주특별자치도 제주시 남성로 119, 1층 (삼도일동)",33.50905,126.5182,정좌표
1743955,씨유제주이도한마음점,"제주특별자치도 제주시 신설로7길 57, 제이힐링센터 1층 (이도이동)",33.49569,126.5472,정좌표
1743964,씨유제주신광새길점,"제주특별자치도 제주시 성신북길 19, 1층 (연동)",33.49248,126.4833,정좌표
1744028,구움디저트,"제주특별자치도 제주시 진군3길 27-27, 1층 (노형동)",33.47693,126.4777,정좌표
1744074,카페이유,"제주특별자치도 제주시 남녕로 54, 1층 101호 (연동, 위더스빌)",33.49212,126.4797,정좌표
1744094,주연분식,"제주특별자치도 제주시 용담로 70, 1층 (용담이동)",33.51251,126.5102,정좌표
1744102,던킨제주화북점,"제주특별자치도 제주시 진남로6길 4, 1층 (화북일동)",33.51923,126.5658,정좌표
1744168,세븐일레븐제주삼무점,"제주특별자치도 제주시 삼무로9길 35, 1층 (연동)",33.49048,126.4947,정좌표
1744176,한입베어,"제주특별자치도 제주시 동문로4길 9, 동문공설시장, 동문공영주차장 지하1층 A-2호 (일도일동)",33.51209,126.5282,정좌표
1744177,진품꽈배기,"제주특별자치도 제주시 신대로 147, 101호 (연동, 로스터빌)",33.48419,126.4967,정좌표
1744184,세븐일레븐탑동광장점,"제주특별자치도 제주시 서부두길 10, 1층 (건입동)",33.51717,126.528,정좌표
1744250,브라운아라점,"제주특별자치도 제주시 인다3길 22, 재이빌 1층 (아라일동)",33.47567,126.5493,정좌표
1744270,거문오름카페,"제주특별자치도 제주시 조천읍 선교로 569-36, 제주세계자연유산센터 지하1층",33.45692,126.7148,정좌표
1744430,로우네스브루어스,"제주특별자치도 제주시 무근성5길 9, 1층 (삼도이동)",33.51368,126.5193,정좌표
1744439,에이바우트스타디움,"제주특별자치도 제주시 거로남4길 57-15, 1~2층 (화북이동)",33.50496,126.5643,정좌표
1744546,크라우드피씨방제주삼무점,"제주특별자치도 제주시 신광로 16, 1층 101호 (연동)",33.49069,126.4899,정좌표
1744548,드림초콜릿,"제주특별자치도 제주시 노연로 12, 제주 드림타워 복합리조트 3층 (노형동)",33.48526,126.4815,정좌표
1744588,쑝쑝돈까스제주노형점,"제주특별자치도 제주시 노형13길 7, 윤성빌딩 1층 (노형동)",33.48316,126.4788,정좌표
1744604,리프커피,"제주특별자치도 제주시 동고산로 35, 1층 (이도이동)",33.49913,126.5346,정좌표
1744627,우도아방분식,"제주특별자치도 제주시 우도면 우도해안길 1132, 이동 1층",33.49771,126.9677,정좌표
1744637,컴포즈커피제주이도점,"제주특별자치도 제주시 구남동6길 6, 1층 (이도이동)",33.48872,126.5383,정좌표
1744643,테라피쉬,"제주특별자치도 제주시 능선길 220, 1층 (아라이동)",33.46097,126.5623,정좌표
1744666,에이바우트커피에코그린빌15차점,"제주특별자치도 제주시 연북로 704, 지하1층,지상1층 (이도이동)",33.49443,126.5515,정좌표
1744677,슬로우,"제주특별자치도 제주시 도남로 3, 1층 (도남동)",33.49952,126.5251,정좌표
1744709,스마일찰진꽈배기,"제주특별자치도 제주시 우정로 52, 1층 (외도일동)",33.4882,126.4307,정좌표
1744789,짱구분식,"제주특별자치도 제주시 연동8길 28, 1층 9호 (연동)",33.49659,126.5013,정좌표
1752853,김밥명가,제주특별자치도 제주시 과원북4길 9 (노형동),33.48135,126.4829,정좌표
1752933,김가네,제주특별자치도 제주시 관덕로11길 8-5 (일도일동),33.51398,126.5258,정좌표
1753349,삼시세끼,제주특별자치도 제주시 선반남1길 72 (화북일동),33.51373,126.5669,정좌표
1753511,여기제주,제주특별자치도 제주시 서광로19길 33 (삼도일동),33.50287,126.5205,정좌표
1753607,팡송,"제주특별자치도 제주시 사장길 30, 2층 201호 (연동)",33.48319,126.495,정좌표
1754839,더노벰버라운지,"제주특별자치도 제주시 고마로 81, 2층 (일도이동)",33.50703,126.5407,정좌표
1756891,명희네,제주특별자치도 서귀포시 표선면 세성로266번길 234,33.32732,126.8201,정좌표
1756915,꿈에본꽃돼지,제주특별자치도 서귀포시 표선면 일주동로6455번길 49-5,33.3067,126.7863,정좌표
1756983,황금성,제주특별자치도 서귀포시 표선면 서성일로 95,33.39964,126.805,정좌표
1757007,낭구지횟집,제주특별자치도 서귀포시 표선면 민속해안로 585,33.32505,126.8432,정좌표
1757151,일송정가든,제주특별자치도 서귀포시 표선면 표선동서로 211,33.32291,126.831,정좌표
1757157,가멍오멍,제주특별자치도 서귀포시 표선면 표선동서로 222-1,33.3237,126.8319,정좌표
1757181,옵데강,"제주특별자치도 서귀포시 표선면 일주동로 6347-17, 샤인빌리조트 샤인빌리지동 4층 11호",33.30581,126.7917,정좌표
1760121,맥빙,제주특별자치도 서귀포시 표선면 중산간동로 5264,33.34993,126.7739,정좌표
1760127,정의골도감소정육식당,제주특별자치도 서귀포시 표선면 중산간동로 4698-1,33.38742,126.7942,정좌표
1760139,꿀돼지세상,"제주특별자치도 서귀포시 표선면 표선중앙로 104, 1층",33.32563,126.8347,정좌표
1760199,장원돈명가,"제주특별자치도 서귀포시 표선면 표선당포로 10, 1층",33.32544,126.8439,정좌표
1760235,국수앤백사장회센터,제주특별자치도 서귀포시 표선면 표선당포로 19-3,33.32626,126.8442,정좌표
1761439,표선흑돼지삼형제,제주특별자치도 서귀포시 표선면 민속해안로 594,33.32545,126.8424,정좌표
1762067,표선장수고을,제주특별자치도 서귀포시 표선면 가시로 61,33.33249,126.8169,정좌표
1762169,네네치킨표선점,제주특별자치도 서귀포시 표선면 표선동서로 288,33.32874,126.8355,정좌표
1762253,댓그르,제주특별자치도 서귀포시 표선면 중산간동로 5208,33.35362,126.7702,정좌표
1762259,멕시카나치킨 표선점,제주특별자치도 서귀포시 표선면 표선동서로 253,33.32642,126.8328,정좌표
1762327,정소암식당,제주특별자치도 서귀포시 표선면 서성일로 21,33.39381,126.8008,정좌표
1762343,제주버들못,제주특별자치도 서귀포시 표선면 표선중앙로32번길 36,33.32791,126.8283,정좌표
1762363,한가름,제주특별자치도 서귀포시 표선면 가시로565번길 16,33.35342,126.7721,정좌표
1762371,해를품은닭,제주특별자치도 서귀포시 표선면 표선중앙로 84,33.32583,126.8329,정좌표
1762391,해비치쉼터,제주특별자치도 서귀포시 표선면 표선중앙로 109,33.32587,126.8355,정좌표
1762405,해맞이동산,제주특별자치도 서귀포시 표선면 번영로 2658-2,33.39841,126.7871,정좌표
1762411,첨밀밀양고기,제주특별자치도 서귀포시 표선면 표선동서로 234,33.32472,126.8324,정좌표
1762431,흑도니,제주특별자치도 서귀포시 표선면 일주동로 6291,33.3064,126.7996,정좌표
1762451,해비치블랙,제주특별자치도 서귀포시 표선면 민속해안로 578-4,33.32503,126.8444,정좌표
1762457,허브동산흑돼지,제주특별자치도 서귀포시 표선면 돈오름로 180,33.33038,126.8169,정좌표
1762477,정희네손칼국수,제주특별자치도 서귀포시 표선면 표선관정로 100,33.3241,126.8307,정좌표
1762497,웃드르식당,제주특별자치도 서귀포시 표선면 토산세화로 37,33.33244,126.7727,정좌표
1762517,표선수산마트,"제주특별자치도 서귀포시 표선면 표선중앙로110번길 3-4, 2층",33.32537,126.836,정좌표
1762537,돌토고리카페,"제주특별자치도 서귀포시 표선면 표선당포로 16-4, 1층",33.32557,126.8444,정좌표
1762697,야자수풀빌라,"제주특별자치도 서귀포시 표선면 일주동로5661번길 33, 1층",33.33723,126.8464,정좌표
1762717,옛고을흑돼지구이,제주특별자치도 서귀포시 표선면 민속해안로97번길 35,33.30785,126.8095,정좌표
1762737,소르베,제주특별자치도 서귀포시 표선면 세성로 276,33.32957,126.7981,정좌표
1762739,오가네숯불갈비,제주특별자치도 서귀포시 표선면 가시로 537,33.35183,126.7748,정좌표
1762751,제주술익는집,제주특별자치도 서귀포시 표선면 중산간동로 4726,33.38488,126.7939,정좌표
1762771,보타니카170,"제주특별자치도 서귀포시 표선면 돈오름로 170, 1층",33.32931,126.8143,정좌표
1762791,복돼지식당,제주특별자치도 서귀포시 표선면 서성일로 63,33.39735,126.8021,정좌표
1762811,가스름식당,제주특별자치도 서귀포시 표선면 가시로565번길 19,33.35309,126.772,정좌표
1762831,표선어촌식당,제주특별자치도 서귀포시 표선면 민속해안로 578-7,33.32527,126.8445,정좌표
1762851,흑돼지제주정,제주특별자치도 서귀포시 표선면 민속해안로 577,33.32484,126.8438,정좌표
1762871,대양,제주특별자치도 서귀포시 표선면 민속해안로 581-1,33.32499,126.8434,정좌표
1763411,왕일번지식당,제주특별자치도 서귀포시 표선면 중산간동로 4610,33.39015,126.8034,정좌표
1763427,인생닭빨,제주특별자치도 서귀포시 표선면 표선중앙로90번길 4,33.32553,126.8331,정좌표
1763475,아트에스프레소,제주특별자치도 서귀포시 표선면 표선중앙로 92,33.32562,126.8337,정좌표
1763491,표선장금이,"제주특별자치도 서귀포시 표선면 표선동서로 228, 2층",33.32429,126.8321,정좌표
1763495,자하연,"제주특별자치도 서귀포시 표선면 번영로 3113, A동 1층",33.3686,126.8145,정좌표
1763651,강해일횟집,제주특별자치도 서귀포시 표선면 표선당포로 14,33.32572,126.8443,정좌표
1763919,흑돼지고을,제주특별자치도 서귀포시 표선면 민속해안로 579,33.32492,126.8437,정좌표
1766943,영주산성,제주특별자치도 서귀포시 표선면 성읍정의현로122번길 1-8,33.39316,126.7989,정좌표
1766947,고깃간소미,"제주특별자치도 서귀포시 표선면 표선동서로 138, 제2동 1층",33.31678,126.8288,정좌표
1766987,꿩마을,제주특별자치도 서귀포시 표선면 가시로 56,33.33257,126.8175,정좌표
1767093,해미원횟집,제주특별자치도 서귀포시 표선면 민속해안로 578-2,33.32498,126.8442,정좌표
1768053,표선갈치어장,"제주특별자치도 서귀포시 표선면 표선당포로 27, 1,2층",33.3265,126.8454,정좌표
1768259,가마리식당,"제주특별자치도 서귀포시 표선면 세성로 58, 1층",33.31127,126.8044,정좌표
1768313,정다운김씨네,제주특별자치도 서귀포시 표선면 중산간동로 5238,33.3516,126.7723,정좌표
1768323,푸라닭제주표선점,제주특별자치도 서귀포시 표선면 표선백사로 111,33.3253,126.8363,정좌표
1768383,표선해녀의집,"제주특별자치도 서귀포시 표선면 표선당포로 6, 다원돌솥밥",33.32533,126.8435,정좌표
1768403,명가돈촌,제주특별자치도 서귀포시 표선면 가마병풍로 30,33.30804,126.8038,정좌표
1768487,가시리은하수가든,제주특별자치도 서귀포시 표선면 중산간동로 5123,33.3606,126.7673,정좌표
1768493,빈스가게,제주특별자치도 서귀포시 표선면 표선동서로 240-1,33.32531,126.8325,정좌표
1768521,복터진날,"제주특별자치도 서귀포시 표선면 표선중앙로99번길 10-2, 1층",33.32648,126.8351,정좌표
1768541,표선칼국수,제주특별자치도 서귀포시 표선면 민속해안로 578-3,33.32515,126.8442,정좌표
1768865,윤스쿡,"제주특별자치도 서귀포시 표선면 표선동서로 210, 1층",33.32272,126.8313,정좌표
1768941,밀리우,"제주특별자치도 서귀포시 표선면 민속해안로 537, 1층",33.32401,126.8444,정좌표
1769715,날목동산,제주특별자치도 서귀포시 표선면 하천달산로9번길 96,33.33759,126.8422,정좌표
1769717,옛날통닭&강정,제주특별자치도 서귀포시 표선면 표선백사로 106,33.32465,126.8366,정좌표
1769759,두가시영,제주특별자치도 서귀포시 표선면 하천달산로9번길 98,33.33741,126.8422,정좌표
1769773,표선포구식당,제주특별자치도 서귀포시 표선면 표선중앙로 87,33.32594,126.8332,정좌표
1769775,정애네골목식당,제주특별자치도 서귀포시 표선면 표선중앙로90번길 3,33.32544,126.8333,정좌표
1769777,시골친구,제주특별자치도 서귀포시 표선면 가시로 419,33.34677,126.7837,정좌표
1770289,표선해비치갓더라면,"제주특별자치도 서귀포시 표선면 민속해안로 580, 1층",33.32518,126.8438,정좌표
1770441,맛집전주식당,제주특별자치도 서귀포시 표선면 표선동서로 226,33.32405,126.8319,정좌표
1770445,성읍민속짜장사천성,제주특별자치도 서귀포시 표선면 서성일로27번길 18,33.39451,126.799,정좌표
1770521,고금삼계탕,제주특별자치도 서귀포시 표선면 번영로3428번길 7,33.34267,126.8261,정좌표
1770583,반반한흑돼지,제주특별자치도 서귀포시 표선면 번영로 3271-4,33.35622,126.8239,정좌표
1770761,제주촌집,제주특별자치도 서귀포시 표선면 표선중앙로59번길 4,33.32762,126.8319,정좌표
1771173,씨유 제주샤인빌리조트점,제주특별자치도 서귀포시 표선면 일주동로 6347-17,33.30581,126.7917,정좌표
1771653,그림상회,제주특별자치도 서귀포시 표선면 중산간동로5570번길 9,33.32618,126.7649,정좌표
1771751,맛짱김밥,제주특별자치도 서귀포시 표선면 표선중앙로90번길 6,33.32537,126.8328,정좌표
1771871,유드림분식,제주특별자치도 서귀포시 표선면 표선중앙로90번길 13,33.32444,126.8331,정좌표
1771883,씨유서귀표선세화점,제주특별자치도 서귀포시 표선면 세화로 1,33.30684,126.7995,정좌표
1771903,난타5000 표선점,"제주특별자치도 서귀포시 표선면 표선동서로 230, 1층",33.32446,126.8321,정좌표
1771997,제주판타스틱버거,"제주특별자치도 서귀포시 표선면 토산중앙로15번길 6, 1층",33.30849,126.779,정좌표
1772727,씨유제주당케점,제주특별자치도 서귀포시 표선면 민속해안로 587,33.32509,126.843,정좌표
1772747,이디야커피성읍점,제주특별자치도 서귀포시 표선면 번영로 2644,33.39911,126.7847,정좌표
1772891,세븐일레븐 서귀포 표선 해비치점,제주특별자치도 서귀포시 표선면 민속해안로 576,33.32494,126.8444,정좌표
1773041,춘자싸롱멸치국수,제주특별자치도 서귀포시 표선면 표선동서로 255,33.32652,126.833,정좌표
1773065,씨앤아이,제주특별자치도 서귀포시 표선면 표선중앙로 96,33.32566,126.8341,정좌표
1773067,롯데리아제주표선해변점,"제주특별자치도 서귀포시 표선면 표선백사로 127, 1층",33.32677,126.8366,정좌표
1773403,큰손왕만두,제주특별자치도 서귀포시 표선면 표선동서로 239,33.32512,126.8322,정좌표
1773515,카페희상,제주특별자치도 서귀포시 표선면 표선동서로 324-18,33.32995,126.8382,정좌표
1773589,표선카라반,제주특별자치도 서귀포시 표선면 표선동서로 324-18,33.32995,126.8382,정좌표
1773695,한빈이네분식,"제주특별자치도 서귀포시 표선면 번영로 3481, 1층",33.33812,126.8283,정좌표
1773705,올인블룸(All in Bloom),"제주특별자치도 서귀포시 표선면 일주동로 6216, 1층",33.30759,126.8077,정좌표
1773745,씨유제주토산점,"제주특별자치도 서귀포시 표선면 중산간동로 5564-1, 1층",33.3265,126.7667,정좌표
1773759,오늘은녹차,"제주특별자치도 서귀포시 표선면 중산간동로 4772, 2층",33.38183,126.791,정좌표
1774875,씨유제주성읍교차로점,제주특별자치도 서귀포시 표선면 성읍민속로 304,33.39904,126.7882,정좌표
1774895,문화창달,제주특별자치도 서귀포시 표선면 토산중앙로16번길 19,33.30889,126.7819,정좌표
1774933,카페(cafe)돗돗헌,제주특별자치도 서귀포시 표선면 민속해안로 631-34,33.32205,126.8422,정좌표
1774969,도하,"제주특별자치도 서귀포시 표선면 가마행남로 12, 제1호",33.3061,126.8025,정좌표
1775025,지에스25표선동서로점,제주특별자치도 서귀포시 표선면 표선동서로 76,33.31264,126.8244,정좌표
1775045,키즈몬,제주특별자치도 서귀포시 표선면 표선관정로 39-28,33.3271,126.8287,정좌표
1775057,성신흑돼지 성산점,제주특별자치도 서귀포시 성산읍 일출로 292,33.46362,126.935,정좌표
1775229,짜장나라,제주특별자치도 서귀포시 장수로 1 (동홍동),33.25635,126.5679,정좌표
1775509,제주먹보돼지,제주특별자치도 서귀포시 중문상로 46 (중문동),33.25239,126.4259,정좌표
1775545,남원올레,제주특별자치도 서귀포시 남원읍 태위로679번길 8,33.27989,126.7191,정좌표
1775551,한솥도시락제주서귀포점,제주특별자치도 서귀포시 중앙로62번길 1 (서귀동),33.25016,126.5616,정좌표
1775595,누나네한우곱창,제주특별자치도 서귀포시 태평로353번길 7 (서귀동),33.24682,126.5597,정좌표
1775641,해사랑,제주특별자치도 서귀포시 이어도로 870 (법환동),33.23643,126.5077,정좌표
1775733,부뚜막식당,제주특별자치도 서귀포시 성산읍 고성오조로 11,33.4451,126.9135,정좌표
1776561,무드우드,"제주특별자치도 서귀포시 소암로 33, 2층 (서귀동)",33.245,126.5693,정좌표
1776591,김가네해물뚝배기,제주특별자치도 서귀포시 칠십리로 55 (서귀동),33.24019,126.5623,정좌표
1776669,황금부엌 2호점,제주특별자치도 서귀포시 솜반천로14번길 4 (서홍동),33.25444,126.5593,정좌표
1776715,돼지사랑,제주특별자치도 서귀포시 중앙로150번길 74 (동홍동),33.26395,126.5621,정좌표
1776718,마루아라,제주특별자치도 서귀포시 이중섭로 16 (서귀동),33.24673,126.5639,정좌표
1776748,복자씨흑돼지구이,"제주특별자치도 서귀포시 성산읍 해맞이해안로 2764, 2층",33.46917,126.9198,정좌표
1780664,일품순두부,"제주특별자치도 서귀포시 일주동로 8666, 1층 (동홍동)",33.25369,126.5624,정좌표
1780814,덤장중문점,제주특별자치도 서귀포시 천제연로 17 (색달동),33.2577,126.4082,정좌표
1781470,대한민육,제주특별자치도 서귀포시 서문로 30 (서귀동),33.25037,126.5586,정좌표
1782222,사방팔방횟집,"제주특별자치도 서귀포시 천지로 4, 1층 (서귀동)",33.24786,126.5611,정좌표
1782270,해궁맛집,"제주특별자치도 서귀포시 칠십리로 115, 1층 (서귀동)",33.24224,126.5666,정좌표
1782273,도영식당,제주특별자치도 서귀포시 동홍동로 38 (동홍동),33.25822,126.5751,정좌표
1782279,82포차,"제주특별자치도 서귀포시 성산읍 성산중앙로 69, 1층",33.46553,126.9352,정좌표
1782337,큰집가마솥해장국,제주특별자치도 서귀포시 성산읍 중산간동로 3358,33.44167,126.8825,정좌표
1782365,큰맘할매순대국제주동홍점,"제주특별자치도 서귀포시 동홍중앙로66번길 30-7, 1층 (동홍동)",33.25583,126.5754,정좌표
1782417,먹퍼고수떡볶이서귀포동홍동점,"제주특별자치도 서귀포시 태평로 509, 1층 101호 (동홍동, 제이원타워)",33.25068,126.5718,정좌표
1782426,서귀포괸당네갈치요리,"제주특별자치도 서귀포시 칠십리로 123, 1층 (서귀동)",33.24307,126.5676,정좌표
1782688,허갈닭강정서귀포점,"제주특별자치도 서귀포시 일주동로 8544, 1층 (동홍동)",33.25506,126.5755,정좌표
1782742,다도,"제주특별자치도 서귀포시 이어도로 866-29, 1층 (법환동)",33.23372,126.5069,정좌표
1783228,페리카나중문점,제주특별자치도 서귀포시 천제연로185번길 3-1 (중문동),33.25219,126.4242,정좌표
1783292,네네치킨중문점,제주특별자치도 서귀포시 천제연로 191 (중문동),33.25185,126.425,정좌표
1783364,바람에머물다,제주특별자치도 서귀포시 하효중앙로 5 (하효동),33.25117,126.6196,정좌표
1783836,하노이식당,"제주특별자치도 서귀포시 서호중로 84, 1층 (서호동)",33.25392,126.5222,정좌표
1783904,사우스포레스트,제주특별자치도 서귀포시 516로 574-23 (상효동),33.29852,126.601,정좌표
1783972,깨끗한집,제주특별자치도 서귀포시 중정로91번길 19 (서귀동),33.24973,126.5647,정좌표
1784004,락쿤,제주특별자치도 서귀포시 남원읍 위미중앙로 274-43,33.27003,126.6736,정좌표
1784144,범섬족발,제주특별자치도 서귀포시 월드컵로 158 (강정동),33.23578,126.5065,정좌표
1784190,삼다해물뚝배기,제주특별자치도 서귀포시 일주동로 8167 (하효동),33.26032,126.6148,정좌표
1784312,김부자,제주특별자치도 서귀포시 보목포로 45 (보목동),33.23945,126.6067,정좌표
1784534,금바우,제주특별자치도 서귀포시 태평로371번길 4 (서귀동),33.24556,126.5611,정좌표
1784618,교촌치킨성산일출봉점,"제주특별자치도 서귀포시 성산읍 성산등용로 78, 1층",33.46889,126.9292,정좌표
1785322,물영아리식당,제주특별자치도 서귀포시 남원읍 남조로 996,33.36123,126.6919,정좌표
1785330,주어코지국수창고,제주특별자치도 서귀포시 성산읍 삼달하동로18번길 9-5,33.36732,126.8703,정좌표
1785506,티바두마리치킨서귀포점,제주특별자치도 서귀포시 태평로431번길 16 (서귀동),33.24696,126.5661,정좌표
1785512,청춘괴기,제주특별자치도 서귀포시 김정문화로41번길 24-5 (법환동),33.25355,126.5104,정좌표
1786082,오태식해바라기치킨성산점,제주특별자치도 서귀포시 성산읍 성산중앙로 52,33.4641,126.9344,정좌표
1786206,마우돈,제주특별자치도 서귀포시 성산읍 서성일로 1240,33.4468,126.911,정좌표
1786754,돈이랑성산점,제주특별자치도 서귀포시 성산읍 일출로 30,33.44747,126.916,정좌표
1789458,한길정,제주특별자치도 서귀포시 중산간동로 8128-6 (서홍동),33.26395,126.5484,정좌표
1789552,서울깍두기,제주특별자치도 서귀포시 남원읍 태위로 634,33.27768,126.7143,정좌표
1789600,여행(여러분의행복한식탁),"제주특별자치도 서귀포시 홍중로 21, 1층 (서홍동)",33.25473,126.5583,정좌표
1789634,착한갈치,제주특별자치도 서귀포시 보목포로 35 (보목동),33.2399,126.6061,정좌표
1790236,누구나홀딱반한닭,"제주특별자치도 서귀포시 남원읍 태위로 672-4, 1층",33.27849,126.7182,정좌표
1790292,하늘카페,"제주특별자치도 서귀포시 성산읍 난산로41번길 50-12, 1층",33.39926,126.8661,정좌표
1790480,처갓집양념치킨서귀포점,제주특별자치도 서귀포시 서문로 49 (서귀동),33.2488,126.5575,정좌표
1790514,다정이네올레시장본점,제주특별자치도 서귀포시 동문로 59-1 (서귀동),33.2494,126.5668,정좌표
1792456,서귀포홍가네삼겹살,제주특별자치도 서귀포시 중앙로48번길 46 (서귀동),33.25035,126.566,정좌표
1792462,올레서울식당,제주특별자치도 서귀포시 중정로61번길 8-1 (서귀동),33.24865,126.563,정좌표
1792556,맘스터치서귀동홍점,제주특별자치도 서귀포시 동홍중앙로 51 (동홍동),33.25518,126.5719,정좌표
1792650,정미네식당,"제주특별자치도 서귀포시 성산읍 삼달하동로31번길 3, 1층",33.36768,126.8715,정좌표
1792758,고래라면,제주특별자치도 서귀포시 성산읍 삼달로 104,33.37193,126.8583,정좌표
1792918,예가,"제주특별자치도 서귀포시 서호중로 82, 1층 (서호동)",33.25401,126.522,정좌표
1793158,카페148,"제주특별자치도 서귀포시 성산읍 삼달로 148, 1호",33.37276,126.8536,정좌표
1793402,제주김만복김밥서귀포점,"제주특별자치도 서귀포시 월드컵로 117, 1층 (강정동)",33.23942,126.5058,정좌표
1809386,놀소랑,제주특별자치도 서귀포시 남원읍 하례로 306,33.27452,126.6227,정좌표
1809407,정희네해물탕,"제주특별자치도 서귀포시 중정로 14, 지하2층 (서귀동)",33.24731,126.5579,정좌표
1809807,주공한라식육식당,제주특별자치도 서귀포시 동홍중앙로 30 (동홍동),33.25345,126.5723,정좌표
1809863,24시뼈다귀탕중문점,"제주특별자치도 서귀포시 중문관광로 335, 1층 (중문동)",33.25012,126.4305,정좌표
1810001,라라코스트서귀포점,"제주특별자치도 서귀포시 일주동로 8670, 2층 (동홍동)",33.25366,126.5618,정좌표
1810107,케이에프씨(KFC)서귀포중문DT점,"제주특별자치도 서귀포시 중문관광로 90, 1층 (색달동)",33.25028,126.4141,정좌표
1810559,새벽제주,"제주특별자치도 서귀포시 1100로 44, 1층 (중문동)",33.25449,126.4345,정좌표
1810562,제주도그릴서귀포점,"제주특별자치도 서귀포시 태평로 110, 1층 (호근동)",33.24348,126.5343,정좌표
1810870,일출봉도식후경,"제주특별자치도 서귀포시 성산읍 섭지코지로26번길 6, 1층 6호",33.43858,126.9194,정좌표
1811094,만복촌,제주특별자치도 서귀포시 서문로 48 (서귀동),33.24912,126.5574,정좌표
1811126,움(Umm),제주특별자치도 서귀포시 호근서호로 63 (호근동),33.25677,126.5339,정좌표
1811192,BHC 성산점,제주특별자치도 서귀포시 성산읍 성산중앙로 48,33.4639,126.9342,정좌표
1811320,분식후경,제주특별자치도 서귀포시 성산읍 온평포구로62번길 22-1,33.40049,126.9029,정좌표
1811764,신거평,"제주특별자치도 서귀포시 성산읍 일주동로 4220, 1층 2호",33.45177,126.9116,정좌표
1811806,범섬칼국수,제주특별자치도 서귀포시 이어도로 1039 (서호동),33.24477,126.5221,정좌표
1811878,참전복죽,"제주특별자치도 서귀포시 칠십리로 426-1, 1층 (보목동)",33.24341,126.5968,정좌표
1812904,마노카페하우스,제주특별자치도 서귀포시 중문상로 97 (중문동),33.25689,126.4275,정좌표
1813090,서귀피안,제주특별자치도 서귀포시 서호호근로46번길 68 (서호동),33.24842,126.5288,정좌표
1813200,옛날손순대,"제주특별자치도 서귀포시 천제연로 194, 1층 (중문동)",33.25155,126.4255,정좌표
1813224,국수싸롱,제주특별자치도 서귀포시 태평로 409 (서귀동),33.24497,126.564,정좌표
1813294,털보네고양이,제주특별자치도 서귀포시 남원읍 태위로 381,33.27541,126.6878,정좌표
1813456,홍발,제주특별자치도 서귀포시 천제연로 131-7 (중문동),33.25443,126.4196,정좌표
1813477,괸당집서귀포신시가지점,제주특별자치도 서귀포시 김정문화로 67-1 (서호동),33.25088,126.5119,정좌표
1813645,그늘집,제주특별자치도 서귀포시 신서귀로51번길 11 (법환동),33.25383,126.5101,정좌표
1813741,팔마식당,제주특별자치도 서귀포시 홍중로 6 (서홍동),33.2534,126.5591,정좌표
1813756,해저3만리,제주특별자치도 서귀포시 중정로 31 (서귀동),33.24768,126.5598,정좌표
1813854,인생극장중문점,제주특별자치도 서귀포시 천제연로 183-1 (중문동),33.25191,126.4243,정좌표
1813890,기운네흑돼지,제주특별자치도 서귀포시 서문로29번길 6 (서귀동),33.2499,126.5588,정좌표
1814056,예래고을,제주특별자치도 서귀포시 상예로 238 (상예동),33.26604,126.3939,정좌표
1814166,황실가든,"제주특별자치도 서귀포시 중산간동로 8024, 황실가든 (서홍동)",33.2647,126.5595,정좌표
1814169,한라산불뚝이본점,제주특별자치도 서귀포시 동문로 67 (서귀동),33.2491,126.5674,정좌표
1814172,경남식당,"제주특별자치도 서귀포시 중동로 74, 1층 (서귀동)",33.24917,126.5694,정좌표
1814220,이래올래,"제주특별자치도 서귀포시 이중섭로 12-1, 1층 (서귀동)",33.2469,126.5639,정좌표
1814226,해녀엄마의집,제주특별자치도 서귀포시 성산읍 신양로 76,33.43609,126.9179,정좌표
1814518,괴기집,제주특별자치도 서귀포시 동홍중앙로7번길 3 (동홍동),33.25126,126.5717,정좌표
1815094,커큐민 흑돼지,제주특별자치도 서귀포시 성산읍 일출로 84,33.44979,126.9211,정좌표
1816410,공천포식당,제주특별자치도 서귀포시 남원읍 공천포로 89,33.26639,126.6426,정좌표
1819362,성산옥탑,제주특별자치도 서귀포시 성산읍 일출로 270-8,33.46154,126.9346,정좌표
1819634,탐모라,제주특별자치도 서귀포시 색달로 18 (색달동),33.25909,126.4069,정좌표
1823386,돈내코삼남매,제주특별자치도 서귀포시 돈내코로67번길 85 (토평동),33.29292,126.585,정좌표
1823389,까망돼지,제주특별자치도 서귀포시 색달중앙로 21 (색달동),33.25741,126.4134,정좌표
1825271,성산흑돈쭐,제주특별자치도 서귀포시 성산읍 성산중앙로 72,33.46549,126.9354,정좌표
1826347,이조은식당,제주특별자치도 서귀포시 천제연로 97 (색달동),33.25508,126.4161,정좌표
1828037,명원,제주특별자치도 서귀포시 성산읍 성산등용로 8,33.46471,126.9337,정좌표
1828091,만족한상회,"제주특별자치도 서귀포시 중문상로 58-5, 1층 (중문동)",33.2535,126.4267,정좌표
1829463,해왓,제주특별자치도 서귀포시 성산읍 신고로 30-1,33.43853,126.9172,정좌표
1831075,봉자순두부,제주특별자치도 서귀포시 남원읍 남원회관로 73,33.27901,126.7207,정좌표
1831078,돈덕이네,제주특별자치도 서귀포시 성산읍 고성중앙로 41-8,33.44893,126.9078,정좌표
1831226,성산회관,제주특별자치도 서귀포시 성산읍 성산중앙로 8,33.46088,126.9316,정좌표
1831442,청솔나무집,제주특별자치도 서귀포시 성산읍 성산중앙로 25,33.46226,126.9322,정좌표
1832970,이름없는밥집,"제주특별자치도 서귀포시 중앙로4번길 7, 1층 (서귀동)",33.24518,126.5625,정좌표
1832979,푸라닭제주서귀점,"제주특별자치도 서귀포시 동홍중앙로 62, 1층 (동홍동)",33.25617,126.5722,정좌표
1833075,천지한우촌식육식당,제주특별자치도 서귀포시 서문로29번길 28 (서귀동),33.24785,126.5594,정좌표
1833109,오색밥상,제주특별자치도 서귀포시 일주동로 9217 (법환동),33.24899,126.5082,정좌표
1833163,은설식당,제주특별자치도 서귀포시 남원읍 태위로 686,33.27918,126.7198,정좌표
1833209,느영나영,"제주특별자치도 서귀포시 남원읍 신흥로13번길 23, 1층",33.30061,126.7667,정좌표
1833369,연담,제주특별자치도 서귀포시 천제연로207번길 20 (중문동),33.25333,126.4272,정좌표
1833379,석경초밥,"제주특별자치도 서귀포시 천지로 18, 1층 (서귀동)",33.24926,126.5609,정좌표
1833389,김명자굴국밥성산점,제주특별자치도 서귀포시 성산읍 성산중앙로 46-1,33.46374,126.9341,정좌표
1833409,천짓골식당,제주특별자치도 서귀포시 중앙로41번길 4 (서귀동),33.24824,126.5613,정좌표
1833449,데이바이데이,제주특별자치도 서귀포시 동문로 30-2 (서귀동),33.25089,126.5639,정좌표
1833459,좋은가든,제주특별자치도 서귀포시 예래로 255-24 (하예동),33.24129,126.3862,정좌표
1833461,온더스톤브런치카페제주성산점,"제주특별자치도 서귀포시 성산읍 해맞이해안로 2746, H동 1~2층",33.4702,126.918,정좌표
1833481,두마리찜닭두찜서귀포동홍점,제주특별자치도 서귀포시 중산간동로 8003 (동홍동),33.26436,126.5617,정좌표
1833491,월드컵흑돼지,제주특별자치도 서귀포시 월드컵로 74 (법환동),33.24305,126.5051,정좌표
1833501,조림명가,제주특별자치도 서귀포시 중앙로47번길 19 (서귀동),33.24829,126.5596,정좌표
1833511,BHC제주남원점,제주특별자치도 서귀포시 남원읍 남원회관로 55,33.27837,126.719,정좌표
1833521,다이빙맛,"제주특별자치도 서귀포시 남원읍 남원체육관로40번길 3, 1층",33.27648,126.6897,정좌표
1833523,동서순대,제주특별자치도 서귀포시 중앙로101번길 20 (서홍동),33.25361,126.5587,정좌표
1833529,한일수산횟집,제주특별자치도 서귀포시 홍중로 3 (서홍동),33.25313,126.5589,정좌표
1833545,표선얼큰이와 피자디노 동홍점,제주특별자치도 서귀포시 동홍중앙로66번길 30-8 (동홍동),33.25592,126.5751,정좌표
1833555,오늘은춘봉이네,제주특별자치도 서귀포시 김정문화로 59 (서호동),33.25111,126.511,정좌표
1833565,자담치킨제주남원점,제주특별자치도 서귀포시 남원읍 태위로679번길 12-1,33.28029,126.7189,정좌표
1833570,윌라라,제주특별자치도 서귀포시 성산읍 성산중앙로 33,33.46293,126.9328,정좌표
1833590,색달식당중문본점,제주특별자치도 서귀포시 색달중앙로 23 (색달동),33.25762,126.4135,정좌표
1833600,온평마을일번지,"제주특별자치도 서귀포시 성산읍 환해장성로 803, 1층",33.42353,126.9136,정좌표
1833616,풍차라운지,제주특별자치도 서귀포시 중문관광로72번길 35 (색달동),33.24901,126.4092,정좌표
1833626,영춘반점,"제주특별자치도 서귀포시 중앙로 154, 1층 (서홍동)",33.2583,126.5602,정좌표
1833636,일출제주흑돼지,"제주특별자치도 서귀포시 성산읍 일출로15번길 2, 1층",33.44774,126.9143,정좌표
1833656,카페세렌디,"제주특별자치도 서귀포시 중문관광로72번길 29-9, 라동 1,2층 (색달동)",33.24963,126.4111,정좌표
1833736,도두반점호텔더본점,"제주특별자치도 서귀포시 색달로 18, 지하1층 2호 (색달동)",33.25909,126.4069,정좌표
1833746,스시쿄다이,제주특별자치도 서귀포시 동홍남로 53 (동홍동),33.25712,126.574,정좌표
1833754,남원추어탕,"제주특별자치도 서귀포시 중앙로62번길 5, 1층 (서귀동)",33.25027,126.5619,정좌표
1833794,동남식당,제주특별자치도 서귀포시 성산읍 고성오조로 84-1,33.45116,126.9145,정좌표
1833814,행운숯불갈비,제주특별자치도 서귀포시 부두로 12 (서귀동),33.24412,126.565,정좌표
1833824,구럼비나무,"제주특별자치도 서귀포시 법환로 15, 1층 (법환동)",33.23664,126.5136,정좌표
1833904,돈가네우가네,제주특별자치도 서귀포시 동홍중앙로 52 (동홍동),33.25523,126.5722,정좌표
1833984,일돈성산흑돼지,제주특별자치도 서귀포시 성산읍 환해장성로 913,33.43266,126.9151,정좌표
1834004,프레드허쉬,"제주특별자치도 서귀포시 태평로 416-1, 2층 (서귀동)",33.24473,126.5648,정좌표
1834012,제주대패돈삼겹,제주특별자치도 서귀포시 남원읍 태위로 690-8,33.27893,126.7202,정좌표
1834022,편운산방,제주특별자치도 서귀포시 성산읍 서성일로 898-38,33.43732,126.8753,정좌표
1834042,연송갈치요리,제주특별자치도 서귀포시 칠십리로 145 (서귀동),33.24438,126.5689,정좌표
1834052,산들치킨,제주특별자치도 서귀포시 중산간동로 8003 (동홍동),33.26436,126.5617,정좌표
1834055,남양수산,제주특별자치도 서귀포시 성산읍 고성동서로56번길 11,33.4502,126.9141,정좌표
1834075,포레스타,제주특별자치도 서귀포시 칠십리로 264 (토평동),33.24817,126.5808,정좌표
1834085,난타5000피자강정지구점,"제주특별자치도 서귀포시 대청로25번길 10-8, 1층 (강정동)",33.25317,126.5037,정좌표
1834095,교촌치킨서귀포혁신도시점,"제주특별자치도 서귀포시 신서귀로97번길 55, 1층 (강정동)",33.25354,126.5068,정좌표
1834105,위미테이블,제주특별자치도 서귀포시 남원읍 태위로 180,33.27526,126.6667,정좌표
1834115,중문예지원,제주특별자치도 서귀포시 천제연로 129 (중문동),33.25397,126.4193,정좌표
1834125,뿐이네밥집,제주특별자치도 서귀포시 검은여로 178 (토평동),33.25703,126.5859,정좌표
1834126,서호반점,제주특별자치도 서귀포시 신동로67번길 31 (서호동),33.25636,126.5114,정좌표
1834135,늘푸른식당,제주특별자치도 서귀포시 동홍중앙로 8 (동홍동),33.25142,126.5723,정좌표
1834137,늘여름,제주특별자치도 서귀포시 태평로353번길 22-5 (서귀동),33.24709,126.5612,정좌표
1834147,신시가지안성식당,제주특별자치도 서귀포시 김정문화로 69-1 (서호동),33.25081,126.5121,정좌표
1834151,탐라국꾼,제주특별자치도 서귀포시 남원읍 태위로 673,33.2791,126.7183,정좌표
1834154,겸성식당,제주특별자치도 서귀포시 이어도로 918 (법환동),33.2374,126.5127,정좌표
1834156,서귀포흑돼지제주집,제주특별자치도 서귀포시 신서귀로51번길 5 (법환동),33.25372,126.5107,정좌표
1834166,바른피자,제주특별자치도 서귀포시 중문관광로 296 (대포동),33.24663,126.4298,정좌표
1834176,자매해장국,제주특별자치도 서귀포시 남원읍 남원회관로 97,33.27971,126.723,정좌표
1834186,에이그라운드,제주특별자치도 서귀포시 성산읍 서성일로 431,33.41491,126.8354,정좌표
1834206,버디클럽스크린골프,"제주특별자치도 서귀포시 대청로 41, 5층 503호 (강정동, 블루빌딩)",33.25273,126.5042,정좌표
1834210,흑돼지박스,제주특별자치도 서귀포시 성산읍 신양로 100,33.4364,126.9204,정좌표
1834230,로이앤메이,제주특별자치도 서귀포시 성산읍 온평상하로15번길 12-7,33.40948,126.901,정좌표
1834250,서귀포어시장,제주특별자치도 서귀포시 정방로 17 (서귀동),33.24732,126.5682,정좌표
1834260,낙낭회센터,제주특별자치도 서귀포시 동홍중앙로 50 (동홍동),33.25507,126.5722,정좌표
1834270,육회말투아웃,"제주특별자치도 서귀포시 천제연로 189, 1층 (중문동)",33.25189,126.4248,정좌표
1834276,명물고기집,제주특별자치도 서귀포시 서문로29번길 3 (서귀동),33.25014,126.559,정좌표
1834281,신틈새불닭발,제주특별자치도 서귀포시 명동로 5 (서귀동),33.24711,126.5625,정좌표
1834288,칠십리고기완자,"제주특별자치도 서귀포시 태평로 357, 1층 (서귀동)",33.24634,126.5595,정좌표
1834298,이씨네수라간,"제주특별자치도 서귀포시 신동로27번길 42, 1층 (서호동)",33.25199,126.5127,정좌표
1834308,신우가촌,제주특별자치도 서귀포시 이어도로 1042 (서호동),33.2445,126.5225,정좌표
1834318,바굥식당,"제주특별자치도 서귀포시 남원읍 태위로 87, 1층",33.27444,126.6568,정좌표
1834328,화산흑돈마루,"제주특별자치도 서귀포시 성산읍 신양로 116, 2층",33.43637,126.922,정좌표
1834332,천일만두,"제주특별자치도 서귀포시 서문로 25, 1층 (서귀동)",33.25051,126.5591,정좌표
1834342,골드스푼,"제주특별자치도 서귀포시 대청로25번길 4, 3층 303호 (강정동)",33.2528,126.5027,정좌표
1834347,어니스트밀크,"제주특별자치도 서귀포시 성산읍 성산등용로17번길 55, 1층 19호",33.46059,126.9299,정좌표
1834367,예주꿩메밀,제주특별자치도 서귀포시 서문서로 55 (서귀동),33.25169,126.559,정좌표
1834368,올레2번가갈비,제주특별자치도 서귀포시 서문로 31 (서귀동),33.25009,126.5587,정좌표
1834372,달빛부둣가,제주특별자치도 서귀포시 칠십리로 38-1 (서귀동),33.24132,126.5611,정좌표
1834382,안케머리식당,제주특별자치도 서귀포시 성산읍 환해장성로 492,33.40088,126.904,정좌표
1834388,예촌삼계탕,제주특별자치도 서귀포시 상예로 249-9 (상예동),33.26804,126.3939,정좌표
1834392,광치기흑돼지,제주특별자치도 서귀포시 성산읍 일출로 86,33.45003,126.9215,정좌표
1834412,마시레흑돈,제주특별자치도 서귀포시 용흥로38번길 49-1 (강정동),33.25566,126.4842,정좌표
1834416,검은여마당넓은집,제주특별자치도 서귀포시 칠십리로 310-24 (토평동),33.24591,126.5849,정좌표
1834422,남원가,"제주특별자치도 서귀포시 남원읍 태위로 683, 1층",33.27936,126.7194,정좌표
1834432,현가네곰탕남원점,"제주특별자치도 서귀포시 남원읍 남원회관로 65, 1층",33.27871,126.7198,정좌표
1834442,쌍둥이네제주토속잔치국수,제주특별자치도 서귀포시 명동로 47 (서귀동),33.24794,126.5669,정좌표
1834443,한경식당,"제주특별자치도 서귀포시 호근서호로 99, 1층 (호근동)",33.25719,126.5302,정좌표
1834450,모메든샤브샤브,"제주특별자치도 서귀포시 동홍북로 52, 1층 (동홍동)",33.25882,126.5738,정좌표
1834460,야미부대찌개강정점,"제주특별자치도 서귀포시 이어도로 573, 1층 (강정동)",33.23629,126.478,정좌표
1834470,비포크비스트로,제주특별자치도 서귀포시 태평로 417-1 (서귀동),33.24508,126.5648,정좌표
1834480,제주부싯돌효돈점,제주특별자치도 서귀포시 일주동로 8153 (하효동),33.26033,126.6164,정좌표
1834490,올레길설렁탕,제주특별자치도 서귀포시 남원읍 태위로700번길 4,33.2794,126.7212,정좌표
1834500,선미식당,제주특별자치도 서귀포시 성산읍 일출로 281,33.46271,126.9347,정좌표
1834520,중문아구찜,제주특별자치도 서귀포시 중문상로 41 (중문동),33.25214,126.4254,정좌표
1834530,제주한라국수,제주특별자치도 서귀포시 천제연로188번길 17 (중문동),33.25028,126.4244,정좌표
1834540,임창정의소주한잔서귀포점,제주특별자치도 서귀포시 이중섭로 4-1 (서귀동),33.24761,126.564,정좌표
1834549,시흥리해녀의집,제주특별자치도 서귀포시 성산읍 시흥하동로 114,33.47798,126.9083,정좌표
1834569,동해물가든,제주특별자치도 서귀포시 선반로 394 (월평동),33.24205,126.4684,정좌표
1834579,복조리부산양곱창,제주특별자치도 서귀포시 서문로29번길 3 (서귀동),33.25014,126.559,정좌표
1834589,삼무호생선구이서귀포점,"제주특별자치도 서귀포시 명동로 12, 1~2층 (서귀동)",33.24702,126.5632,정좌표
1834599,성산에오거들랑,"제주특별자치도 서귀포시 성산읍 고성동서로 13-7, 1층",33.45031,126.9083,정좌표
1834619,웰덤대게고로케올레시장점,"제주특별자치도 서귀포시 중정로73번길 13, 1층 (서귀동)",33.2492,126.5638,정좌표
1834629,교촌치킨서귀포명동점,제주특별자치도 서귀포시 명동로 29 (서귀동),33.2476,126.5649,정좌표
1834639,가야장수밀면,제주특별자치도 서귀포시 516로 145 (토평동),33.26609,126.5847,정좌표
1834649,맷돌식당,제주특별자치도 서귀포시 칠십리로 145 (서귀동),33.24438,126.5689,정좌표
1834659,시민을위한갈비,제주특별자치도 서귀포시 동홍로 10 (서귀동),33.24931,126.5679,정좌표
1834665,BBQ성산점,제주특별자치도 서귀포시 성산읍 고성오조로 71-1,33.45014,126.9146,정좌표
1834685,타모라돈까스,"제주특별자치도 서귀포시 남원읍 일주동로 7131, 1층",33.28286,126.7183,정좌표
1834821,뽕끄랑,"제주특별자치도 서귀포시 남성로138번길 1, 1층 (서홍동)",33.24304,126.5551,정좌표
1835453,늘고팡,제주특별자치도 서귀포시 일주동로 8583 (동홍동),33.25455,126.5713,정좌표
1835462,제주바다2822,제주특별자치도 서귀포시 중문관광로72번길 29-51 (색달동),33.24589,126.413,정좌표
1835677,은희네해장국성산점,"제주특별자치도 서귀포시 성산읍 환해장성로 803, 1층",33.42353,126.9136,정좌표
1835889,중문대양횟집,제주특별자치도 서귀포시 천제연로207번길 9 (중문동),33.25243,126.4268,정좌표
1835898,굽네치킨신시가지점,"제주특별자치도 서귀포시 신서로 55, 214동 101층 (강정동, 강정상록아파트)",33.25521,126.5049,정좌표
1835912,시장골목순대,제주특별자치도 서귀포시 동문로 12 (서귀동),33.25183,126.5624,정좌표
1835918,양평해장국,제주특별자치도 서귀포시 칠십리로 61 (서귀동),33.24005,126.5628,정좌표
1835925,탐랑성,제주특별자치도 서귀포시 이어도로 689 (강정동),33.23488,126.4894,정좌표
1835957,예촌골성문맛집,제주특별자치도 서귀포시 남원읍 중산간동로 7131,33.28309,126.6305,정좌표
1835978,광주식당,"제주특별자치도 서귀포시 성산읍 일주동로 4188, 1층",33.45459,126.9107,정좌표
1836746,용이짬뽕,"제주특별자치도 서귀포시 성산읍 온평상하로 81, B동",33.40484,126.9024,정좌표
1836768,티나케이크,"제주특별자치도 서귀포시 서문로 61, 1층 (서귀동)",33.24789,126.5568,정좌표
1836912,의귀리부부막국수,제주특별자치도 서귀포시 남원읍 한신로 252-6,33.31113,126.7177,정좌표
1836963,총각네회센터,제주특별자치도 서귀포시 홍중로 96-2 (서홍동),33.26095,126.5559,정좌표
1836975,하나로국밥,제주특별자치도 서귀포시 천제연로 222-2 (중문동),33.25123,126.4282,정좌표
1837009,은정이네식당,제주특별자치도 서귀포시 중정로91번길 9 (서귀동),33.24923,126.5655,정좌표
1837011,던킨도너츠제주천지연폭포점,제주특별자치도 서귀포시 남성중로 2-11 (서홍동),33.24421,126.5598,정좌표
1837139,금박돈,"제주특별자치도 서귀포시 성산읍 일출로 261, 1층",33.46134,126.9336,정좌표
1838093,청해원,제주특별자치도 서귀포시 천제연로 163 (중문동),33.25236,126.4223,정좌표
1838149,올레길밥상,"제주특별자치도 서귀포시 월드컵로 171, 1층 (강정동)",33.23445,126.5067,정좌표
1838323,선영횟집,"제주특별자치도 서귀포시 칠십리로 61-1, 1,5층 (서귀동)",33.23996,126.563,정좌표
1838511,참치포차,제주특별자치도 서귀포시 태평로 508 (동홍동),33.25036,126.5722,정좌표
1838525,소바마사,"제주특별자치도 서귀포시 중앙로 81, 1층 (서귀동)",33.25192,126.5609,정좌표
1838595,양주고을부대찌개,제주특별자치도 서귀포시 동문동로53번길 14 (서귀동),33.2521,126.5617,정좌표
1838627,동남막걸리,"제주특별자치도 서귀포시 성산읍 고성오조로 71-1, 1층",33.45014,126.9146,정좌표
1838699,함쉐프키친,"제주특별자치도 서귀포시 대포중앙로 116, 1층 (대포동)",33.24089,126.4312,정좌표
1839207,라움,"제주특별자치도 서귀포시 성산읍 동류암로 26, 1층",33.44966,126.9172,정좌표
1839247,실이네닭곰탕,제주특별자치도 서귀포시 동홍남로 80 (동홍동),33.25676,126.5768,정좌표
1839275,까망돼지서귀포점,"제주특별자치도 서귀포시 일주동로 8524, 1층 (토평동)",33.25515,126.5775,정좌표
1841277,해비치클럽하우스,제주특별자치도 서귀포시 남원읍 원님로399번길 319,33.36126,126.726,정좌표
1841283,천지연정육식당,"제주특별자치도 서귀포시 중산간동로 7898, 2층 (동홍동)",33.26607,126.5728,정좌표
1841297,수육본가,"제주특별자치도 서귀포시 신서로32번길 1, 지하층 (강정동)",33.25285,126.5051,정좌표
1841309,김고기,"제주특별자치도 서귀포시 신동로67번길 23, 지하층 (서호동)",33.2558,126.5119,정좌표
1841413,착한전복,제주특별자치도 서귀포시 천제연로 119 (색달동),33.25461,126.4182,정좌표
1842745,대포어촌횟집,"제주특별자치도 서귀포시 이어도로 75, 산호초회마당 1층 (대포동)",33.23858,126.4311,정좌표
1842789,토평치킨,제주특별자치도 서귀포시 토평로 59 (토평동),33.27117,126.5896,정좌표
1842807,놀이터식당,제주특별자치도 서귀포시 중정로73번길 24-1 (서귀동),33.25021,126.5639,정좌표
1842889,아랑조은맛집,제주특별자치도 서귀포시 천지로 19 (서귀동),33.24935,126.5607,정좌표
1842893,애삘레,제주특별자치도 서귀포시 남원읍 태위로 728,33.28045,126.7242,정좌표
1842919,불용,"제주특별자치도 서귀포시 토평로 26, 1층 (토평동)",33.26896,126.5877,정좌표
1842971,오름제주,제주특별자치도 서귀포시 성산읍 삼달로 128,33.37233,126.8558,정좌표
1843259,거믄질식당,"제주특별자치도 서귀포시 토평로29번길 38, 1층 (토평동)",33.27265,126.5881,정좌표
1843271,남매네왕갈치,"제주특별자치도 서귀포시 중정로73번길 20, 지하1층 (서귀동)",33.24989,126.564,정좌표
1843816,고찌올레,"제주특별자치도 서귀포시 효돈순환로 217-3, 1층 (하효동)",33.25685,126.6214,정좌표
1843980,호림식당,"제주특별자치도 서귀포시 부두로 45, 1,2층 (서귀동)",33.24103,126.5647,정좌표
1845372,육회본가제주직영점,"제주특별자치도 서귀포시 명동로 19, 1층 (서귀동)",33.24744,126.5639,정좌표
1845398,서귀포동경우동본점,제주특별자치도 서귀포시 중앙로89번길 4 (서귀동),33.25256,126.5602,정좌표
1845480,죽림횟집,제주특별자치도 서귀포시 솔동산로 5-1 (서귀동),33.24418,126.5645,정좌표
1845624,봄날제주,"제주특별자치도 서귀포시 성산읍 섭지코지로26번길 6, 4,5호",33.43858,126.9194,정좌표
1845692,해뜨리식당,제주특별자치도 서귀포시 신중로 66 (서호동),33.25418,126.5122,정좌표
1845718,한스시,제주특별자치도 서귀포시 천제연로 238 (중문동),33.25125,126.4299,정좌표
1845770,제주스럽닭서귀포올레점,"제주특별자치도 서귀포시 태평로 396, 1층 (서귀동)",33.24427,126.5626,정좌표
1846253,이끌림,"제주특별자치도 서귀포시 중문상로82번길 15, 지하1층 (중문동)",33.25504,126.429,정좌표
1846257,BHC서귀행복점,"제주특별자치도 서귀포시 홍중로 64-1, 1층 (서홍동)",33.25838,126.5567,정좌표
1846315,한옥집,제주특별자치도 서귀포시 서홍로 41 (서홍동),33.25154,126.5533,정좌표
1846473,무주향,제주특별자치도 서귀포시 남원읍 위미해안로 118-5,33.26999,126.654,정좌표
1846497,플레이커피랩,"제주특별자치도 서귀포시 서문로28번길 2, 1층 (서귀동)",33.25059,126.5588,정좌표
1846643,오일장본전식당,제주특별자치도 서귀포시 토평서로11번길 150 (동홍동),33.26653,126.5733,정좌표
1846645,오일장왕십리식당,제주특별자치도 서귀포시 토평서로11번길 150 (동홍동),33.26653,126.5733,정좌표
1846651,다시오마,"제주특별자치도 서귀포시 태평로353번길 10, 1층 (서귀동)",33.24675,126.56,정좌표
1846659,미향해장국동홍점,"제주특별자치도 서귀포시 동홍남로 37, 2층 (동홍동)",33.25706,126.5722,정좌표
1846671,바이브230,"제주특별자치도 서귀포시 성산읍 성산등용로 5, 1층",33.46449,126.9335,정좌표
1846915,팁시테이블,"제주특별자치도 서귀포시 대청로 41, 1층 104호 (강정동, 블루빌딩)",33.25273,126.5042,정좌표
1846971,서귀포통큰장어,제주특별자치도 서귀포시 동홍중앙로66번길 12 (동홍동),33.25632,126.5733,정좌표
1847002,투다리동남점,제주특별자치도 서귀포시 성산읍 고성오조로 96,33.4522,126.9142,정좌표
1847018,쌍둥이횟집본점,제주특별자치도 서귀포시 중정로62번길 14 (서귀동),33.2466,126.5629,정좌표
1849394,사거리국밥,제주특별자치도 서귀포시 성산읍 일주동로 4298,33.4449,126.9125,정좌표
1849396,명가보쌈중문점,제주특별자치도 서귀포시 중문상로 39 (중문동),33.25193,126.4254,정좌표
1849417,큰어멍식당,제주특별자치도 서귀포시 이어도로 1036 (서호동),33.24428,126.522,정좌표
1849423,새솔숯불갈비,제주특별자치도 서귀포시 중산간동로 8016-3 (동홍동),33.26457,126.5602,정좌표
1849430,중문해물라면오빠네,제주특별자치도 서귀포시 일주서로 962 (색달동),33.2583,126.408,정좌표
1849934,사천교동짬뽕,"제주특별자치도 서귀포시 중앙로 14, 1층 103호 (서귀동)",33.24596,126.5623,정좌표
1849966,치킨나라위미점,제주특별자치도 서귀포시 남원읍 태위로 178,33.27528,126.6665,정좌표
1849971,빨간집서귀포점,"제주특별자치도 서귀포시 이중섭로 12-1, 1층 (서귀동)",33.2469,126.5639,정좌표
1849986,섭지코지올래맛집,"제주특별자치도 서귀포시 신동로47번길 10-12, 준음악학원 (서호동)",33.25369,126.5125,정좌표
1850011,낙지네,"제주특별자치도 서귀포시 동부로 22, 1층 (서귀동)",33.24676,126.5692,정좌표
1850028,진주삼계추어탕,제주특별자치도 서귀포시 문부로 5 (동홍동),33.25221,126.5683,정좌표
1850036,별미식당,제주특별자치도 서귀포시 토평로 64 (토평동),33.27152,126.5899,정좌표
1850038,다슬이네칡냉면,제주특별자치도 서귀포시 일주동로 8735 (서귀동),33.25201,126.5552,정좌표
1850454,오름채,"제주특별자치도 서귀포시 성산읍 중산간동로 4255, 시동 1층",33.37975,126.8377,정좌표
1850480,시온푸드,제주특별자치도 서귀포시 대포로 75 (대포동),33.24312,126.4322,정좌표
1850483,그리울땐제주,"제주특별자치도 서귀포시 남원읍 태신해안로 271, 1층",33.30098,126.7706,정좌표
1850579,딕시,제주특별자치도 서귀포시 일주동로 8592 (동홍동),33.25493,126.5703,정좌표
1850581,블랑마레,제주특별자치도 서귀포시 이어도로 1051 (서호동),33.2457,126.5231,정좌표
1850582,동백정원,제주특별자치도 서귀포시 이어도로343번길 117 (대포동),33.24964,126.4464,정좌표
1850624,흑돼지일번지,제주특별자치도 서귀포시 남원읍 남조로 5,33.28027,126.7208,정좌표
1850663,집밥,제주특별자치도 서귀포시 문부로 32 (동홍동),33.25201,126.5713,정좌표
1850703,쌈총사횟집,제주특별자치도 서귀포시 성산읍 일출로 32,33.44748,126.9163,정좌표
1850973,가회식당,제주특별자치도 서귀포시 남원읍 태위로679번길 7,33.27969,126.7187,정좌표
1850983,흑돼지패밀리,제주특별자치도 서귀포시 남원읍 중산간동로 6924,33.28825,126.651,정좌표
1851110,꿀꺽숯불깡통구이,제주특별자치도 서귀포시 막동산로 2 (호근동),33.25731,126.5251,정좌표
1851111,부가네얼큰이중문점,제주특별자치도 서귀포시 중문상로 31 (중문동),33.25136,126.4251,정좌표
1851215,레오파드,"제주특별자치도 서귀포시 일주동로 8796, 3층 (서홍동)",33.25398,126.5495,정좌표
1851232,모랑가주,제주특별자치도 서귀포시 성산읍 일출로 14-1,33.44724,126.9144,정좌표
1851274,자리돔횟집,제주특별자치도 서귀포시 동홍동로 7 (동홍동),33.25553,126.5748,정좌표
1851638,토크쇼동홍점,제주특별자치도 서귀포시 태평로512번길 4 (동홍동),33.25032,126.5724,정좌표
1851639,신관식당,"제주특별자치도 서귀포시 태평로439번길 42, 1층 (서귀동)",33.24659,126.5628,정좌표
1851735,코우,"제주특별자치도 서귀포시 신중로13번길 3-5, 지하1층 (강정동)",33.25613,126.5063,정좌표
1851793,매니아,"제주특별자치도 서귀포시 장수로 97, 1층 (서홍동, 선진다세대 나동)",33.25594,126.5576,정좌표
1851825,방글방글,제주특별자치도 서귀포시 성산읍 신양로 96,33.43631,126.9198,정좌표
1851977,토평골식당,제주특별자치도 서귀포시 중산간동로 7715 (토평동),33.26805,126.5918,정좌표
1852003,옛날순대,제주특별자치도 서귀포시 중앙로 155 (서홍동),33.25837,126.5598,정좌표
1852041,법환나들목,제주특별자치도 서귀포시 이어도로 930 (법환동),33.23795,126.5138,정좌표
1852061,한라산마루,제주특별자치도 서귀포시 동홍로90번길 7-1 (동홍동),33.2565,126.5688,정좌표
1852062,모메존감자탕,제주특별자치도 서귀포시 성산읍 일주동로 5595,33.3443,126.8491,정좌표
1852100,성산보말명가,제주특별자치도 서귀포시 성산읍 성산등용로 44,33.46677,126.9306,정좌표
1852302,금백조로가든,제주특별자치도 서귀포시 성산읍 금백조로 96,33.43929,126.8629,정좌표
1852394,평양면옥,제주특별자치도 서귀포시 중앙로4번길 4 (서귀동),33.24491,126.5624,정좌표
1852457,산수정,제주특별자치도 서귀포시 중정로 26 (서귀동),33.24732,126.5592,정좌표
1852553,엄마가차린밥상,제주특별자치도 서귀포시 동홍남로 64 (동홍동),33.25672,126.5752,정좌표
1852569,현우네,"제주특별자치도 서귀포시 중앙로54번길 35, 7호 (서귀동)",33.2499,126.5632,정좌표
1852889,막창도둑제주본점,제주특별자치도 서귀포시 이중섭로 14 (서귀동),33.24685,126.5639,정좌표
1852894,미향해장국 중문점,제주특별자치도 서귀포시 일주서로 962 (색달동),33.2583,126.408,정좌표
1853062,황가네수산,제주특별자치도 서귀포시 서문로29번길 8 (서귀동),33.24967,126.5589,정좌표
1853063,소문난돼지국밥,제주특별자치도 서귀포시 명동로 6 (서귀동),33.24694,126.5627,정좌표
1853071,하마다,제주특별자치도 서귀포시 남원읍 일주동로 6863,33.28882,126.7461,정좌표
1853244,동글이,"제주특별자치도 서귀포시 중앙로54번길 35, 8호 (서귀동)",33.2499,126.5632,정좌표
1853254,매일통닭,"제주특별자치도 서귀포시 중앙로54번길 35, 3호 (서귀동)",33.2499,126.5632,정좌표
1853381,성산풍천장어,제주특별자치도 서귀포시 성산읍 신양로 8,33.43484,126.9108,정좌표
1853419,영광식당,"제주특별자치도 서귀포시 성산읍 한도로 257, 1층",33.4661,126.9349,정좌표
1853649,벤지네쏘세지앤핫도그,"제주특별자치도 서귀포시 중앙로54번길 35, 5호 (서귀동)",33.2499,126.5632,정좌표
1853721,친구참숯구이,제주특별자치도 서귀포시 중정로91번길 40 (서귀동),33.25093,126.5632,정좌표
1853722,비비큐서귀포신시가지점,제주특별자치도 서귀포시 신서귀로 11 (법환동),33.25109,126.5091,정좌표
1853734,소반,제주특별자치도 서귀포시 중동로 23 (서귀동),33.25198,126.566,정좌표
1853775,삼다도식당,"제주특별자치도 서귀포시 성산읍 동류암로39번길 4, 1층",33.44845,126.9158,정좌표
1853861,돈내코힐리조트,제주특별자치도 서귀포시 돈내코로 180 (상효동),33.30276,126.5783,정좌표
1853871,숲속의 컨벤션,제주특별자치도 서귀포시 일주서로 88 (강정동),33.25068,126.4987,정좌표
1853881,홍쉐프의중국집,제주특별자치도 서귀포시 이어도로 685-1 (강정동),33.23474,126.4891,정좌표
1853891,서귀포흑돈,제주특별자치도 서귀포시 칠십리로 278 (토평동),33.24787,126.5822,정좌표
1853901,중문미리내김밥,제주특별자치도 서귀포시 천제연로 170 (중문동),33.25171,126.4227,정좌표
1853910,한가네흑돼지냉면전문점,제주특별자치도 서귀포시 서호호근로 42 (서호동),33.25086,126.5246,정좌표
1854041,자구리몬들락,"제주특별자치도 서귀포시 칠십리로 113, 1층 (서귀동)",33.24223,126.5667,정좌표
1854071,위미동백식당,제주특별자치도 서귀포시 남원읍 태위로 278,33.27561,126.6771,정좌표
1854092,모퉁이집,"제주특별자치도 서귀포시 칠십리로91번길 16, 1층 (서귀동)",33.24104,126.564,정좌표
1854121,허심탄회하게,"제주특별자치도 서귀포시 천제연로188번길 4, 2층 (중문동)",33.25147,126.4244,정좌표
1854123,에곤,"제주특별자치도 서귀포시 성산읍 신고로 52-18, 1층",33.43991,126.9182,정좌표
1854183,정가네연탄구이,제주특별자치도 서귀포시 성산읍 서성일로 1047,33.44415,126.8906,정좌표
1854333,기똥차네,제주특별자치도 서귀포시 성산읍 성산등용로 13-1,33.46493,126.9329,정좌표
1854633,막둥이해녀복순이네,제주특별자치도 서귀포시 성산읍 서성일로 1129,33.44535,126.8991,정좌표
1854801,원차우,제주특별자치도 서귀포시 서호로 7-24 (서호동),33.25361,126.5225,정좌표
1854828,블루펄,"제주특별자치도 서귀포시 태평로92번길 35, 1층 (호근동)",33.24103,126.532,정좌표
1855100,서울돈까스&김밥,제주특별자치도 서귀포시 남원읍 남조로 26,33.28203,126.7208,정좌표
1855147,달림흑돼지,제주특별자치도 서귀포시 성산읍 서성일로 969,33.4422,126.8823,정좌표
1855155,섭지코지화덕피자,제주특별자치도 서귀포시 성산읍 신양로 102,33.43635,126.9205,정좌표
1855375,쇠소깍돼지갈비,"제주특별자치도 서귀포시 효돈로 170, 1층 (하효동)",33.26353,126.6169,정좌표
1855399,호야네집밥,제주특별자치도 서귀포시 성산읍 신양로 110,33.43648,126.9214,정좌표
1855457,페리카나남원점,제주특별자치도 서귀포시 남원읍 태위로 689,33.27948,126.72,정좌표
1855458,위미페리카나,제주특별자치도 서귀포시 남원읍 위미중앙로 204,33.27227,126.6639,정좌표
1855460,호재옻닭,제주특별자치도 서귀포시 동홍로 371 (동홍동),33.28005,126.564,정좌표
1855472,김명자낙지마당서귀포점,"제주특별자치도 서귀포시 월드컵로 172, 1층 (강정동)",33.23435,126.5063,정좌표
1855495,위미항면카페,제주특별자치도 서귀포시 남원읍 위미중앙로196번길 15,33.27178,126.6638,정좌표
1855548,보목식당,제주특별자치도 서귀포시 마소물로135번길 64 (토평동),33.2584,126.5914,정좌표
1855560,성산바다,제주특별자치도 서귀포시 성산읍 신양로 29-2,33.43583,126.913,정좌표
1856378,막창먹는놈,제주특별자치도 서귀포시 동문로 58 (서귀동),33.24931,126.5665,정좌표
1856388,서귀포흑돼지명가,제주특별자치도 서귀포시 태평로 122 (호근동),33.24407,126.5364,정좌표
1856541,성산일출봉해송갈치전문,제주특별자치도 서귀포시 성산읍 일출로 270-2,33.4617,126.9342,정좌표
1857165,봉금펍,제주특별자치도 서귀포시 신서귀로 40 (서호동),33.25239,126.5113,정좌표
1857178,섬사랑,제주특별자치도 서귀포시 남성중로 2-3 (서홍동),33.24337,126.5597,정좌표
1857682,타쿠마,제주특별자치도 서귀포시 성산읍 섭지코지로 15,33.43918,126.9185,정좌표
1858752,달인회센타,제주특별자치도 서귀포시 중정로73번길 22 (서귀동),33.25003,126.564,정좌표
1858803,올레낭쿰,제주특별자치도 서귀포시 효돈로 210-2 (하효동),33.26337,126.621,정좌표
1858814,쏠레국수,제주특별자치도 서귀포시 성산읍 성산등용로 96-1,33.47013,126.9301,정좌표
1858892,효돈연탄구이,제주특별자치도 서귀포시 하신상로 7 (하효동),33.26139,126.6174,정좌표
1858897,동홍분식,제주특별자치도 서귀포시 동홍로 205 (동홍동),33.26682,126.5681,정좌표
1859029,맘스터치중문점,"제주특별자치도 서귀포시 중문상로 27, 지하1층 (중문동)",33.25091,126.4248,정좌표
1859057,국수마을,제주특별자치도 서귀포시 성산읍 동류암로 30,33.44931,126.9171,정좌표
1859369,대포해송,제주특별자치도 서귀포시 이어도로 200-7 (대포동),33.23903,126.4427,정좌표
1859470,중문자연산횟집,제주특별자치도 서귀포시 천제연로 115 (색달동),33.25453,126.4177,정좌표
1859860,윤가우동중문본점,제주특별자치도 서귀포시 천제연로 178 (중문동),33.25169,126.4236,정좌표
1859878,오븐에빠진닭 동홍점,"제주특별자치도 서귀포시 동홍중앙로51번길 2, 1층 (동홍동)",33.25537,126.5718,정좌표
1859883,제주비스타케이월드컵,"제주특별자치도 서귀포시 김정문화로41번길 10-6, 1층 (법환동)",33.2519,126.5098,정좌표
1859958,놀멍걸으멍쉬멍,제주특별자치도 서귀포시 막숙포로41번길 9-1 (법환동),33.23778,126.5163,정좌표
1859986,네네치킨서귀포2호점,제주특별자치도 서귀포시 장수로 98 (서홍동),33.25632,126.5575,정좌표
1860007,효돈중앙반점,제주특별자치도 서귀포시 효돈로 164-2 (하효동),33.26345,126.6161,정좌표
1860022,식탁,"제주특별자치도 서귀포시 성산읍 고성오조로 94, 브라운스위트호텔 1층 101,102호",33.4521,126.9145,정좌표
1860028,낭만시대,"제주특별자치도 서귀포시 중산간동로 8067, 1층 (서홍동)",33.26392,126.5548,정좌표
1860035,순대골,제주특별자치도 서귀포시 예래로 442-1 (하예동),33.23587,126.3709,정좌표
1860083,서귀포맛집코다리,제주특별자치도 서귀포시 신서귀로 37 (법환동),33.25241,126.5107,정좌표
1860100,세자매식당,제주특별자치도 서귀포시 신서귀로 11 (법환동),33.25109,126.5091,정좌표
1860112,마루샤브제주서귀포점,"제주특별자치도 서귀포시 김정문화로 51, 1층 (법환동)",33.25142,126.5103,정좌표
1860122,미향해장국남원점,제주특별자치도 서귀포시 남원읍 태위로 623,33.27775,126.7132,정좌표
1860137,금섬,제주특별자치도 서귀포시 솔동산로22번길 8 (서귀동),33.24328,126.5632,정좌표
1860156,제주장수가든,제주특별자치도 서귀포시 일주서로 204 (강정동),33.25077,126.4859,정좌표
1860159,큰엉식당,제주특별자치도 서귀포시 남원읍 태위로 526,33.27504,126.7034,정좌표
1860289,착한괴기,제주특별자치도 서귀포시 하신상로 6 (하효동),33.26109,126.6177,정좌표
1860308,제주고가네,"제주특별자치도 서귀포시 성산읍 성산중앙로19번길 14, 1층",33.46275,126.9313,정좌표
1860326,듀크서프비스트로,제주특별자치도 서귀포시 천제연로188번길 6-6 (중문동),33.25136,126.424,정좌표
1860416,고기의법칙본점,제주특별자치도 서귀포시 천제연로 183-1 (중문동),33.25191,126.4243,정좌표
1860420,부전식당,제주특별자치도 서귀포시 성산읍 성산중앙로 36,33.46289,126.9333,정좌표
1860446,경자이모네,제주특별자치도 서귀포시 516로 295-13 (토평동),33.27958,126.5857,정좌표
1860453,애릿내,제주특별자치도 서귀포시 정방로 7-7 (서귀동),33.24783,126.5684,정좌표
1860467,제주황칠곰탕,제주특별자치도 서귀포시 남원읍 남조로 260,33.30242,126.7194,정좌표
1860475,낭만화로구이,제주특별자치도 서귀포시 남원읍 태위로724번길 11,33.27963,126.7242,정좌표
1860520,탐라밥상,"제주특별자치도 서귀포시 남원읍 위미중앙로241번길 24, 1층",33.27447,126.6681,정좌표
1860840,페이보리오리,제주특별자치도 서귀포시 효돈순환로 252 (하효동),33.25693,126.6173,정좌표
1860882,동네식당,"제주특별자치도 서귀포시 태평로335번길 25, 1층 (서귀동)",33.24703,126.5597,정좌표
1860894,가시고기,제주특별자치도 서귀포시 중정로91번길 41-1 (서귀동),33.25093,126.5628,정좌표
1860897,마블링,제주특별자치도 서귀포시 서홍로 160 (서홍동),33.26211,126.5516,정좌표
1860908,중앙통닭마농치킨2호점,"제주특별자치도 서귀포시 중앙로62번길 13, 1층 (서귀동)",33.25041,126.5628,정좌표
1861426,메이비,"제주특별자치도 서귀포시 이중섭로 34, 1층 (서귀동)",33.24498,126.5642,정좌표
1861461,앙끄레국수,제주특별자치도 서귀포시 법환상로2번길 97-18 (법환동),33.24753,126.5116,정좌표
1862183,민영식당,제주특별자치도 서귀포시 소보리당로 7 (하예동),33.24612,126.3881,정좌표
1862186,족발클라스,"제주특별자치도 서귀포시 신동로47번길 24, 1층 (서호동)",33.2538,126.5121,정좌표
1862258,카페지니,제주특별자치도 서귀포시 남원읍 공천포로11번길 19,33.26486,126.6406,정좌표
1862385,빨간맛집성산점,제주특별자치도 서귀포시 성산읍 고성오조로 54,33.44842,126.9152,정좌표
1862503,부가네얼큰이효돈점,제주특별자치도 서귀포시 효돈로 177 (하효동),33.26381,126.6178,정좌표
1862512,최박사손칼국수,제주특별자치도 서귀포시 문부로 28 (동홍동),33.25195,126.5708,정좌표
1862537,두꺼비치킨,제주특별자치도 서귀포시 중정로61번길 19 (서귀동),33.24949,126.5626,정좌표
1862540,오조로식당,"제주특별자치도 서귀포시 성산읍 오조로 131, 1층",33.46526,126.913,정좌표
1862584,엄부랑,"제주특별자치도 서귀포시 성산읍 신양로 81, 1층",33.43648,126.9183,정좌표
1862816,양평해장국중문점,제주특별자치도 서귀포시 일주서로 914 (색달동),33.25844,126.413,정좌표
1862825,부가네얼큰이 남원점,제주특별자치도 서귀포시 남원읍 태위로679번길 10,33.28006,126.719,정좌표
1862835,괸당집서귀포점,제주특별자치도 서귀포시 동홍로 21 (서귀동),33.25042,126.5676,정좌표
1862871,돈하르방,제주특별자치도 서귀포시 명동로 33 (서귀동),33.24757,126.5654,정좌표
1863303,돈치킨,제주특별자치도 서귀포시 중앙로47번길 6 (서귀동),33.24881,126.561,정좌표
1863306,제일수산횟집,제주특별자치도 서귀포시 중앙로79번길 8 (서귀동),33.2515,126.5603,정좌표
1863363,녹두카페,제주특별자치도 서귀포시 성산읍 서성일로747번길 8,33.43261,126.8627,정좌표
1863367,갈치왕,제주특별자치도 서귀포시 일주서로 1146 (상예동),33.26465,126.3908,정좌표
1863934,뭉치푸줏간,제주특별자치도 서귀포시 성산읍 동류암로 50,33.44917,126.9155,정좌표
1863964,히비,"제주특별자치도 서귀포시 효돈로 107, 1층 (신효동)",33.26377,126.6104,정좌표
1864049,야뜨리,"제주특별자치도 서귀포시 칠십리로 113, 2층 (서귀동)",33.24223,126.5667,정좌표
1864081,아뜰리에안,제주특별자치도 서귀포시 막숙포로 166 (법환동),33.2315,126.506,정좌표
1864207,제주소문난감자탕,"제주특별자치도 서귀포시 상예로 224, 1층 (상예동)",33.26478,126.3937,정좌표
1864215,올레수산회센터,제주특별자치도 서귀포시 중정로61번길 12 (서귀동),33.24885,126.563,정좌표
1864277,미스제주가든,제주특별자치도 서귀포시 천제연로 145 (중문동),33.25329,126.4207,정좌표
1864356,모든날이행복하기를,제주특별자치도 서귀포시 남원읍 태신로 22,33.28829,126.7448,정좌표
1864576,오조해녀의 집,제주특별자치도 서귀포시 성산읍 한도로 141-13,33.46973,126.9223,정좌표
1864996,서귀포 고향순대,제주특별자치도 서귀포시 천지로 23 (서귀동),33.24968,126.5606,정좌표
1864997,어머니횟집,제주특별자치도 서귀포시 중문로 54 (중문동),33.25612,126.4258,정좌표
1865007,본전식당,제주특별자치도 서귀포시 중앙로 61 (서귀동),33.25018,126.5612,정좌표
1865010,보리솔식당,제주특별자치도 서귀포시 예래로 97 (상예동),33.25306,126.3971,정좌표
1865026,제주성산흑돼지영일,제주특별자치도 서귀포시 성산읍 성산중앙로37번길 1,33.46318,126.9331,정좌표
1865134,진안식당,제주특별자치도 서귀포시 성산읍 고성동서로 48,33.45017,126.9124,정좌표
1865234,사계절조개구이,제주특별자치도 서귀포시 천제연로 159 (중문동),33.25255,126.4218,정좌표
1865264,서귀포밀면정든옛집,제주특별자치도 서귀포시 토평로50번길 28 (토평동),33.26776,126.5898,정좌표
1865354,카페인섭지코지,"제주특별자치도 서귀포시 성산읍 섭지코지로 63, 2층",33.43702,126.9224,정좌표
1865372,우리들국수,"제주특별자치도 서귀포시 성산읍 섭지코지로 63, 1층",33.43702,126.9224,정좌표
1865456,제주곰집,제주특별자치도 서귀포시 이어도로 703-4 (강정동),33.23491,126.4908,정좌표
1866787,출출,제주특별자치도 서귀포시 성산읍 온평상하로 98,33.40329,126.9026,정좌표
1866913,제주커피박물관,제주특별자치도 서귀포시 성산읍 서성일로1168번길 89-17,33.43987,126.8992,정좌표
1867501,서귀포중문마리조아,"제주특별자치도 서귀포시 이어도로 215, 1,2층 (대포동)",33.2416,126.4431,정좌표
1867923,청해식당,제주특별자치도 서귀포시 동홍중앙로 39 (동홍동),33.25435,126.5718,정좌표
1867935,이드레국수,제주특별자치도 서귀포시 천제연로 93 (색달동),33.25527,126.4157,정좌표
1868251,탐라갈치요리전문점,제주특별자치도 서귀포시 소암로 37 (서귀동),33.24494,126.5696,정좌표
1868319,루스트서귀포점,제주특별자치도 서귀포시 신서로48번길 22 (강정동),33.25356,126.5073,정좌표
1868447,교촌치킨서귀포1호점,제주특별자치도 서귀포시 일주동로 8584 (동홍동),33.25502,126.5712,정좌표
1868497,혼고뜨로,제주특별자치도 서귀포시 성산읍 한도로 137,33.46911,126.9225,정좌표
1868527,손두부집,제주특별자치도 서귀포시 중정로5번길 17 (서귀동),33.24888,126.558,정좌표
1868556,새벽숯불가든,제주특별자치도 서귀포시 성산읍 일주동로 4036,33.46762,126.9067,정좌표
1868886,김태연국민동태탕서귀포시동홍점,제주특별자치도 서귀포시 동홍중앙로 17 (동홍동),33.25233,126.5717,정좌표
1868887,팔팔자연산회센타,제주특별자치도 서귀포시 성산읍 일주동로 4213,33.45241,126.912,정좌표
1869139,꿩망물,제주특별자치도 서귀포시 말질로 308-2 (강정동),33.2273,126.4733,정좌표
1869145,바다와농부,제주특별자치도 서귀포시 칠십리로 137 (서귀동),33.24387,126.5686,정좌표
1869152,착한마녀김밥,제주특별자치도 서귀포시 성산읍 고성오조로 64,33.44944,126.9151,정좌표
1869290,달인본가,"제주특별자치도 서귀포시 동홍로 36, 1층 (동홍동)",33.2517,126.5679,정좌표
1869292,아자부,"제주특별자치도 서귀포시 중정로61번길 30, 1층 (서귀동)",33.25052,126.5628,정좌표
1869300,수원닭집,제주특별자치도 서귀포시 남원읍 태위로 677,33.27916,126.7188,정좌표
1869315,그때그맛,"제주특별자치도 서귀포시 성산읍 금백조로 70, 1층",33.43995,126.8655,정좌표
1869337,담에랑또,"제주특별자치도 서귀포시 서호중로 86, 1층 (서호동)",33.25396,126.5224,정좌표
1869357,블랙바,"제주특별자치도 서귀포시 솔동산로 27, 1층 (서귀동, 메종 드 레아)",33.24232,126.5635,정좌표
1869363,소금막식당,"제주특별자치도 서귀포시 쇠소깍로 151-14, 지하1층 (하효동)",33.25061,126.6203,정좌표
1869418,올레안뜰,제주특별자치도 서귀포시 법환로 24 (법환동),33.23723,126.5128,정좌표
1870138,제주아모제,제주특별자치도 서귀포시 최영로 20-1 (법환동),33.23343,126.5127,정좌표
1870338,대패고기집,"제주특별자치도 서귀포시 동홍남로 75, 1층 (동홍동)",33.25705,126.5763,정좌표
1870347,더루머스,"제주특별자치도 서귀포시 태평로 408, 1층 (서귀동)",33.24458,126.564,정좌표
1870360,일품순두부성산점,제주특별자치도 서귀포시 성산읍 신양로 78,33.43608,126.918,정좌표
1870524,솥밥과추어탕,"제주특별자치도 서귀포시 동홍남로 71, 1층 (동홍동)",33.25703,126.576,정좌표
1870525,황가네흑족발,"제주특별자치도 서귀포시 남원읍 태위로 673, 1층",33.2791,126.7183,정좌표
1870538,중문막썰어횟집,"제주특별자치도 서귀포시 중문상로17번길 4, A동 7~8호 (중문동)",33.25029,126.424,정좌표
1870542,천보식당,제주특별자치도 서귀포시 중앙로89번길 13 (서귀동),33.25213,126.559,정좌표
1870596,예림양꼬치,제주특별자치도 서귀포시 명동로 17 (서귀동),33.24745,126.5638,정좌표
1870612,오태식해바라기치킨서귀포점,제주특별자치도 서귀포시 중정로61번길 34 (서귀동),33.25087,126.5627,정좌표
1870628,사해방흑돼지,"제주특별자치도 서귀포시 천제연로 263, 2층 (중문동)",33.25153,126.4327,정좌표
1870703,피자클래스중문신시가지점,제주특별자치도 서귀포시 천제연로207번길 12 (중문동),33.25257,126.427,정좌표
1870716,맛있는아구찜,제주특별자치도 서귀포시 천제연로 191 (중문동),33.25185,126.425,정좌표
1870735,가산토방,제주특별자치도 서귀포시 인정오름로86번길 3 (토평동),33.28791,126.578,정좌표
1871338,제주면옥,제주특별자치도 서귀포시 일주동로 8697 (서귀동),33.25268,126.5593,정좌표
1871356,제주돌하르방밀면,제주특별자치도 서귀포시 중문관광로 331 (중문동),33.24986,126.4306,정좌표
1871406,골목깡통구이,제주특별자치도 서귀포시 천제연로185번길 6 (중문동),33.25219,126.4246,정좌표
1871455,에리두,제주특별자치도 서귀포시 대포복개로 37 (대포동),33.24175,126.4346,정좌표
1871589,섭지골,제주특별자치도 서귀포시 성산읍 신양로 107,33.4368,126.9213,정좌표
1875013,성산수산식당,제주특별자치도 서귀포시 성산읍 성산중앙로 29,33.46258,126.9326,정좌표
1875115,청춘역,제주특별자치도 서귀포시 이중섭로 31 (서귀동),33.24523,126.5644,정좌표
1875126,천지동식당,제주특별자치도 서귀포시 서문로38번길 1 (서귀동),33.2499,126.5579,정좌표
1875127,제주성산해마루,제주특별자치도 서귀포시 성산읍 일출로 84,33.44979,126.9211,정좌표
1875293,봉구스밥버거서귀포점,제주특별자치도 서귀포시 중앙로 81 (서귀동),33.25192,126.5609,정좌표
1875300,뜰채,"제주특별자치도 서귀포시 신동로67번길 100-3, 1층 (서호동)",33.25981,126.5138,정좌표
1875604,토스트제이(토스트J),"제주특별자치도 서귀포시 성산읍 해맞이해안로 2690, 1층",33.47204,126.9129,정좌표
1875616,장수애섬식당,"제주특별자치도 서귀포시 솔동산로 30, 1층 (서귀동)",33.24239,126.5631,정좌표
1875752,찬밀면,"제주특별자치도 서귀포시 신동로 129, 1층 (서호동)",33.25993,126.5145,정좌표
1875820,오르막카페,"제주특별자치도 서귀포시 남원읍 남원체육관로 251, 1층",33.27993,126.7121,정좌표
1875824,코델리아S,"제주특별자치도 서귀포시 성산읍 일주동로 4186, 지하1층",33.45493,126.9103,정좌표
1876018,사진술,제주특별자치도 서귀포시 성산읍 신고로22번길 34,33.43683,126.9204,정좌표
1876030,섭지코지한끼,제주특별자치도 서귀포시 성산읍 신양로 100,33.4364,126.9204,정좌표
1876322,성산포마농치킨5호점,제주특별자치도 서귀포시 성산읍 일출로 251,33.46105,126.9327,정좌표
1876568,식을탐하다,"제주특별자치도 서귀포시 성산읍 일출로 293, 1층",33.46352,126.9346,정좌표
1876684,두루치기먹고가게,제주특별자치도 서귀포시 성산읍 일주동로 5595,33.3443,126.8491,정좌표
1876840,동트레,"제주특별자치도 서귀포시 성산읍 성산등용로 78, 가동 1층",33.46889,126.9292,정좌표
1876882,숲숲포레스트,제주특별자치도 서귀포시 김정문화로41번길 14-6 (법환동),33.25247,126.51,정좌표
1876891,자담치킨중문점,제주특별자치도 서귀포시 색달로 60 (색달동),33.2607,126.4101,정좌표
1876894,쌈촌,"제주특별자치도 서귀포시 중앙로4번길 7, 2층 (서귀동)",33.24518,126.5625,정좌표
1876904,일출뷰브런치카페,"제주특별자치도 서귀포시 성산읍 해맞이해안로 2660, 1층",33.474,126.9107,정좌표
1877032,육회포차,제주특별자치도 서귀포시 중앙로71번길 4 (서귀동),33.25104,126.5608,정좌표
1877042,동뜬식당,제주특별자치도 서귀포시 성산읍 일출로 272-1,33.46191,126.9343,정좌표
1877210,올레하르방순대,제주특별자치도 서귀포시 이어도로 572-1 (강정동),33.23602,126.4778,정좌표
1877216,우리동네회센터,제주특별자치도 서귀포시 동홍중앙로 8 (동홍동),33.25142,126.5723,정좌표
1877222,우정회센타중문점,"제주특별자치도 서귀포시 천제연로 179, 1층 (중문동)",33.25202,126.4239,정좌표
1877283,중문회포장센터새벽야시장,제주특별자치도 서귀포시 중문관광로 293 (대포동),33.24663,126.4293,정좌표
1878063,올레자매밥집,제주특별자치도 서귀포시 솔동산로21번길 17 (서귀동),33.24289,126.5656,정좌표
1878106,카페로하스튜디오,"제주특별자치도 서귀포시 성산읍 금백조로 87, 1층",33.43901,126.8638,정좌표
1878336,갈비미(美),"제주특별자치도 서귀포시 강정통물로 1, 1층 (강정동)",33.22855,126.475,정좌표
1878345,맛있수다,제주특별자치도 서귀포시 예래로 50 (상예동),33.25599,126.4009,정좌표
1878905,불로초흑돼지,"제주특별자치도 서귀포시 중정로73번길 20, 2층 (서귀동)",33.24989,126.564,정좌표
1878944,서영횟집,제주특별자치도 서귀포시 중정로91번길 50-1 (서귀동),33.25151,126.5622,정좌표
1878945,이레회초밥,제주특별자치도 서귀포시 남원읍 태위로 690-2,33.27924,126.7202,정좌표
1878946,성산흑돼지복돼지,"제주특별자치도 서귀포시 성산읍 고성동서로 52, 1층",33.4502,126.9127,정좌표
1879002,망고홀릭법환점,"제주특별자치도 서귀포시 막숙포로 83, 1층 (법환동)",33.23426,126.5132,정좌표
1879378,제니스브레드,제주특별자치도 서귀포시 태평로 355 (서귀동),33.24648,126.5595,정좌표
1879407,신흥동백가든,제주특별자치도 서귀포시 남원읍 중산간동로 5765,33.32026,126.7488,정좌표
1879412,남원생오리,제주특별자치도 서귀포시 남원읍 일주동로 7146,33.28313,126.7169,정좌표
1879414,미래부페정식,제주특별자치도 서귀포시 516로 200 (토평동),33.27078,126.5858,정좌표
1879465,알동네국수,"제주특별자치도 서귀포시 쇠소깍로 162, 1층 (하효동)",33.25088,126.6205,정좌표
1879541,청호식당,제주특별자치도 서귀포시 성산읍 온평관전로 94,33.41057,126.9078,정좌표
1879747,양혜란식당,"제주특별자치도 서귀포시 서호남로32번길 41, 1층 (서호동)",33.24977,126.5146,정좌표
1879896,돈장숯불구이,제주특별자치도 서귀포시 성산읍 해맞이해안로 2775,33.46907,126.9213,정좌표
1879908,삼미흑돼지중문점,"제주특별자치도 서귀포시 색달중앙로 33, 1층 (색달동)",33.25852,126.4134,정좌표
1880634,7번가피자서귀점,"제주특별자치도 서귀포시 중앙로 199, 1층 상가16호 (서홍동)",33.26282,126.5585,정좌표
1880644,24시뼈다귀탕신서귀점,제주특별자치도 서귀포시 신서로48번길 24 (강정동),33.25351,126.5076,정좌표
1880740,중문생선구이,제주특별자치도 서귀포시 중문관광로 323 (중문동),33.24924,126.43,정좌표
1881110,제주할망뚝배기,"제주특별자치도 서귀포시 칠십리로 92, 1층 (서귀동)",33.24052,126.5656,정좌표
1881235,산아래,제주특별자치도 서귀포시 중앙로79번길 3 (서귀동),33.25149,126.5608,정좌표
1881251,한동네,"제주특별자치도 서귀포시 동부로 4, 1층 (서귀동)",33.24526,126.57,정좌표
1881281,맨도롱전복콩나물국밥,제주특별자치도 서귀포시 이어도로 1055 (서호동),33.24578,126.5234,정좌표
1881319,성산장인의집,제주특별자치도 서귀포시 성산읍 일주동로 3968,33.47182,126.9015,정좌표
1881765,갑순이네,제주특별자치도 서귀포시 천제연로 170 (중문동),33.25171,126.4227,정좌표
1881786,별빛옥상카페,제주특별자치도 서귀포시 남성로 140 (서홍동),33.2433,126.5548,정좌표
1881816,법환성,제주특별자치도 서귀포시 이어도로 950 (법환동),33.23916,126.5151,정좌표
1881866,예촌연수네가든,제주특별자치도 서귀포시 남원읍 신례동로 60,33.291,126.6342,정좌표
1881888,제라진흑돼지,"제주특별자치도 서귀포시 1100로 6, 1층 (중문동)",33.25145,126.4319,정좌표
1881903,소라네집,제주특별자치도 서귀포시 성산읍 환해장성로 631,33.41034,126.9081,정좌표
1881955,물회야,"제주특별자치도 서귀포시 성산읍 일출로 226, 1층",33.45973,126.9304,정좌표
1882021,성산달래식당,제주특별자치도 서귀포시 성산읍 금백조로 34-19,33.4411,126.8691,정좌표
1882725,신용참숯갈비,제주특별자치도 서귀포시 태평로 528 (동홍동),33.25131,126.574,정좌표
1882756,남원포구식당,제주특별자치도 서귀포시 남원읍 남원회관로 53,33.27834,126.7188,정좌표
1882766,제주궁전,제주특별자치도 서귀포시 일주동로 8924 (호근동),33.2526,126.5366,정좌표
1882770,수미흑돈,제주특별자치도 서귀포시 태평로 448 (서귀동),33.24633,126.5678,정좌표
1882802,금화음식점,제주특별자치도 서귀포시 남원읍 태위로689번길 17,33.28099,126.7196,정좌표
1882808,황궁식당,제주특별자치도 서귀포시 이어도로 895 (법환동),33.23683,126.5104,정좌표
1882816,서귀포갈비,제주특별자치도 서귀포시 동홍로 42 (동홍동),33.25234,126.5679,정좌표
1882848,서귀포호,제주특별자치도 서귀포시 서문로29번길 9 (서귀동),33.24941,126.5592,정좌표
1882907,마농삼계탕,제주특별자치도 서귀포시 김정문화로27번길 23-7 (강정동),33.25406,126.5075,정좌표
1882926,커피516,"제주특별자치도 서귀포시 516로 11, 1층 (동홍동)",33.25608,126.5773,정좌표
1882936,오조삼춘,"제주특별자치도 서귀포시 성산읍 성산중앙로 63, 1층",33.46512,126.9348,정좌표
1883036,오전열한시,"제주특별자치도 서귀포시 상예로 248, 1층 (상예동)",33.26674,126.3943,정좌표
1883377,엉또올레차이나타운,제주특별자치도 서귀포시 월산로 3 (강정동),33.26107,126.494,정좌표
1883436,라스지오르,"제주특별자치도 서귀포시 칠십리로 479, 1층 (보목동)",33.242,126.6017,정좌표
1883440,국군복지단서귀포호텔식당,"제주특별자치도 서귀포시 상예로 319, 1층 (상예동)",33.27313,126.3946,정좌표
1883450,폭포수,제주특별자치도 서귀포시 토평공단로 33 (토평동),33.28551,126.5871,정좌표
1883458,또또양꼬치,제주특별자치도 서귀포시 성산읍 동류암로 49,33.44892,126.9154,정좌표
1883488,어멍정육식당,제주특별자치도 서귀포시 중산간동로 8002-2 (동홍동),33.26481,126.562,정좌표
1883491,군족서귀포점,제주특별자치도 서귀포시 동홍동로 5 (동홍동),33.25541,126.5747,정좌표
1883501,대구깡통구이,제주특별자치도 서귀포시 성산읍 고성오조로 94-1,33.45212,126.9143,정좌표
1883525,맛있는고깃집,제주특별자치도 서귀포시 일주서로 903 (색달동),33.25769,126.4141,정좌표
1883554,돈스타,제주특별자치도 서귀포시 칠십리로214번길 4 (동홍동),33.24647,126.5753,정좌표
1883564,성산흑돼지두루치기,제주특별자치도 서귀포시 성산읍 한도로 255,33.46619,126.9348,정좌표
1883860,주야진,"제주특별자치도 서귀포시 남원읍 위미중앙로 199, 1층",33.27262,126.6636,정좌표
1883898,어멍구이,제주특별자치도 서귀포시 천제연로208번길 4 (중문동),33.25129,126.4267,정좌표
1883911,루마카,"제주특별자치도 서귀포시 칠십리로 306, 201동 1층 101호 (토평동)",33.24711,126.5852,정좌표
1884047,현시점,"제주특별자치도 서귀포시 중앙로117번길 3, 1층 (서홍동)",33.25504,126.5602,정좌표
1884052,포차.랑,"제주특별자치도 서귀포시 신동로27번길 35, 1층 (서호동)",33.25232,126.5123,정좌표
1884053,제주길흑돼지,제주특별자치도 서귀포시 성산읍 환해장성로 629,33.41,126.908,정좌표
1884155,서귀포어촌식당,제주특별자치도 서귀포시 일주동로 8709-1 (서귀동),33.25246,126.5579,정좌표
1884171,시민도야지,"제주특별자치도 서귀포시 색달중앙로 45, 1층 (색달동)",33.25951,126.4134,정좌표
1884172,용이식당중문점,"제주특별자치도 서귀포시 천제연로 364, 2층 (회수동)",33.25222,126.4437,정좌표
1884256,비에이치시중문점,"제주특별자치도 서귀포시 중문관광로72번길 29-9, 1층 (색달동)",33.24963,126.4111,정좌표
1884365,뙤미,제주특별자치도 서귀포시 남원읍 태위로 86,33.27411,126.6567,정좌표
1884469,엘마리노,"제주특별자치도 서귀포시 중문관광로 154-17, 2층 (색달동)",33.24426,126.4147,정좌표
1886184,올레길해녀의집,제주특별자치도 서귀포시 성산읍 해맞이해안로 2636,33.47607,126.9099,정좌표
1886320,제주까리한데이,제주특별자치도 서귀포시 성산읍 동류암로39번길 7,33.4482,126.9159,정좌표
1886328,엉또토종닭샤브샤브,제주특별자치도 서귀포시 태평로537번길 3 (동홍동),33.25224,126.5743,정좌표
1886338,알베로,"제주특별자치도 서귀포시 성산읍 금백조로 154, 1층",33.43861,126.8567,정좌표
1886498,돼지공화국,제주특별자치도 서귀포시 중산간동로 7915 (동홍동),33.26533,126.5706,정좌표
1886502,여러분식당,제주특별자치도 서귀포시 동홍로 3 (서귀동),33.24899,126.5676,정좌표
1886508,흑돗,"제주특별자치도 서귀포시 성산읍 신양로 69, 2층",33.43616,126.9171,정좌표
1886628,서원,제주특별자치도 서귀포시 하원로 36 (하원동),33.25713,126.4616,정좌표
1886631,달소랑,제주특별자치도 서귀포시 516로97번길 2 (토평동),33.26253,126.5826,정좌표
1886641,찹쌀순대만드는집,"제주특별자치도 서귀포시 이어도로 752, 1층 (강정동)",33.23562,126.4958,정좌표
1886675,메치카불라,"제주특별자치도 서귀포시 솔동산로 7, 1층 (서귀동)",33.24414,126.5643,정좌표
1886691,서귀포뚝배기,제주특별자치도 서귀포시 월드컵로 16 (강정동),33.24817,126.5069,정좌표
1886723,한솥도시락제주중문점,제주특별자치도 서귀포시 천제연로 182 (중문동),33.25161,126.4239,정좌표
1886758,흥부가,제주특별자치도 서귀포시 남원읍 태위로 199,33.27543,126.6688,정좌표
1886780,흑돼지해물삼합,제주특별자치도 서귀포시 태평로482번길 50 (서귀동),33.24564,126.5703,정좌표
1888442,신선국수,"제주특별자치도 서귀포시 강정하로 102, 1층 (강정동)",33.23555,126.4794,정좌표
1888443,카페나인(9),"제주특별자치도 서귀포시 김정문화로 39, 1층 (법환동)",33.25165,126.509,정좌표
1888456,본가프리미엄,"제주특별자치도 서귀포시 색달로 18, 지하1층 (색달동)",33.25909,126.4069,정좌표
1888605,투다리(서귀포시청점),제주특별자치도 서귀포시 홍중로 25 (서홍동),33.25492,126.558,정좌표
1888613,강정포구횟집,제주특별자치도 서귀포시 말질로 274 (강정동),33.22881,126.4758,정좌표
1888709,아꼬아,제주특별자치도 서귀포시 동부로 7 (서귀동),33.24537,126.5696,정좌표
1888719,엄블랑디,"제주특별자치도 서귀포시 일주동로 8713, 1층 (서귀동)",33.25238,126.5575,정좌표
1888721,비레이지(be Lazy),"제주특별자치도 서귀포시 남원읍 위미해안로129번길 17, 1층",33.27049,126.6517,정좌표
1888925,피자알볼로서귀포신시가지점,"제주특별자치도 서귀포시 신서로52번길 22, 1층 (강정동)",33.25512,126.5068,정좌표
1888998,쉬멍해장국중문점,제주특별자치도 서귀포시 천제연로 85 (색달동),33.25528,126.4149,정좌표
1889056,똥파리와달봉이네,제주특별자치도 서귀포시 남원읍 남원회관로 71,33.27894,126.7206,정좌표
1889071,착한국밥,"제주특별자치도 서귀포시 중산간서로 8, 1층 (서호동)",33.26115,126.5097,정좌표
1889096,삼강식당효돈점,제주특별자치도 서귀포시 효돈순환로 274 (하효동),33.25785,126.6158,정좌표
1889102,미리네국수,제주특별자치도 서귀포시 중앙로101번길 17 (서홍동),33.25337,126.5588,정좌표
1889113,한라아구찜,제주특별자치도 서귀포시 천제연로 237 (중문동),33.25155,126.4301,정좌표
1889118,한라민물장어,제주특별자치도 서귀포시 동홍중앙로66번길 30-8 (동홍동),33.25592,126.5751,정좌표
1889122,신시가지횟집,제주특별자치도 서귀포시 신서귀로97번길 64 (강정동),33.25301,126.5061,정좌표
1889143,토담집,제주특별자치도 서귀포시 동홍중앙로 31 (동홍동),33.25348,126.5717,정좌표
1889158,남주치킨,제주특별자치도 서귀포시 중산간동로 7942 (동홍동),33.26628,126.5679,정좌표
1889162,썬라이즈호텔섭지코지점,"제주특별자치도 서귀포시 성산읍 신양로 83, 1층",33.43665,126.9183,정좌표
1889308,스피닝울프,"제주특별자치도 서귀포시 성산읍 동류암로 20, 1동 1,2층",33.45001,126.9186,정좌표
1889460,강가네가든,제주특별자치도 서귀포시 남원읍 태위로689번길 9,33.28026,126.7198,정좌표
1889463,동완식당,제주특별자치도 서귀포시 중앙로 81 (서귀동),33.25192,126.5609,정좌표
1889493,유달식당,제주특별자치도 서귀포시 일주동로 8106 (하효동),33.26222,126.6205,정좌표
1889611,칠구사이포차,"제주특별자치도 서귀포시 김정문화로 64, 2동 1층 (법환동)",33.2507,126.5113,정좌표
1889613,모이세해장국중문점,제주특별자치도 서귀포시 중문관광로 23 (색달동),33.25606,126.4148,정좌표
1889957,제주어멍집,제주특별자치도 서귀포시 태평로353번길 6 (서귀동),33.24661,126.5598,정좌표
1889958,가파도식탁,제주특별자치도 서귀포시 부두로 27-1 (서귀동),33.24255,126.5652,정좌표
1889984,가시어멍,제주특별자치도 서귀포시 중문로5번길 13 (중문동),33.2529,126.422,정좌표
1889986,천지연무태장어서귀포점,제주특별자치도 서귀포시 일주동로 8737 (서귀동),33.25201,126.5549,정좌표
1890004,사누끼우동,제주특별자치도 서귀포시 중정로91번길 11 (서귀동),33.24921,126.5654,정좌표
1890006,대통아구,제주특별자치도 서귀포시 중정로91번길 58 (서귀동),33.25182,126.5617,정좌표
1890007,굽네치킨동홍점,제주특별자치도 서귀포시 일주동로 8588 (동홍동),33.25498,126.5708,정좌표
1890048,산석쇠불고기,"제주특별자치도 서귀포시 신서로48번길 61, 지하1층 (서호동)",33.25284,126.5116,정좌표
1890089,커뮤니테이블,제주특별자치도 서귀포시 월평로 15 (월평동),33.24481,126.4593,정좌표
1890158,까망흑염소,"제주특별자치도 서귀포시 천제연로 295, 1층 (대포동)",33.25123,126.4361,정좌표
1890164,해뜨는식당,제주특별자치도 서귀포시 성산읍 성산중앙로 38,33.46301,126.9333,정좌표
1890596,바다나라횟집,제주특별자치도 서귀포시 보목포로 55 (보목동),33.23969,126.6076,정좌표
1890648,낙지마당,제주특별자치도 서귀포시 신중로 73 (서호동),33.25441,126.5131,정좌표
1890671,청해수산회센터,제주특별자치도 서귀포시 남원읍 남태해안로 211,33.27995,126.7268,정좌표
1890686,쪼꼬미분식,"제주특별자치도 서귀포시 신동로67번길 27, 1층 (서호동)",33.25608,126.5117,정좌표
1890724,씨유서귀포보목길점,"제주특별자치도 서귀포시 칠십리로 306, 201동 1층 105호 (토평동)",33.24711,126.5852,정좌표
1890769,월카페,"제주특별자치도 서귀포시 성산읍 섭지코지로25번길 12, 2층",33.43984,126.9203,정좌표
1890777,하례점빵,"제주특별자치도 서귀포시 남원읍 하례로 272, 102호",33.27134,126.6234,정좌표
1890940,카페블루하우스,"제주특별자치도 서귀포시 중앙로 73, 1층 (서귀동)",33.25117,126.561,정좌표
1892260,씨유제주풍림리조트점,"제주특별자치도 서귀포시 이어도로 684, 켄싱턴리조트 1층 1103,1104호 (강정동)",33.23368,126.489,정좌표
1892398,씨유제주중문사거리점,제주특별자치도 서귀포시 1100로 6 (중문동),33.25145,126.4319,정좌표
1892463,새코롬,"제주특별자치도 서귀포시 중산간서로 777, 1층 (중문동)",33.26206,126.4321,정좌표
1892483,씨유서귀예래점,제주특별자치도 서귀포시 예래로 446 (하예동),33.23571,126.3704,정좌표
1892493,아리아호텔,"제주특별자치도 서귀포시 중문관광로 23-1 (색달동, 지하1층)",33.25585,126.4155,정좌표
1892501,지에스25뉴서귀포의료원점,제주특별자치도 서귀포시 장수로 47 (동홍동),33.25607,126.5639,정좌표
1892509,수하리(SUHARI),제주특별자치도 서귀포시 성산읍 온평애향로 21,33.40767,126.9,정좌표
1893143,솜반내 풍경,제주특별자치도 서귀포시 서홍로 60 (서홍동),33.25316,126.5536,정좌표
1893149,마더카페,제주특별자치도 서귀포시 남원읍 태위로894번길 45,33.28128,126.7414,정좌표
1893162,설빙,"제주특별자치도 서귀포시 이중섭로 4-1, 2층 (서귀동)",33.24761,126.564,정좌표
1893208,일레인호텔,제주특별자치도 서귀포시 일주서로 660 (회수동),33.2546,126.439,정좌표
1893301,GS25 서귀대포점,제주특별자치도 서귀포시 이어도로 129 (대포동),33.23917,126.4361,정좌표
1893337,씨유서귀포돈내코점,제주특별자치도 서귀포시 516로 466 (상효동),33.29274,126.5949,정좌표
1893354,바다가는길,제주특별자치도 서귀포시 남성중로 40 (서홍동),33.2392,126.5584,정좌표
1893439,씨유서귀아랑조을거리점,제주특별자치도 서귀포시 서문로29번길 15 (서귀동),33.2489,126.5594,정좌표
1893449,섶섬지기,제주특별자치도 서귀포시 보목로64번길 79 (보목동),33.23703,126.5958,정좌표
1893502,씨유편의점서귀동홍로점,제주특별자치도 서귀포시 동홍로 108 (동홍동),33.2582,126.5686,정좌표
1893512,카페린다,제주특별자치도 서귀포시 중산간동로 8434 (서호동),33.26079,126.5158,정좌표
1893536,낭만팥집,제주특별자치도 서귀포시 동홍서로96번길 17 (동홍동),33.25743,126.5714,정좌표
1893611,짱아찌김밥,제주특별자치도 서귀포시 홍중동로 4-5 (서홍동),33.2576,126.56,정좌표
1893618,조안베어뮤지엄,제주특별자치도 서귀포시 대포로 113 (대포동),33.24025,126.4341,정좌표
1894110,킹마트분식,제주특별자치도 서귀포시 천제연로 154-1 (중문동),33.25239,126.4212,정좌표
1894113,쇠소깍휴게소,제주특별자치도 서귀포시 쇠소깍로 128 (하효동),33.25215,126.623,정좌표
1894117,세븐일레븐 서귀포 동문점,제주특별자치도 서귀포시 동문로 70 (서귀동),33.24882,126.5673,정좌표
1894165,띠아모서홍점,제주특별자치도 서귀포시 중앙로195번길 2 (서홍동),33.26209,126.5586,정좌표
1894171,어린이나라방방,제주특별자치도 서귀포시 동홍중앙로52번길 14-1 (동홍동),33.25528,126.5736,정좌표
1894172,제주카페 스르륵,제주특별자치도 서귀포시 말질로 428 (강정동),33.23226,126.4633,정좌표
1894205,이디야제주중문관광로점,제주특별자치도 서귀포시 중문관광로 348 (중문동),33.2511,126.4317,정좌표
1894215,제주몽,제주특별자치도 서귀포시 천제연로 194 (중문동),33.25155,126.4255,정좌표
1894254,던킨도너츠제주쇠소깍점,제주특별자치도 서귀포시 쇠소깍로 128 (하효동),33.25215,126.623,정좌표
1894324,망고레이필리핀디저트카페,제주특별자치도 서귀포시 성산읍 신양로 102,33.43635,126.9205,정좌표
1894636,착한만두앤고로케,"제주특별자치도 서귀포시 중앙로 189, 203동 102호 (서홍동, 지오빌Ⅱ-2차 아파트)",33.26118,126.5586,정좌표
1894648,스타벅스커피제주서귀포점,제주특별자치도 서귀포시 중정로 53 (서귀동),33.24781,126.562,정좌표
1895319,드롭탑 서귀포갤러리 왈점,제주특별자치도 서귀포시 칠십리로214번길 30 (동홍동),33.245,126.5735,정좌표
1895336,동네커피,제주특별자치도 서귀포시 중앙로 183 (서홍동),33.261,126.559,정좌표
1895338,국수바다본점,제주특별자치도 서귀포시 일주서로 982 (색달동),33.25832,126.406,정좌표
1895721,카페 서연의집,제주특별자치도 서귀포시 남원읍 위미해안로 86,33.26943,126.6556,정좌표
1896008,GS25서귀터미널점,제주특별자치도 서귀포시 일주동로 9213 (법환동),33.24871,126.5085,정좌표
1896018,김밥형님볶이아우,제주특별자치도 서귀포시 천제연로 192-1 (중문동),33.2516,126.4251,정좌표
1896030,선다방,제주특별자치도 서귀포시 남원읍 태위로689번길 8,33.2802,126.7201,정좌표
1896031,시카고피자남원점,제주특별자치도 서귀포시 남원읍 태위로 659,33.27871,126.717,정좌표
1896119,한라네김밥,제주특별자치도 서귀포시 일주동로 8697 (서귀동),33.25268,126.5593,정좌표
1896231,던킨도너츠제주서귀포점,제주특별자치도 서귀포시 중앙로 88 (서귀동),33.25261,126.5616,정좌표
1896296,씨유 서귀포현대점,제주특별자치도 서귀포시 동홍남로 59 (동홍동),33.25702,126.5746,정좌표
1896306,바담카페,"제주특별자치도 서귀포시 성산읍 일주동로 5177-20, 1층",33.374,126.8733,정좌표
1896512,지에스25제주남원점,"제주특별자치도 서귀포시 남원읍 태위로 680-1, GS25",33.27901,126.7192,정좌표
1896529,오프리르제주,제주특별자치도 서귀포시 중정로61번길 25 (서귀동),33.25012,126.5625,정좌표
1896541,수정상회,"제주특별자치도 서귀포시 남원읍 일주동로 6621, 1층",33.30044,126.7672,정좌표
1896551,카페봄봄서귀포점,제주특별자치도 서귀포시 동홍서로 47 (동홍동),33.25312,126.5695,정좌표
1896586,카페신효,"제주특별자치도 서귀포시 효돈로 152, 1층 (신효동)",33.26351,126.6149,정좌표
1896599,제주아이까페,"제주특별자치도 서귀포시 성산읍 일출로288번길 8, 3동",33.46373,126.9356,정좌표
1897033,백주산보,제주특별자치도 서귀포시 칠십리로 406 (보목동),33.24395,126.5947,정좌표
1897060,바바라코코,제주특별자치도 서귀포시 이어도로 244 (대포동),33.24256,126.4456,정좌표
1897078,토끼떡공방,제주특별자치도 서귀포시 일주서로 1290 (상예동),33.26481,126.3753,정좌표
1897145,와룽발리,"제주특별자치도 서귀포시 막숙포로 70, 3층 (법환동)",33.23535,126.5143,정좌표
1897197,동글랑마카롱,제주특별자치도 서귀포시 중산간동로 8016-3 (동홍동),33.26457,126.5602,정좌표
1897204,오브제주,"제주특별자치도 서귀포시 일주동로 8133, 1층 (하효동)",33.26035,126.6185,정좌표
1897226,카페비블리아,"제주특별자치도 서귀포시 신동로 53, 1층 (서호동)",33.25323,126.513,정좌표
1897236,제주당,제주특별자치도 서귀포시 막숙포로 74 (법환동),33.23532,126.514,정좌표
1897300,엉커리,"제주특별자치도 서귀포시 일주서로176번길 43, 1층 (강정동)",33.25436,126.4883,정좌표
1897322,씨유제주회수사거리점,제주특별자치도 서귀포시 1100로 178 (회수동),33.26304,126.4441,정좌표
1897383,남극노인성,제주특별자치도 서귀포시 하신상로 216 (상효동),33.27583,126.6071,정좌표
1897395,피자헛서귀포점,"제주특별자치도 서귀포시 일주동로 8590, 1층 (동홍동)",33.25497,126.5704,정좌표
1897444,씨유서귀포법환길점,"제주특별자치도 서귀포시 이어도로 1041-1, 1층 (서호동)",33.24504,126.5224,정좌표
1897454,벙커 하우스,"제주특별자치도 서귀포시 막숙포로41번길 66, 1층 (법환동)",33.24046,126.5192,정좌표