Column1,name,address,Latitude,Longitude,상태
1615731,난타오천뜨란채점,제주특별자치도 제주시 정존11길 39 (노형동),33.4866334,126.4740283,정좌표
1615738,보해국수,제주특별자치도 제주시 오복4길 6 (이도이동),33.4955405,126.5363223,정좌표
1615741,두남자이야기,제주특별자치도 제주시 삼무로 77 (연동),33.4900253,126.4950528,정좌표
1615853,도리,"제주특별자치도 제주시 도공로 48, 2층 (도두일동)",33.5022675,126.466377,정좌표
1615897,평산,제주특별자치도 제주시 정든로2길 14 (이도이동),33.4975342,126.538639,정좌표
1615904,춘향골,"제주특별자치도 제주시 원노형10길 32 (노형동,(마두천길86))",33.4832934,126.48618,정좌표
1615910,코멧1987,"제주특별자치도 제주시 광양11길 8, 1층 (이도이동)",33.4990741,126.5310975,정좌표
1615922,타블도트,"제주특별자치도 제주시 건주로4길 6-1, 2층 (도련일동)",33.516388,126.579891,정좌표
1615933,노른자,제주특별자치도 제주시 조천읍 조함해안로 514,33.5424913,126.667586,정좌표
1616125,고향숯불막창삼화점,"제주특별자치도 제주시 일주동로 281, 1층 (화북일동)",33.5213731,126.5748215,정좌표
1616144,제주명태어장삼화점,"제주특별자치도 제주시 화삼북로 45, 1층 (화북일동)",33.5175135,126.5779599,정좌표
1616176,스푼더마켓제주점,"제주특별자치도 제주시 연북로 76, 2층 (연동)",33.4815304,126.4894642,정좌표
1616222,춘천명동닭갈비아라점,"제주특별자치도 제주시 중앙로 517, 1층 (아라이동)",33.476097,126.5543009,정좌표
1616261,다정이네,"제주특별자치도 제주시 조천읍 와흘로 74, 1층",33.4757194,126.6563627,정좌표
1616267,피노키오,제주특별자치도 제주시 우도면 우도로 339,33.5204327,126.9483033,정좌표
1616528,버무리떡볶이삼화점,"제주특별자치도 제주시 화삼북로 139, 1층 (삼양이동)",33.5184397,126.5817978,정좌표
1616535,제주제라진통닭,"제주특별자치도 제주시 신설로 3, 1층 (이도이동)",33.4947935,126.5476238,정좌표
1616557,싱싱회센타,"제주특별자치도 제주시 동문로4길 9, 2-8,9,3-10호 (일도일동)",33.5122057,126.527931,정좌표
1616821,대학로황가네,제주특별자치도 제주시 광양13길 8 (이도이동),33.4988005,126.5313626,정좌표
1616835,제주불백,제주특별자치도 제주시 도령로13길 16-3 (연동),33.4929382,126.4891251,정좌표
1616875,소선우식당,제주특별자치도 제주시 선반남2길 25 (화북일동),33.5124,126.5624321,정좌표
1616876,북경양꼬치,제주특별자치도 제주시 신대로16길 50 (연동),33.4870309,126.4912451,정좌표
1616890,부가네얼큰이서사라점,"제주특별자치도 제주시 중앙로24길 20, 1층 (삼도이동)",33.5061056,126.5230708,정좌표
1616891,낭만주의,"제주특별자치도 제주시 내도1길 18-1, 지하1층 (내도동)",33.4955266,126.4376599,정좌표
1616897,김사장네명태조림,"제주특별자치도 제주시 수덕11길 66, 1층 (노형동)",33.4842277,126.4708589,정좌표
1616918,고기마씸,"제주특별자치도 제주시 도남로 68, 1층 (도남동)",33.4943023,126.527696,정좌표
1616934,맛장터,제주특별자치도 제주시 신대로13길 10 (연동),33.4874833,126.4978405,정좌표
1617085,두찜제주일도점,"제주특별자치도 제주시 고마로 90, 1층 (일도이동)",33.5062096,126.5406757,정좌표
1617096,난타오천연동점,"제주특별자치도 제주시 연화로2길 7, 1층 (연동)",33.4775499,126.4882014,정좌표
1617100,글라성국이네,"제주특별자치도 제주시 우정로4길 35, 지1호 (외도일동)",33.4917968,126.4296915,정좌표
1617104,칠성뷔페,"제주특별자치도 제주시 관덕로11길 17, 4층 (일도일동)",33.5146549,126.5252461,정좌표
1617248,엄지횟집,"제주특별자치도 제주시 월랑로12길 11, 1층 (노형동)",33.4900129,126.4766299,정좌표
1617265,탕탕이1호점,제주특별자치도 제주시 도남로7길 46 (도남동),33.496178,126.5272015,정좌표
1617279,할라라운지,제주특별자치도 제주시 신성로13길 28 (이도이동),33.4978427,126.5301961,정좌표
1617303,닭짱삼도중앙점,제주특별자치도 제주시 중앙로 134 (삼도이동),33.5120344,126.5209341,정좌표
1617304,돈짝인제점,"제주특별자치도 제주시 고마로 70, 1층 (일도이동)",33.5081744,126.5398592,정좌표
1617307,땅땅치킨용담점,"제주특별자치도 제주시 흥운길 13, 1층 (용담이동)",33.5103002,126.5111415,정좌표
1617308,해동이네,제주특별자치도 제주시 임항로 242 (건입동),33.5185531,126.5403037,정좌표
1617353,근경숯불구이,제주특별자치도 제주시 월랑로10길 31 (노형동),33.4909524,126.4783211,정좌표
1617355,송이축산정육식당,"제주특별자치도 제주시 신산로 52-1, 1층 (일도이동)",33.5088301,126.5331626,정좌표
1617373,분식문방구신제주1호점,"제주특별자치도 제주시 원노형로 93, 지하1층 104호 (노형동, 부영아파트상가동)",33.4800824,126.4853946,정좌표
1617380,불화성,"제주특별자치도 제주시 용화로 44, 1층 (용담이동)",33.509426,126.5080978,정좌표
1617389,네네치킨도남점,"제주특별자치도 제주시 독짓골4길 11, 101호 (도남동)",33.4915464,126.530748,정좌표
1617415,무시로,"제주특별자치도 제주시 서광로32길 28-1, 2층 (이도이동)",33.4981544,126.5291901,정좌표
1617430,화연,"제주특별자치도 제주시 신광로 78, 1층 (연동)",33.4852567,126.4897029,정좌표
1617449,신번지,"제주특별자치도 제주시 신대로20길 52 (연동,(1층))",33.4839022,126.4909282,정좌표
1617452,함덕해장국,제주특별자치도 제주시 조천읍 신북로 650,33.539495,126.678577,정좌표
1617674,휴계농장,제주특별자치도 제주시 청귤로 16 (이도이동),33.4995476,126.5379713,정좌표
1617683,오키나와,제주특별자치도 제주시 진군중길 2 (노형동),33.4786435,126.4794336,정좌표
1617715,대학동길,"제주특별자치도 제주시 용담로 41-1, 1층 (용담삼동)",33.513193,126.5075197,정좌표
1617718,우도이야기,"제주특별자치도 제주시 우도면 우도해안길 504, 1층",33.5195396,126.949412,정좌표
1617792,제주정가네밥상,"제주특별자치도 제주시 아란서길 110, 지하1층 (아라일동)",33.4261379,126.5626925,정좌표
1617943,로또돼지,"제주특별자치도 제주시 용담로 16, 2~3층 (용담이동)",33.51321,126.5044,정좌표
1617944,제주에가면,"제주특별자치도 제주시 탑동로 119, 1층 (삼도이동)",33.5147226,126.5180767,정좌표
1618312,추사장추어탕,제주특별자치도 제주시 서광로29길 12 (이도일동),33.5012887,126.5268772,정좌표
1618313,도남돼지,"제주특별자치도 제주시 신성로 36, 101호 (도남동)",33.4962,126.523521,정좌표
1618341,낭푼이보리밥,"제주특별자치도 제주시 동문로4길 9, 지하1층 1-20호 (일도일동)",33.5120807,126.5283388,정좌표
1618343,가인,"제주특별자치도 제주시 제원1길 23, 103호 (연동)",33.4893902,126.4875913,정좌표
1618418,미세스테라,"제주특별자치도 제주시 간월동로 39, 1층 (아라이동)",33.4872123,126.5464775,정좌표
1618422,꼬지사께아라점,"제주특별자치도 제주시 중앙로 576, 1층 (아라일동)",33.4719689,126.5453583,정좌표
1618426,크라운호프외도점,"제주특별자치도 제주시 우정로13길 3, 101호 (외도일동)",33.4869726,126.4319098,정좌표
1618429,팔팔수제치킨,"제주특별자치도 제주시 서부두남길 24, 1층 (건입동)",33.5162964,126.527725,정좌표
1618434,신전떡볶이시청점,"제주특별자치도 제주시 서광로32길 6, 2층 (이도이동)",33.4997345,126.5281001,정좌표
1618464,모닥샐러드,"제주특별자치도 제주시 수덕9길 82-1, 1층 (노형동)",33.4831773,126.4704868,정좌표
1618483,푸동,"제주특별자치도 제주시 원노형2길 22, 101호 (노형동)",33.4842168,126.480964,정좌표
1618493,부가부가부가네얼큰이제원점,"제주특별자치도 제주시 제원길 14 (연동,한서빌딩 103호)",33.4892446,126.5129104,정좌표
1618499,진낙지앤,제주특별자치도 제주시 연화로2길 31 (연동),33.4779934,126.490269,정좌표
1618501,춘천명동닭갈비노형점,제주특별자치도 제주시 월랑로 46 (노형동),33.4895605,126.4756888,정좌표
1618513,아저씨퓨전포차,제주특별자치도 제주시 연삼로 543 (일도이동),33.5028192,126.5493912,정좌표
1618514,마지막해녀,제주특별자치도 제주시 남광북1길 36-1 (이도이동),33.4961108,126.5372823,정좌표
1618535,마메종,제주특별자치도 제주시 신대로8길 40 (연동),33.4922216,126.4929865,정좌표
1618547,사랑물,"제주특별자치도 제주시 고마로 55, 1층 (일도이동)",33.5093227,126.5398302,정좌표
1618554,오부장치킨,"제주특별자치도 제주시 원노형로 90, 상가동 102,103호 (노형동)",33.4805788,126.4839658,정좌표
1618558,미각,"제주특별자치도 제주시 월평7길 3, 1층 (월평동)",33.4705724,126.5763465,정좌표
1618566,돈잇수다,"제주특별자치도 제주시 연화로2길 17-7, 1층 (연동)",33.4781482,126.4890613,정좌표
1618606,타오,"제주특별자치도 제주시 조천읍 함와로 566-27, 114동 1층",33.4942365,126.6767559,정좌표
1618638,루트17,"제주특별자치도 제주시 동한두기길 3-16, 1층 (용담일동)",33.5153233,126.5149377,정좌표
1618659,달콤다락,"제주특별자치도 제주시 동문로4길 17, 1층 (일도일동)",33.5120265,126.5274206,정좌표
1618843,죽마고우,제주특별자치도 제주시 연화로2길 20 (연동),33.4772791,126.4892873,정좌표
1619075,꼬들목살집,제주특별자치도 제주시 진군중길 26 (노형동),33.4767426,126.479399,정좌표
1619080,리틀비엣,"제주특별자치도 제주시 인다7길 16, 1층 (아라일동)",33.4766675,126.5459307,정좌표
1619168,빨강코끼리,제주특별자치도 제주시 다랑곶6길 26-1 (노형동),33.4894844,126.48073,정좌표
1619225,뻘쭈,"제주특별자치도 제주시 신성로13길 4, 1층 (이도이동)",33.499499,126.5289941,정좌표
1619243,과수원집,제주특별자치도 제주시 천수동로 35 (건입동),33.5075154,126.5462964,정좌표
1619263,난타5000피자아라점,"제주특별자치도 제주시 중앙로 581 (아라일동,제1호(1층))",33.4814679,126.5411458,정좌표
1619274,풀향기,"제주특별자치도 제주시 우령2길 19-2 (외도일동, 나동)",33.4872709,126.432083,정좌표
1619306,또래오래화북삼양점,"제주특별자치도 제주시 설촌로2길 23, 상가동 1층 108호 (삼양이동)",33.5218965,126.5839752,정좌표
1619311,난타오천도남점,"제주특별자치도 제주시 도남로 56 (도남동,(1층))",33.4952918,126.52729,정좌표
1619312,뽀글뽀글,"제주특별자치도 제주시 임항로 60, 1층 (건입동)",33.5163604,126.531223,정좌표
1619333,정성으로상차림,"제주특별자치도 제주시 영강길 137, 1층 (영평동)",33.4869012,126.5737843,정좌표
1619334,이공사키친,"제주특별자치도 제주시 신성로 107, 1층 (이도이동)",33.4971899,126.5302696,정좌표
1619335,인서네,"제주특별자치도 제주시 오일장동길 34, 1층 (도두일동)",33.4956469,126.4778768,정좌표
1619337,백봉차오름,"제주특별자치도 제주시 구남동2길 59, 1층 (이도이동, 휴팰리스)",33.4872341,126.5326456,정좌표
1619338,카페이에르바,"제주특별자치도 제주시 조천읍 신촌남1길 33-8, 1층",33.5274997,126.6189404,정좌표
1619504,자담치킨삼도점,"제주특별자치도 제주시 전농로 33, 1층 (삼도일동)",33.5046006,126.51679,정좌표
1619514,집아페,"제주특별자치도 제주시 서광로13길 3, 1층 (삼도일동)",33.5003337,126.517785,정좌표
1619607,어머니와장독대노형점,"제주특별자치도 제주시 월광로 77, 제주시농협하나로유통센터 2층 (노형동)",33.4877055,126.4680465,정좌표
1619662,호텔시리우스,"제주특별자치도 제주시 도령로 133, 지하1지상1층 (연동)",33.4933987,126.4909571,정좌표
1619847,오산봉,"제주특별자치도 제주시 천수로9길 15, 1층 (일도이동)",33.5055845,126.5419475,정좌표
1619849,냄비에퐁닭,"제주특별자치도 제주시 서광로32길 26-5, 1층 (이도이동)",33.4981413,126.5288449,정좌표
1619862,대정골,"제주특별자치도 제주시 용담로18길 3, 1층 (용담일동)",33.5093037,126.5149523,정좌표
1619866,징기스이도점,"제주특별자치도 제주시 승천로 68, 1층 (아라이동)",33.4925277,126.5423073,정좌표
1619895,왕언니밥상,"제주특별자치도 제주시 태성로1길 3, 1층 (일도이동)",33.4999018,126.5450053,정좌표
1619904,산촌,제주특별자치도 제주시 성신로 15 (연동),33.4911241,126.4852712,정좌표
1619914,루머팡인화점,"제주특별자치도 제주시 동광로 84, 1층 (이도이동)",33.5045,126.5372,정좌표
1619954,가람,"제주특별자치도 제주시 복지로북길 4, 1층 (도남동)",33.4887375,126.5219401,정좌표
1620038,족풍,"제주특별자치도 제주시 인다11길 24, 1층 (아라일동)",33.4740994,126.5487465,정좌표
1620057,효섬마을초가집,"제주특별자치도 제주시 명림로 243, 1층 (봉개동)",33.4629574,126.6161368,정좌표
1620349,또술,제주특별자치도 제주시 고마로 134 (이도이동),33.5025281,126.5424755,정좌표
1620350,시민명가,제주특별자치도 제주시 남성로26길 46 (삼도이동),33.505717,126.5246562,정좌표
1620355,지호,"제주특별자치도 제주시 우정로11길 10 (외도일동,(우정동5로10))",33.4876639,126.4320017,정좌표
1620381,스페샬아라점,제주특별자치도 제주시 중앙로 579 (아라일동),33.4717395,126.5458592,정좌표
1620382,윤옥,"제주특별자치도 제주시 구남동2길 19-4, 1층 (이도이동)",33.4894052,126.5360124,정좌표
1621742,본죽앤비빔밥제주삼화점,"제주특별자치도 제주시 건주로 43, 1층 (도련일동)",33.5166785,126.5790859,정좌표
1621776,토대력신산로점,"제주특별자치도 제주시 신산로 40-1, 1층 (일도이동)",33.5097651,126.5325635,정좌표
1621786,바삭시청점,"제주특별자치도 제주시 서광로32길 32, 2층 (이도이동)",33.4980159,126.5292925,정좌표
1621830,청풍국수,"제주특별자치도 제주시 진남로6길 40, 1층 (화북일동)",33.5222723,126.5655582,정좌표
1621835,신토불이수산,"제주특별자치도 제주시 정존3길 25, 1~2층 (노형동)",33.4828689,126.4730476,정좌표
1621842,한라분식,"제주특별자치도 제주시 도령로 73, 102호 (연동, 연동펠리체)",33.4900974,126.4859529,정좌표
1621845,인형의집,"제주특별자치도 제주시 관덕로 40, 1층 (일도일동)",33.5130143,126.5236003,정좌표
1621847,맛난사계절,"제주특별자치도 제주시 조천읍 신촌3길 38, 1층",33.536265,126.618955,정좌표
1621869,담담매운갈비연구소,"제주특별자치도 제주시 연동8길 28, 지하1층 1호 (연동)",33.4965773,126.501327,정좌표
1622009,제주소낭밥집,제주특별자치도 제주시 명림로 4 (봉개동),33.4851838,126.6038734,정좌표
1622012,지중해참치,제주특별자치도 제주시 월랑로 13 (노형동),33.4871035,126.4776514,정좌표
1622021,윈드스테이,"제주특별자치도 제주시 테우해안로 64, 1층 (내도동)",33.4963721,126.4415863,정좌표
1622067,감탄돈,"제주특별자치도 제주시 오래물길 6, 1층 (도두일동)",33.5024628,126.4671495,정좌표
1622070,신등대민박수산회센타,"제주특별자치도 제주시 추자면 추자로 12, 1층",33.9632897,126.2976894,정좌표
1622075,은혜중화요리,"제주특별자치도 제주시 인다2길 20, 1층 (아라일동)",33.4719786,126.5501884,정좌표
1622100,미스칠,"제주특별자치도 제주시 일주서로 7831, 1층 (연동)",33.4934634,126.4559021,정좌표
1622310,요망진달팽이,"제주특별자치도 제주시 조천읍 함와로 566-29, 211동 1층",33.5145232,126.6777359,정좌표
1622318,치킨플러스제주아라점,"제주특별자치도 제주시 인다6길 52, 1층 (아라일동)",33.4344898,126.5549533,정좌표
1622324,제주분식,"제주특별자치도 제주시 귀아랑길 23 (연동,(1층))",33.4914457,126.4976203,정좌표
1622512,네네치킨아라점,"제주특별자치도 제주시 중앙로 578, 109동 1층 7호 (아라일동)",33.4717276,126.544619,정좌표
1622530,스탠딩스테이크신제주점,제주특별자치도 제주시 신광로8길 5 (연동),33.4868482,126.489204,정좌표
1622533,조마루뼈다귀시청점,"제주특별자치도 제주시 광양14길 9, 1층 (이도이동)",33.4979434,126.5297919,정좌표
1622564,청년회관,"제주특별자치도 제주시 조천읍 신촌3길 3-1, 1층",33.5333766,126.618819,정좌표
1622580,리유니온,"제주특별자치도 제주시 신성로13길 32, 1층 (이도이동)",33.4975004,126.5304472,정좌표
1622612,제주닭한마리,"제주특별자치도 제주시 연동7길 30, 지하1층 (연동)",33.4872121,126.4905803,정좌표
1622635,슌앤스시,"제주특별자치도 제주시 수덕로 4, 1층 (노형동)",33.4887562,126.4755383,정좌표
1622682,우도해녀식당,"제주특별자치도 제주시 우도면 우도해안길 440, 나동 1층",33.5074342,126.954269,정좌표
1622973,인다생구이,"제주특별자치도 제주시 인다5길 56-10, 1층 (아라일동)",33.4743053,126.5480714,정좌표
1622979,보기플레이,"제주특별자치도 제주시 과원북4길 84, 1층 (연동)",33.4808837,126.4903372,정좌표
1622987,헝그리닭발포차,제주특별자치도 제주시 월랑로4길 3 (노형동),33.487873,126.4779833,정좌표
1622995,오야짬뽕,"제주특별자치도 제주시 아봉로 761, 1층 (봉개동)",33.4915213,126.5915566,정좌표
1623021,정쉐프탕수육,"제주특별자치도 제주시 월랑로10길 22, 1층 (노형동)",33.4901338,126.4778835,정좌표
1623022,아봉로기사식당,"제주특별자치도 제주시 아봉로 363-1, 1층 (월평동)",33.469376,126.5755945,정좌표
1623027,원당해장국,"제주특별자치도 제주시 원당로 17, 1층 (삼양일동)",33.5229162,126.5888778,정좌표
1623030,큰맘할매순대국 제주한라대점,"제주특별자치도 제주시 한라대학로 71, 101호 (노형동, 경주주택)",33.4765158,126.4780399,정좌표
1623044,델문도,"제주특별자치도 제주시 조천읍 조함해안로 519-10, A,B동 1층",33.542551,126.667092,정좌표
1629930,올래파이,"제주특별자치도 제주시 국기로2길 11, 1층 (연동)",33.4801634,126.4909328,정좌표
1630162,연우네,제주특별자치도 제주시 은수길 110 (노형동),33.4667495,126.4877274,정좌표
1631114,은혜성,"제주특별자치도 제주시 도근내길 98, 1층 (내도동)",33.4928783,126.4414154,정좌표
1631124,황제갈매기,"제주특별자치도 제주시 동광로6길 6, 1층 (이도이동)",33.5012182,126.5318706,정좌표
1631127,광주빛고을,"제주특별자치도 제주시 동광로5길 8 (이도일동,(1층))",33.5026038,126.5312542,정좌표
1631136,훔쳐온뒷고기,제주특별자치도 제주시 도남로5길 6 (도남동),33.4970168,126.5270797,정좌표
1631146,커큐민흑돼지,"제주특별자치도 제주시 신대로 60, 1층 (연동)",33.4921346,126.4964377,정좌표
1631194,푸른바당돼지,"제주특별자치도 제주시 진동로5길 28, 1층 (화북일동)",33.5211794,126.5662426,정좌표
1631197,뱃도새기함덕점,제주특별자치도 제주시 조천읍 함와로 7,33.5393939,126.674595,정좌표
1631815,도남막창,제주특별자치도 제주시 도남로 17 (도남동),33.498461,126.5255498,정좌표
1631830,대박왕갈비연동점,제주특별자치도 제주시 신광로1길 13 (연동),33.4929035,126.4933814,정좌표
1631834,산아,"제주특별자치도 제주시 구남로6길 19, 1층 (이도이동)",33.488874,126.5351669,정좌표
1631854,로터리자매식당,"제주특별자치도 제주시 동문로 8-1, 1층 (일도일동)",33.5128663,126.5276044,정좌표
1631860,고가촌,"제주특별자치도 제주시 가령골길 24, 1층 (일도이동)",33.5041532,126.540834,정좌표
1631867,만운성,제주특별자치도 제주시 과원북4길 93 (연동),33.4811034,126.4915695,정좌표
1631870,코다리냉면,"제주특별자치도 제주시 신산로 6, 2층 (일도일동)",33.5127251,126.5317343,정좌표
1631872,갑뽕,"제주특별자치도 제주시 오복4길 11, 102호 (이도이동)",33.4952527,126.5369158,정좌표
1631886,웰빙밥도둑,제주특별자치도 제주시 연동8길 9 (연동),33.4849143,126.490831,정좌표
1631895,미미당제주삼도점,제주특별자치도 제주시 관덕로8길 40 (삼도이동),33.5099706,126.5233033,정좌표
1631902,제주스크린골프존,제주특별자치도 제주시 연삼로 346 (도남동),33.4790411,126.5219122,정좌표
1631903,조우하다,"제주특별자치도 제주시 연신로 157, 1층 (영평동)",33.4821067,126.5605716,정좌표
1631918,아끈식당,"제주특별자치도 제주시 조천읍 신촌북2길 31-3, 1층",33.5373436,126.6195515,정좌표
1632068,향토음식도두항식당,"제주특별자치도 제주시 도두항서길 11-2, 1층 (도두일동)",33.5032834,126.4647589,정좌표
1632134,월평식당,"제주특별자치도 제주시 아봉로 372-1, 1층 (월평동)",33.469376,126.5755945,정좌표
1632155,딤섬9898,"제주특별자치도 제주시 노형8길 17, 1층 (노형동)",33.4844903,126.4844517,정좌표
1632237,복여네돈까스,"제주특별자치도 제주시 우도면 우도로 323, 1층 제2호",33.5198391,126.9497582,정좌표
1632280,유피에스,"제주특별자치도 제주시 광양14길 11, 지하1층 (이도이동)",33.4979022,126.5296614,정좌표
1632288,비에이치씨도남점,"제주특별자치도 제주시 도남로 103, 1층 (도남동)",33.49112,126.5286279,정좌표
1632330,죽성고을,"제주특별자치도 제주시 한북로 176, 1층 (오등동)",33.4622678,126.5342497,정좌표
1632434,달빛에구운고등어제주점,"제주특별자치도 제주시 중앙로 381, 1층 (이도이동)",33.4993689,126.5374965,정좌표
1632491,신제주양곱창,"제주특별자치도 제주시 원노형로 23, 101호 (노형동)",33.486838,126.485122,정좌표
1632504,시월,"제주특별자치도 제주시 남광로2길 21, 1층 (이도이동)",33.4902004,126.5408219,정좌표
1634853,신제주삼보,제주특별자치도 제주시 신대로16길 10 (연동),33.4868955,126.4953877,정좌표
1634872,바닐라파레트,"제주특별자치도 제주시 진군길 56-2, 1층 (노형동)",33.4771133,126.4806609,정좌표
1634925,토끼가거북이보다빠르다,"제주특별자치도 제주시 우정로12길 23, 1층 (외도일동)",33.4872939,126.4285546,정좌표
1634931,시로코,"제주특별자치도 제주시 용마서1길 27-7, 1층 (용담삼동)",33.5163246,126.5047924,정좌표
1634986,강촌숯불닭갈비도남점,제주특별자치도 제주시 도남로 11 (도남동),33.4939332,126.5289775,정좌표
1634990,맛나하우스,"제주특별자치도 제주시 화남로 22 (화북일동,(화남로 26))",33.5160647,126.5632002,정좌표
1634991,칠공팔공빛아지트,"제주특별자치도 제주시 서사로 110, 1층 (삼도일동)",33.5027051,126.5196935,정좌표
1634993,팔각촌,제주특별자치도 제주시 천수로 42 (이도이동),33.5031021,126.541536,정좌표
1635444,일품순두부삼화점,"제주특별자치도 제주시 삼봉로2길 54, 1층 (삼양이동)",33.5196781,126.5835776,정좌표
1635514,황금토종닭,제주특별자치도 제주시 방일4길 4 (노형동),33.4775778,126.4684453,정좌표
1635518,문성반점,제주특별자치도 제주시 연동4길 12-9 (연동),33.4846534,126.4872484,정좌표
1635524,쇠소깍횟집,"제주특별자치도 제주시 연수로4길 1, 1층 (일도이동)",33.5028762,126.5433263,정좌표
1635549,시청그때그집,제주특별자치도 제주시 동광로1길 11 (이도일동),33.501931,126.5289562,정좌표
1635869,동산식당,"제주특별자치도 제주시 삼봉로 137, 102호 (도련일동)",33.509297,126.5901418,정좌표
1635887,화진전복,"제주특별자치도 제주시 무근성길 2, 1층 (삼도이동)",33.5179248,126.5191232,정좌표
1635895,해와달그리고섬,제주특별자치도 제주시 우도면 우도해안길 946,33.5107563,126.9655285,정좌표
1636016,꽁지식당,제주특별자치도 제주시 고산동산5길 6 (이도이동),33.4956244,126.5338836,정좌표
1636023,올래어촌,제주특별자치도 제주시 테우해안로 166 (이호일동),33.4968019,126.4515591,정좌표
1636063,산전수전인생역전,제주특별자치도 제주시 은남길 40 (연동),33.4861934,126.4956301,정좌표
1636068,꼬방,제주특별자치도 제주시 신대로12길 21 (연동),33.4885869,126.4942793,정좌표
1636260,진우네국밥,"제주특별자치도 제주시 남성로 24 (용담일동,참사랑하이츠빌라102호(남성로225))",33.5082698,126.5166176,정좌표
1636263,제주마음,"제주특별자치도 제주시 원노형3길 13, 1층 (노형동)",33.4864363,126.4844124,정좌표
1636440,동아리꼬치구이뜨래별점,"제주특별자치도 제주시 구남로7길 25, 101호 (이도이동, 벽성뜨래별아파트)",33.4930978,126.5346705,정좌표
1636443,금정무오리목점,"제주특별자치도 제주시 연동8길 21, 1층 (연동)",33.4839256,126.4907804,정좌표
1636444,황금돈가,"제주특별자치도 제주시 국기로2길 4 (연동,(1층))",33.4799136,126.4903314,정좌표
1636450,비비큐치킨추자점,제주특별자치도 제주시 추자면 추자로 14-4,33.9636381,126.2975938,정좌표
1636451,우도맛집로뎀,제주특별자치도 제주시 우도면 우도해안길 264,33.503579,126.9428311,정좌표
1637544,막창먹는놈구남점,"제주특별자치도 제주시 구남동2길 51, 104호 (이도이동)",33.4875761,126.5335093,정좌표
1637554,더육정육식당,"제주특별자치도 제주시 노형3길 3, 1층 (노형동)",33.4864053,126.4855621,정좌표
1637861,투썸플레이스엠제이벤처오름점,"제주특별자치도 제주시 첨단로 199, 1층 (영평동)",33.4564727,126.5714479,정좌표
1637926,코하쿠,"제주특별자치도 제주시 은수길 108, 1층 (노형동)",33.4721583,126.4880259,정좌표
1638280,어가횟집,"제주특별자치도 제주시 광평동로 45, A동 104호 (노형동)",33.4832402,126.4686459,정좌표
1638283,달맥,"제주특별자치도 제주시 광양13길 6-2, 1층 (이도이동)",33.4985736,126.5313158,정좌표
1638302,로빈앤블루,"제주특별자치도 제주시 우도면 우도해안길 856, 1층",33.5074342,126.954269,정좌표
1638349,마두천,"제주특별자치도 제주시 용해로 45, 1층 (용담이동)",33.5130922,126.5030506,정좌표
1638418,돈삼촌,"제주특별자치도 제주시 삼성로 118, 1층 (일도이동)",33.5106109,126.5368349,정좌표
1638419,탐라도새기천국,"제주특별자치도 제주시 도령북길 2-4, 1층 (연동)",33.4927686,126.4849811,정좌표
1638421,항아리뚜껑,"제주특별자치도 제주시 동한두기길 39, 1.2층 (용담일동)",33.5161676,126.5150492,정좌표
1638432,고전떡볶이본점,제주특별자치도 제주시 무근성5길 2 (삼도이동),33.5129235,126.5194689,정좌표
1638453,진김치찌개파불고기,"제주특별자치도 제주시 남광로 10, 1층 (이도이동)",33.4921275,126.5376473,정좌표
1638498,연탄과친한돼지,"제주특별자치도 제주시 원노형로 61, 1층 (노형동)",33.483166,126.4851235,정좌표
1638950,듬뿍반점,제주특별자치도 제주시 남광북1길 30 (이도이동),33.495791,126.5366904,정좌표
1638951,뜨르르,"제주특별자치도 제주시 신대로9길 9, 1층 (연동)",33.4909658,126.4978922,정좌표
1639015,별미집,제주특별자치도 제주시 원노형로 25 (노형동),33.4864186,126.4851767,정좌표
1639335,을찌로국물떡볶이용담점,"제주특별자치도 제주시 남성로 106 (용담일동,(남성로93))",33.5085602,126.5167827,정좌표
1639339,본죽중앙점,"제주특별자치도 제주시 중앙로 87 (이도일동,(중앙로 81)외 1필지)",33.5110832,126.5244392,정좌표
1639349,지정,"제주특별자치도 제주시 성화로 30 (용담이동,(성화로13))",33.5124564,126.5057221,정좌표
1639477,빨간집베라체점,"제주특별자치도 제주시 신설로6길 23 (이도이동,(1층))",33.4929958,126.5437801,정좌표
1639481,한끼맛있다제주시청점,제주특별자치도 제주시 광양14길 2 (이도이동),33.4984187,126.530266,정좌표
1639526,상구비어화북남문점,"제주특별자치도 제주시 진남로6길 9, 1층 (화북일동)",33.5197233,126.56561,정좌표
1639528,남문숯불바베큐외도점,제주특별자치도 제주시 우령2길 31 (외도일동),33.4863277,126.4317127,정좌표
1639533,제주서문수산,"제주특별자치도 제주시 서문로4길 13-2, 1073호 (용담일동, 서문공설시장)",33.5117807,126.5181132,정좌표
1639570,자미성꼬치구이,제주특별자치도 제주시 신대로16길 44 (연동),33.487151,126.4914841,정좌표
1639571,대발이네,"제주특별자치도 제주시 조천읍 함덕13길 7, 2층",33.5420803,126.6679293,정좌표
1639619,해짓골국수,"제주특별자치도 제주시 관덕로15길 31, 1층 (건입동)",33.516059,126.5268679,정좌표
1639648,청년다방외도점,"제주특별자치도 제주시 우정로15길 29, 1층 (외도일동)",33.4872764,126.4324412,정좌표
1639680,주당포차,"제주특별자치도 제주시 천수로6길 26, 1층 (이도이동)",33.501269,126.5426644,정좌표
1639681,일품핫쭈꾸미,"제주특별자치도 제주시 연북로 201, 2층 (오라이동)",33.4817954,126.5052278,정좌표
1639695,토대력외도점,"제주특별자치도 제주시 우정로11길 13, 1층 101호 (외도일동)",33.4876279,126.4324975,정좌표
1639699,다연이네,"제주특별자치도 제주시 사라봉7길 3, 지하1층 지-002호 (건입동, 용기주택)",33.517484,126.5394751,정좌표
1639703,지큐스크린골프,제주특별자치도 제주시 월광로 134 (노형동),33.4908276,126.4728701,정좌표
1639708,커피스미다,"제주특별자치도 제주시 정원로 53, 1층 (노형동)",33.4803463,126.4777974,정좌표
1639715,행운손맛,"제주특별자치도 제주시 조천읍 신북로 224-1, 1층",33.5359135,126.6370289,정좌표
1639719,마라양꼬치,제주특별자치도 제주시 신대로16길 44 (연동),33.487151,126.4914841,정좌표
1640583,대란갈비,제주특별자치도 제주시 도남로 19 (도남동),33.4983115,126.5255663,정좌표
1640596,바오밥외도점,"제주특별자치도 제주시 우정로11길 8, 2층 (외도일동)",33.4876491,126.4318331,정좌표
1640597,보통사람들,"제주특별자치도 제주시 서광로18길 5-11, 1층 (삼도일동)",33.4992648,126.5213598,정좌표
1640605,고소한오향족발,제주특별자치도 제주시 조천읍 함덕16길 7,33.5404711,126.6681058,정좌표
1640643,도두해수파크구내,제주특별자치도 제주시 서해안로 236 (도두일동),33.5083474,126.4715367,정좌표
1640644,09학번,"제주특별자치도 제주시 산천단동1길 7, 1층 (아라일동)",33.4486621,126.5577705,정좌표
1640648,하빌리스,"제주특별자치도 제주시 전농로 37, 1층 (삼도일동)",33.504624,126.5172341,정좌표
1640732,인생극장,"제주특별자치도 제주시 고마로16길 9, 1층 (일도이동)",33.5052607,126.54033,정좌표
1640755,제주국담,제주특별자치도 제주시 신대로12길 17 (연동),33.4885955,126.4947633,정좌표
1640908,맵수다제대점,"제주특별자치도 제주시 제주대학로7길 5-2, 지하1층 (아라이동)",33.4606187,126.561092,정좌표
1640924,이순애소문난순대국밥,제주특별자치도 제주시 진남로6길 29 (화북일동),33.5212718,126.5656523,정좌표
1641044,1석2조,"제주특별자치도 제주시 신광로10길 24 (연동,(1층))",33.4840476,126.4872514,정좌표
1641050,삼오칠회센타,제주특별자치도 제주시 신대로16길 33 (연동),33.4866937,126.493022,정좌표
1641083,제주도푸른밤,"제주특별자치도 제주시 도공로 4-2, 2층 (도두일동)",33.5060123,126.4648226,정좌표
1641084,수니네국수,"제주특별자치도 제주시 월랑로 96, 1층 제1호 (도두일동)",33.4929996,126.4721508,정좌표
1641099,엄블랑호다,"제주특별자치도 제주시 사장길 15, 1층 (연동)",33.4842131,126.4958839,정좌표
1641127,미스터와규,제주특별자치도 제주시 은남3길 33 (연동),33.4871889,126.4923022,정좌표
1641131,신사본가송탄부대찌개,제주특별자치도 제주시 신대로10길 28 (연동),33.4909818,126.4938645,정좌표
1641275,낭뜰에쉼팡,제주특별자치도 제주시 조천읍 남조로 2343,33.4735321,126.6571882,정좌표
1641937,오라방라운지,"제주특별자치도 제주시 은수길 69, 1층 (연동)",33.470619,126.4881811,정좌표
1641947,또순이모부페,"제주특별자치도 제주시 연동11길 30, 1층 (연동)",33.4871554,126.4930355,정좌표
1641949,삼해횟집,"제주특별자치도 제주시 우평로 354, 1층 (외도일동)",33.4841974,126.429085,정좌표
1641983,제주어항,제주특별자치도 제주시 용해로 24 (용담삼동),33.5150259,126.5023651,정좌표
1642056,램스키친,"제주특별자치도 제주시 국기로 35, 3층 (연동)",33.4787871,126.4903725,정좌표
1642254,스파벨리스,"제주특별자치도 제주시 조천읍 종인내길 135, 다동 1층",33.49482,126.623,정좌표
1642950,루스트삼화점,"제주특별자치도 제주시 화삼로 21, 3층 (화북일동)",33.5144325,126.5755025,정좌표
1643009,와랑와랑,"제주특별자치도 제주시 산천단동1길 9, 1층 (아라일동)",33.4488621,126.5577543,정좌표
1645079,심스호텔,"제주특별자치도 제주시 임항로 249, 2층 (건입동)",33.5183479,126.5387193,정좌표
1645112,조마루뼈다귀함덕점,"제주특별자치도 제주시 조천읍 함덕16길 4, 1층",33.5402985,126.6686629,정좌표
1645186,난타오천화북점,"제주특별자치도 제주시 동화로1길 37, 주상가동 103호 (화북일동,화북2아파트)",33.5193437,126.5768589,정좌표
1645192,모퉁이에머릿돌,제주특별자치도 제주시 신대로10길 34 (연동),33.4910212,126.4931719,정좌표
1645194,일번가,제주특별자치도 제주시 중앙로24길 7 (삼도이동),33.5062968,126.5241406,정좌표
1645482,돈만땅,"제주특별자치도 제주시 진동로5길 20, 1층 (화북일동)",33.521198,126.5651164,정좌표
1645483,이게밥도둑,"제주특별자치도 제주시 삼무로7길 23, 1층 (연동)",33.491617,126.4936071,정좌표
1645504,제주정식,제주특별자치도 제주시 연화로2길 22-1 (연동),33.4772824,126.4897068,정좌표
1645522,보말과비바리제주본점,"제주특별자치도 제주시 화삼북로 7, 상가동 106호 (화북일동,화북4아파트)",33.5175448,126.5739414,정좌표
1645648,맘스터치제주대점,"제주특별자치도 제주시 제주대학로 115, 1층 (아라이동)",33.4604339,126.5623364,정좌표
1645653,옥이정식,"제주특별자치도 제주시 신산로 31 (일도이동,(신산로154))",33.5106281,126.5324973,정좌표
1645654,남문숯불바베큐치킨아라점,"제주특별자치도 제주시 아란7길 11, 1층 (아라일동)",33.4261379,126.5626925,정좌표
1645679,옛날통닭서사라점,"제주특별자치도 제주시 서사로 41, 1층 (삼도이동)",33.5087465,126.5202192,정좌표
1645685,흑섬,"제주특별자치도 제주시 서흘1길 46, 1층 (삼양일동)",33.5303543,126.5894449,정좌표
1645729,리오,제주특별자치도 제주시 수덕9길 81-6 (노형동),33.4825724,126.4708567,정좌표
1645774,남다른대구막창,제주특별자치도 제주시 화삼로 11 (화북일동),33.5143764,126.5791822,정좌표
1645779,제주만석,"제주특별자치도 제주시 남성로 46-1, 1층 (용담일동)",33.5042937,126.5133698,정좌표
1645782,좀녀마을,"제주특별자치도 제주시 은남길 25 (연동,(은남1로 28))",33.4873715,126.4960531,정좌표
1645845,괸당집함덕점,"제주특별자치도 제주시 조천읍 신북로 509, 1층",33.5423822,126.664489,정좌표
1645931,신기루,"제주특별자치도 제주시 수덕5길 45, 1층 (노형동)",33.4846209,126.474381,정좌표
1645949,고사리,"제주특별자치도 제주시 삼무로3길 39, 102호 (연동)",33.490311,126.4917112,정좌표
1645969,권주가,"제주특별자치도 제주시 천수로 82, 105동 104호 (일도이동, 혜성대유상가)",33.5056914,126.5451377,정좌표
1645970,천하육회시청점,제주특별자치도 제주시 광양8길 9 (이도이동),33.4998294,126.528572,정좌표
1645975,일미고을,제주특별자치도 제주시 신대로10길 24 (연동),33.4909566,126.4943082,정좌표
1645978,일통이반,"제주특별자치도 제주시 중앙로2길 25, 1층 (삼도이동)",33.5170648,126.5221484,정좌표
1646295,제주순풍해장국함덕점,"제주특별자치도 제주시 조천읍 신북로 604, 1층",33.5398239,126.6740623,정좌표
1653607,이집에서먹자,"제주특별자치도 제주시 조천읍 신북로 475, 1층",33.5435725,126.6611631,정좌표
1653647,해맞이,"제주특별자치도 제주시 공설로 41, 1층 (오라일동)",33.4967725,126.5183827,정좌표
1654097,대게마을,"제주특별자치도 제주시 서해안로 350-1, 1~2층 (도두이동)",33.5055899,126.4897243,정좌표
1654121,이춘봉인생치킨,"제주특별자치도 제주시 동화로1길 53-2, 1층 (화북일동)",33.5176262,126.5768591,정좌표
1654124,금화왕돈까스노형점,"제주특별자치도 제주시 연북로 48, 201,202호 (노형동)",33.4858923,126.518754,정좌표
1654203,라구요,"제주특별자치도 제주시 기와1길 6, 1층 (영평동)",33.4888507,126.5569935,정좌표
1654204,쭈꾸미달인,"제주특별자치도 제주시 화삼로 89, 104호 (도련일동)",33.5143764,126.5791822,정좌표
1654211,편안식당,제주특별자치도 제주시 신성로13길 27 (이도이동),33.4978753,126.5304334,정좌표
1654218,신제주보쌈,제주특별자치도 제주시 광평동로 38 (노형동),33.4831891,126.4695451,정좌표
1654230,방목흑돼지,제주특별자치도 제주시 조천읍 비자림로 649,33.436561,126.6762822,정좌표
1654264,맛있으면돼지,"제주특별자치도 제주시 용화로 18, 1층 (용담이동)",33.5097145,126.5054066,정좌표
1654312,피쉬앤돈,"제주특별자치도 제주시 곰방매길 5, 1층 (아라이동)",33.4674104,126.5554152,정좌표
1654390,일억조흑돼지,"제주특별자치도 제주시 정존13길 4, 1층 (노형동)",33.4855934,126.4775788,정좌표
1654468,우미관,"제주특별자치도 제주시 서광로32길 40-1, 2층 (이도이동)",33.4972854,126.5298074,정좌표
1654528,퍼스트스톤,"제주특별자치도 제주시 노형12길 23, 1층 (노형동)",33.4771889,126.4742632,정좌표
1654529,그라나다,"제주특별자치도 제주시 1100로 3308, 204호 (노형동)",33.4598677,126.4872607,정좌표
1654969,거멍흑돼지장어하루신제주본점,"제주특별자치도 제주시 월랑로 83, 2층 제1호 (노형동)",33.4917374,126.472442,정좌표
1654977,대굴대굴,제주특별자치도 제주시 성신로2길 19 (연동),33.4921732,126.4872382,정좌표
1654994,별당,제주특별자치도 제주시 중앙로12길 8 (이도일동),33.5120268,126.5238054,정좌표
1655034,김밥상회,"제주특별자치도 제주시 과원북2길 58, 1층 (연동)",33.4787085,126.4885072,정좌표
1655061,우도짜장맨,"제주특별자치도 제주시 우도면 우도해안길 1132, 1층",33.4977772,126.9676695,정좌표
1655428,우진제비육개장,"제주특별자치도 제주시 조천읍 번영로 1595, 1층",33.4590959,126.7018887,정좌표
1655458,짱짱소주방,"제주특별자치도 제주시 연동10길 31, 1층 (연동)",33.482964,126.4919946,정좌표
1655460,제주모다정,"제주특별자치도 제주시 원노형6길 12, 1층 (노형동)",33.4850718,126.4827556,정좌표
1655531,비에이치씨치킨외도점,"제주특별자치도 제주시 우정로11길 8, 1층 (외도일동)",33.4876491,126.4318331,정좌표
1655579,정대,"제주특별자치도 제주시 서광로32길 29-1, 2층 (이도이동)",33.4983222,126.5297317,정좌표
1655638,산고을칼국수,"제주특별자치도 제주시 오복4길 34, 1층 (이도이동)",33.4938757,126.5378816,정좌표
1655652,프로젝트064,"제주특별자치도 제주시 신광로4길 13, 1~2층 (연동)",33.4886688,126.4885677,정좌표
1655676,봄날의춘천,"제주특별자치도 제주시 정존11길 37, 1층 (노형동)",33.4865447,126.4742967,정좌표
1655691,보리보리,"제주특별자치도 제주시 오복2길 31-13, 1층 (이도이동)",33.4938485,126.5377992,정좌표
1655702,아라민물장어,"제주특별자치도 제주시 인다14길 3, 1층 (아라일동)",33.4717773,126.5460059,정좌표
1655705,흥수아구찜,"제주특별자치도 제주시 우정로4길 35, 지하1층 3호 (외도일동, 네오하임6차)",33.4917968,126.4296915,정좌표
1655713,해뜨는아구찜뼈감탕,"제주특별자치도 제주시 진군중길 14, 1층 (노형동)",33.4777515,126.4794083,정좌표
1655723,미미당제주이도점,"제주특별자치도 제주시 신설로11길 43, 104호 (이도이동)",33.4936836,126.5470774,정좌표
1655731,미스등갈비제주점,제주특별자치도 제주시 수덕로 9 (노형동),33.4880279,126.4754004,정좌표
1655743,담백한그집,제주특별자치도 제주시 신대로8길 5 (연동),33.4917662,126.4958727,정좌표
1655745,작은한끼,"제주특별자치도 제주시 우정로15길 12, 111호 (외도일동, 부영아파트상가동)",33.4849821,126.4329506,정좌표
1655754,북교해바라기,"제주특별자치도 제주시 중앙로 46-8, 1층 (일도일동)",33.5134561,126.5288375,정좌표
1655914,제주김만복라운지,"제주특별자치도 제주시 서문로 73, 1~2층 101호 (용담일동)",33.5123815,126.5186989,정좌표
1655915,해맑은말집,제주특별자치도 제주시 도남로 48-1 (도남동),33.495894,126.5268943,정좌표
1655916,유유자적,"제주특별자치도 제주시 우도면 우도해안길 780-2, 1층",33.5162706,126.9576666,정좌표
1655950,에이어,"제주특별자치도 제주시 고마로17길 11, 지01호 (일도이동)",33.5060768,126.54195,정좌표
1655975,코리아식당,제주특별자치도 제주시 조천읍 신북로 544,33.5411266,126.6677813,정좌표
1656161,구름언덕,"제주특별자치도 제주시 조천읍 중산간동로 650, 1층",33.5029546,126.6942576,정좌표
1656701,보통김밥,"제주특별자치도 제주시 남녕로 42, 1층 (연동)",33.4913034,126.4804002,정좌표
1656718,산양산삼해물라면,"제주특별자치도 제주시 테우해안로 150, 1층 (이호일동)",33.49701,126.4497465,정좌표
1656820,산들네,제주특별자치도 제주시 아연로 158 (오라이동),33.4715615,126.5079058,정좌표
1656852,은빛식당,제주특별자치도 제주시 중앙로1길 14 (건입동),33.5161583,126.5261204,정좌표
1656871,예그리나,"제주특별자치도 제주시 흥운길 93, 1층 (용담이동)",33.5155302,126.5132443,정좌표
1656916,카도,제주특별자치도 제주시 신대로16길 41 (연동),33.486712,126.4921577,정좌표
1656926,작은밥상,"제주특별자치도 제주시 승천로 2, 1층 (이도이동)",33.4972277,126.5380372,정좌표
1656964,로니로티제주점,"제주특별자치도 제주시 고마로 115, 2층 (일도이동)",33.5042959,126.5420799,정좌표
1656968,시장올레,"제주특별자치도 제주시 관덕로14길 10, 2층 (이도일동)",33.512247,126.5262491,정좌표
1656996,처갓집양념치킨삼양점,제주특별자치도 제주시 일주동로 378 (삼양이동),33.5209896,126.5838194,정좌표
1657006,투다리노형정한점,"제주특별자치도 제주시 원노형로 26 (노형동,서림빌딩102호(백두2로3))",33.486435,126.4848245,정좌표
1657023,역전할머니맥주노형점,"제주특별자치도 제주시 연북로 45, 122,123,124호 (노형동, 메르헨하우스)",33.4822044,126.4863313,정좌표
1657051,제라진밥상,제주특별자치도 제주시 조천읍 함와로 4,33.5396053,126.6741353,정좌표
1657355,공룡슈퍼,"제주특별자치도 제주시 광양8길 7, 2층 (이도이동)",33.4997135,126.5287612,정좌표
1657359,아구식당,제주특별자치도 제주시 일주동로 355 (삼양이동),33.5209896,126.5838194,정좌표
1657387,크랩스토리,제주특별자치도 제주시 서해안로 352 (도두이동),33.500941,126.4893132,정좌표
1657424,미묘,제주특별자치도 제주시 신설로4길 3 (이도이동),33.4939168,126.5419817,정좌표
1657454,도두해녀의집,"제주특별자치도 제주시 도두항길 16, 1층 (도두일동)",33.5062012,126.4666854,정좌표
1657503,생이소리,제주특별자치도 제주시 명림로 241 (봉개동),33.4629574,126.6161368,정좌표
1657565,청담집,"제주특별자치도 제주시 월랑로 83, 1동 1층 제1호 (노형동)",33.4917374,126.472442,정좌표
1657631,투망,"제주특별자치도 제주시 도두항서길 69-1, 1~3층 (도두일동)",33.5037841,126.4636954,정좌표
1657636,오븐에빠진닭한라대점,제주특별자치도 제주시 한라대학로 66 (노형동),33.476275,126.4773717,정좌표
1657641,둘리네국수,제주특별자치도 제주시 연동10길 5 (연동),33.4851588,126.4921018,정좌표
1657652,장원들물,"제주특별자치도 제주시 서광로29길 22-14 (이도일동,(1층))",33.5022129,126.5272618,정좌표
1657655,창작일식요리엔,제주특별자치도 제주시 연화로2길 22 (연동),33.4772917,126.4895797,정좌표
1657663,라온샘,"제주특별자치도 제주시 서문로4길 13-2, 122,123호 (용담일동, 서문공설시장)",33.5112305,126.5179535,정좌표
1657673,소담한봉봉,"제주특별자치도 제주시 신설로9길 20, 가동 101호 (이도이동)",33.4941209,126.5458531,정좌표
1657690,피자클럽노형점,"제주특별자치도 제주시 월랑로10길 29 (노형동,(월랑4로39))",33.490798,126.4781581,정좌표
1657695,우수미회센타,"제주특별자치도 제주시 연화로2길 24-1, 1층 (연동)",33.4772855,126.4899617,정좌표
1657722,수구레해장국,"제주특별자치도 제주시 구남로 31, 상가동 4호 (이도이동, 이도주공아파트)",33.4904229,126.533018,정좌표
1657739,페리카나연동점,"제주특별자치도 제주시 연동1길 10 (연동,(연제3로14))",33.4890797,126.4866259,정좌표
1657742,씨유제주일중사거리점,"제주특별자치도 제주시 신설로2길 5-9, 지하 1층 (이도이동)",33.494371,126.5418105,정좌표
1657746,바세츠아이스크림제원점,"제주특별자치도 제주시 신광로 46, 1층 (연동)",33.4879993,126.4898565,정좌표
1657748,피자굽는곰아저씨외도점,제주특별자치도 제주시 우정로11길 11 (외도일동),33.4879755,126.4323329,정좌표
1657749,밤수지맨드라미,"제주특별자치도 제주시 우도면 우도해안길 530, 1층",33.5206853,126.9485359,정좌표
1657829,지에스25연동중앙점,"제주특별자치도 제주시 연동7길 35, 1층 (연동)",33.4867536,126.4909099,정좌표
1657839,씨유제주사라점,제주특별자치도 제주시 사라봉길 10 (건입동),33.514593,126.5396556,정좌표
1657849,씨유제주사라봉점,제주특별자치도 제주시 임항로 279 (건입동),33.5157625,126.538903,정좌표
1657857,씨유제주용문점,제주특별자치도 제주시 과원북4길 11 (노형동),33.4813445,126.4831778,정좌표
1657867,씨유제주삼양대로점,제주특별자치도 제주시 일주동로 326 (삼양이동),33.5209896,126.5838194,정좌표
1657877,빽다방제주대학로점,"제주특별자치도 제주시 광양8길 12-1, 1층 (이도이동)",33.4999438,126.5282602,정좌표
1657930,가는길에,"제주특별자치도 제주시 동문로4길 14, 1층 (일도일동)",33.5124523,126.5276642,정좌표
1657970,호봉토스트노형점,"제주특별자치도 제주시 월랑로 16, 1층 (노형동)",33.4876617,126.4778794,정좌표
1658162,브릭캠퍼스버거,"제주특별자치도 제주시 1100로 3047, 1층 1호 (노형동)",33.4561511,126.48637,정좌표
1658163,장산다방제주휘슬락점,"제주특별자치도 제주시 서부두2길 26, 101,102호 (건입동)",33.5176293,126.5267886,정좌표
1658224,위더스트래블칠성점,"제주특별자치도 제주시 중앙로5길 4, 2층 (일도일동)",33.5152037,126.5252228,정좌표
1658275,감성커피화북점,제주특별자치도 제주시 일주동로 183 (화북일동),33.5191105,126.5651702,정좌표
1658283,씨유제주고마로점,제주특별자치도 제주시 고마로3길 33 (일도이동),33.5122734,126.5416534,정좌표
1658293,씨유제주신촌점,제주특별자치도 제주시 조천읍 신촌3길 1,33.5331304,126.618895,정좌표
1658313,롯데리아제주항디티점,"제주특별자치도 제주시 임항로 94, 1~2층 (건입동)",33.517845,126.5346207,정좌표
1658434,스타벅스커피제주용담DT,"제주특별자치도 제주시 서해안로 380, 1층 (용담삼동)",33.5123802,126.4846092,정좌표
1659736,진가커피,"제주특별자치도 제주시 제원1길 32, 1층 (연동)",33.4895623,126.4862087,정좌표
1659744,지에스25제주한라점,"제주특별자치도 제주시 한라대학로 63, 1층 (노형동)",33.4766609,126.4774467,정좌표
1659751,씨유제주월평점,"제주특별자치도 제주시 아봉로 267, 102동 지하1층 101호 (월평동, 베티모루)",33.4804228,126.5754748,정좌표
1659759,커피473,"제주특별자치도 제주시 연삼로 473, 제주도중소기업종합지원센터 1층 (이도이동)",33.4994261,126.5405872,정좌표
1659770,플랏포커피,"제주특별자치도 제주시 원노형5길 27, 102호 (노형동)",33.4869552,126.48291,정좌표
1659839,지에스25제주신북점,"제주특별자치도 제주시 조천읍 신북로 66, 102동 103호",33.5386704,126.6458435,정좌표
1659859,지에스25연동아산점,"제주특별자치도 제주시 사장길 26, 1층 102호 (연동)",33.483431,126.4952605,정좌표
1659869,버무리떡볶이노형점,제주특별자치도 제주시 정존11길 39 (노형동),33.4866334,126.4740283,정좌표
1659882,온에어pc방제주외도점,"제주특별자치도 제주시 우정로 52, 2층 (외도일동)",33.4881821,126.4307744,정좌표
1659884,지에스25노형월광점,"제주특별자치도 제주시 월광로 25, 1층 (노형동)",33.4842381,126.4642633,정좌표
1659894,씨유제주봉개점,"제주특별자치도 제주시 번영로 468, 1층 (봉개동)",33.4915093,126.5920023,정좌표
1659902,카페클라츠,제주특별자치도 제주시 남광로2길 17-3 (이도이동),33.4912229,126.5386148,정좌표
1659903,지에스제주노형정원점,제주특별자치도 제주시 노형4길 17 (노형동),33.4846079,126.4825001,정좌표
1659918,큰아들,제주특별자치도 제주시 연동9길 29 (연동),33.4871962,126.4921611,정좌표
1659939,GS25연동대림점,제주특별자치도 제주시 과원북4길 73 (연동),33.4812056,126.4893708,정좌표
1659949,엔젤김밥,"제주특별자치도 제주시 남광로 181, 1층 103호 (일도이동, 대유대림아파트)",33.5026248,126.5512799,정좌표
1659950,마이티커피,제주특별자치도 제주시 구남동6길 11 (이도이동),33.4941327,126.5477812,정좌표
1659960,파스쿠찌제주이도점,제주특별자치도 제주시 중앙로 371-1 (이도이동),33.5000663,126.5395283,정좌표
1659982,먹쿠슬낭여행자카페,제주특별자치도 제주시 오라로 24 (오라삼동),33.4980411,126.5070556,정좌표
1660367,비아제주,"제주특별자치도 제주시 삼무로9길 11, 1층 (연동)",33.4926854,126.4949444,정좌표
1660380,주먹밥이야기,"제주특별자치도 제주시 진동로3길 23, 1층 (화북일동)",33.5203298,126.5658949,정좌표
1660399,델문도제주도립미술관점,"제주특별자치도 제주시 1100로 2894-78 (연동,제주특별자치도립미술관)",33.4526324,126.4896073,정좌표
1660405,지에스25용담열린점,제주특별자치도 제주시 용남1길 1 (용담일동),33.5079607,126.5155004,정좌표
1660414,씨유제주설촌로점,"제주특별자치도 제주시 설촌로12길 23-1, 1층 (삼양이동)",33.5246682,126.5828988,정좌표
1660424,지에스25동광양점,제주특별자치도 제주시 동광로 21-1 (이도일동),33.5037651,126.5318096,정좌표
1660461,소낭뜰,제주특별자치도 제주시 열녀길 8 (아라일동),33.4649676,126.5503138,정좌표
1660501,에그드랍제주시청점,"제주특별자치도 제주시 서광로 301, 1층 (이도일동)",33.5007836,126.5286021,정좌표
1660580,할리스커피제주이도점,"제주특별자치도 제주시 승천로 71 (아라이동,(1층))",33.4925999,126.5428946,정좌표
1660625,마마,"제주특별자치도 제주시 신광로6길 26, 점포동 209호 (연동, 제원아파트)",33.4880593,126.4873075,정좌표
1662017,씨유제주첨단꿈에그린점,"제주특별자치도 제주시 첨단로동길 74, 1층 101호 (월평동)",33.4477741,126.5801929,정좌표
1662027,에이바우트커피아이파크점,"제주특별자치도 제주시 노형8길 9, 1층 (노형동)",33.4838914,126.4843154,정좌표
1662089,김밥명가노형점,제주특별자치도 제주시 월랑로 13 (노형동),33.4871035,126.4776514,정좌표
1662129,땡큐미제주점,"제주특별자치도 제주시 인다15길 33, 1층 (아라일동)",33.469992,126.5499561,정좌표
1662151,만땅피씨연동점,"제주특별자치도 제주시 도령로13길 13, 2층 (연동)",33.4925442,126.4880183,정좌표
1662154,샐리가든커피법원점,제주특별자치도 제주시 남광북5길 2 (이도이동),33.4929011,126.5361268,정좌표
1662163,하얀산호카페,"제주특별자치도 제주시 우도면 우도해안길 144, 1층",33.4941796,126.9452751,정좌표
1662230,청춘쌀핫도그삼화점,"제주특별자치도 제주시 화삼로 166, 상가동 102호 (삼양이동)",33.5143764,126.5791822,정좌표
1662245,소설다방,"제주특별자치도 제주시 중앙로 204, 2층 (이도일동)",33.5030704,126.5285942,정좌표
1662251,지에스25삼도관덕점,"제주특별자치도 제주시 관덕로2길 15, 1층 (삼도이동)",33.5116439,126.5207338,정좌표
1662261,세븐일레븐제주도남로점,"제주특별자치도 제주시 도남로 3, 1층 (도남동)",33.4995158,126.5251736,정좌표
1662271,지에스25아라타운점,"제주특별자치도 제주시 인다8길 8, 1층 (아라일동)",33.4261379,126.5626925,정좌표
1662309,부띠크아바,"제주특별자치도 제주시 남성로 75, 1층 (용담일동)",33.5066132,126.5145581,정좌표
1662311,파스쿠찌제주한라병원점,"제주특별자치도 제주시 도령로 73, 2층 201호 (연동, 연동 펠리체)",33.4899875,126.4858085,정좌표
1662337,피자굽는아저씨,제주특별자치도 제주시 연동4길 12 (연동),33.4849834,126.4876924,정좌표
1662342,칼디의선물,"제주특별자치도 제주시 명신1길 20, 1층 (용담이동)",33.5001471,126.5011503,정좌표
1662344,그러므로,"제주특별자치도 제주시 구남동6길 45, 1층 (이도이동)",33.4875695,126.5364225,정좌표
1662351,커피다,"제주특별자치도 제주시 서광로 197-1, 1층 (삼도일동)",33.5002287,126.5177524,정좌표
1662356,은이네분식,"제주특별자치도 제주시 동문로14길 3, 1층 (일도이동)",33.5130766,126.5334042,정좌표
1662357,인다김밥,"제주특별자치도 제주시 인다1길 20, 101호 (아라일동, 아라아이파크상가동)",33.4751177,126.5503298,정좌표
1662366,GS25삼양해변점,"제주특별자치도 제주시 선사로8길 16, 1층 (삼양일동)",33.5256832,126.5876176,정좌표
1662376,몰랑몰랑카페,제주특별자치도 제주시 중앙로 24 (건입동),33.5061552,126.5234837,정좌표
1662413,씨유제주도련중앙점,"제주특별자치도 제주시 도련길 1, 1층 (도련일동)",33.5091962,126.5896086,정좌표
1662423,이웃집마나까페,"제주특별자치도 제주시 고마로 127, 3층 (일도이동)",33.5033313,126.5425459,정좌표
1662432,돌체,제주특별자치도 제주시 신대로10길 53 (연동),33.4907865,126.4910735,정좌표
1662873,지에스25연동누리안,"제주특별자치도 제주시 신대로 144, 1층 (연동)",33.4844492,126.4959551,정좌표
1662899,바로밥,"제주특별자치도 제주시 이도공원길 6, 1층 (이도이동)",33.496321,126.5426462,정좌표
1662912,꼬마팬시,제주특별자치도 제주시 도남로8길 21 (도남동),33.4934457,126.5265495,정좌표
1662924,기라,제주특별자치도 제주시 정존11길 29 (노형동),33.485967,126.4748942,정좌표
1662927,씨유제주청귤로점,"제주특별자치도 제주시 청귤로1길 50, 1층 (이도이동)",33.5014203,126.5393625,정좌표
1662991,CU제주우도해변길점,"제주특별자치도 제주시 우도면 우도해안길 800, 1층",33.5074342,126.954269,정좌표
1663037,대감님밥상,"제주특별자치도 제주시 성신로2길 21, 1층 (연동)",33.492288,126.4874837,정좌표
1663039,씨유제주노형중점,제주특별자치도 제주시 한라대학로 33 (노형동),33.4766937,126.4750523,정좌표
1663049,941헤르쯔,"제주특별자치도 제주시 원노형로 37, 2층 (노형동)",33.4844845,126.4846156,정좌표
1663071,땡초김밥싱싱왕만두도남점,제주특별자치도 제주시 신성로 77 (도남동),33.4956115,126.5277083,정좌표
1663081,꽃피는커피,"제주특별자치도 제주시 남성로 98-1, 1층 (용담일동)",33.5081192,126.5162403,정좌표
1663084,스타벅스커피신제주이마트점,"제주특별자치도 제주시 1100로 3348 (노형동, 이마트신제주점)",33.4849039,126.4805169,정좌표
1663451,선갤러리카페,"제주특별자치도 제주시 오남로 238, 1층 (오라이동)",33.4812863,126.5167686,정좌표
1663454,던킨도너츠함덕점,"제주특별자치도 제주시 조천읍 함덕로 38, 1층",33.5421559,126.6713605,정좌표
1663586,탐앤탐스아라점,"제주특별자치도 제주시 중앙로 492, 1층 (아라일동)",33.4814679,126.5411458,정좌표
1663613,지에스25노형대림시티점,"제주특별자치도 제주시 원노형남1길 17, 1층 (노형동)",33.4841256,126.4824956,정좌표
1663623,대학로,제주특별자치도 제주시 동광로1길 32 (이도일동),33.5032944,126.527915,정좌표
1663803,카페베네연동점,제주특별자치도 제주시 노연로 119 (연동),33.4859919,126.4930697,정좌표
1663825,스타벅스제주노형공원점,"제주특별자치도 제주시 연북로 12, 지1층 101호 (노형동)",33.4816856,126.4825392,정좌표
1664178,지에스25함덕교차로점,"제주특별자치도 제주시 조천읍 함덕로 2, 1층",33.5403933,126.6743031,정좌표
1664284,하비마카롱,"제주특별자치도 제주시 연삼로 449, 1층 (이도이동)",33.4967027,126.5523698,정좌표
1664336,참맛나,"제주특별자치도 제주시 한라대학로 31, 1층 (노형동)",33.4772209,126.476779,정좌표
1665040,마트가게,제주특별자치도 제주시 조천읍 조와로2길 90,33.5249784,126.6320751,정좌표
1665086,떼르떼,제주특별자치도 제주시 수덕로 81 (노형동),33.4836432,126.4697394,정좌표
1665096,일주서로휴게소,"제주특별자치도 제주시 일주서로 7705, 1층 (도두일동)",33.4941826,126.469752,정좌표
1665097,하우다,"제주특별자치도 제주시 조천읍 신북로 205, 1층",33.5353206,126.6350928,정좌표
1665159,GS25제주함덕점,제주특별자치도 제주시 조천읍 함덕13길 2,33.5414401,126.6678411,정좌표
1665285,토방속에장독대,제주특별자치도 제주시 신대로14길 33 (연동),33.4876465,126.4929356,정좌표
1665289,리치망고도두해안로점,"제주특별자치도 제주시 서해안로 191, 1층 (도두일동)",33.5110314,126.4802212,정좌표
1665467,씨유제주전농로점,"제주특별자치도 제주시 전농로 31, 1층 (삼도일동)",33.504597,126.5165641,정좌표
1666790,이삭토스트삼화점,"제주특별자치도 제주시 화삼북로 36, 1층 (화북일동)",33.5173799,126.5762952,정좌표
1666915,씨유제주신성점,제주특별자치도 제주시 일주서로 7850 (연동),33.4934657,126.4852917,정좌표
1666923,씨유연산홍점,제주특별자치도 제주시 승천로 8 (이도이동),33.4969115,126.538361,정좌표
1666933,지에스25노형중점,"제주특별자치도 제주시 노형5길 42, 1층 (노형동)",33.4771889,126.4742632,정좌표
1666962,파스쿠찌종합청사점,"제주특별자치도 제주시 청사로 44, 1층 (도남동)",33.4901337,126.5252781,정좌표
1666980,코코라떼,"제주특별자치도 제주시 고마로19길 12, 1층 (일도이동)",33.5049476,126.5427578,정좌표
1666981,버무리떡볶이함덕점,"제주특별자치도 제주시 조천읍 함와로 17, 1층",33.5145232,126.6777359,정좌표
1667023,씨유제주일주서로점,"제주특별자치도 제주시 일주서로 7312, 1층 (외도일동)",33.4924596,126.4284021,정좌표
1667103,지에스25한라체육관점,"제주특별자치도 제주시 서광로4길 10, 1층 (오라일동)",33.4991594,126.514057,정좌표
1667113,삐끄니끄,"제주특별자치도 제주시 비월길 7, 1층 101호 (연동)",33.4849529,126.4974183,정좌표
1667146,푸른감람나무,"제주특별자치도 제주시 중앙로 470, 지하1층 (아라일동)",33.4811852,126.5426318,정좌표
1667147,엔제리너스한라수목원점,"제주특별자치도 제주시 수목원길 65-6, 1층 (연동)",33.4715102,126.491526,정좌표
1667206,양군의케익한접시,"제주특별자치도 제주시 일주동로 340, 백양빌딩 1층 (삼양이동)",33.5209896,126.5838194,정좌표
1667213,던킨도너츠제주한마음병원,"제주특별자치도 제주시 연신로 52, 한마음병원 1층 (이도이동)",33.4962921,126.5462527,정좌표
1667223,스타벅스제주함덕점,"제주특별자치도 제주시 조천읍 조함해안로 522, 1~2층",33.5440366,126.6537771,정좌표
1670459,7번가피자아라점,"제주특별자치도 제주시 중앙로 553, 1층 (아라일동)",33.4814679,126.5411458,정좌표
1670470,드롭탑제주용담해안도로점,"제주특별자치도 제주시 서해안로 540, 1~2층 (용담삼동)",33.5110314,126.4802212,정좌표
1670526,요거프레소바오젠점,"제주특별자치도 제주시 연동9길 18, 1층 (연동)",33.4880926,126.4919616,정좌표
1670533,맘스터치외도점,"제주특별자치도 제주시 우령2길 40, 1층 (외도일동)",33.4856857,126.4314187,정좌표
1670568,온,"제주특별자치도 제주시 동문로6길 9, 1층 (일도일동)",33.5120969,126.5290198,정좌표
1670594,씨유제주과원점,제주특별자치도 제주시 과원로 28 (연동),33.4760842,126.4865249,정좌표
1670674,GS25제주이호점,제주특별자치도 제주시 일주서로 7519 (이호일동),33.4949938,126.4500041,정좌표
1670684,부러워커피,"제주특별자치도 제주시 동문로 17, 1층 1호 (일도일동)",33.513116,126.52874,정좌표
1670696,비쥬베베,"제주특별자치도 제주시 우정로 26, 4층 (외도일동)",33.4796408,126.4417784,정좌표
1670702,커피온다,"제주특별자치도 제주시 서광로 236, 1층 (삼도일동)",33.4995051,126.5216237,정좌표
1670703,앨리스,"제주특별자치도 제주시 서광로32길 36-1, 2층 (이도이동)",33.4975599,126.5296155,정좌표
1673592,낙낙커피,"제주특별자치도 제주시 동광로 9, 1층 (이도일동)",33.5036921,126.5322506,정좌표
1673596,에프터글로우,"제주특별자치도 제주시 간월동로 67-3, 1층 (아라이동)",33.4883032,126.5493246,정좌표
1673659,에이바우트커피칠성점,"제주특별자치도 제주시 관덕로11길 36, 1~3층 (건입동)",33.5162049,126.5257988,정좌표
1673811,씨힐,"제주특별자치도 제주시 해안마을10길 39, 2층 (해안동)",33.4502895,126.4532036,정좌표
1673928,봄봄,제주특별자치도 제주시 제주대학로 105-1 (아라이동),33.4603174,126.5612304,정좌표
1674200,도로록,"제주특별자치도 제주시 조천읍 신북로 494-2, 1층",33.542728,126.6629462,정좌표
1674268,제주설심당,"제주특별자치도 제주시 서해안로 504, 1층 (용담삼동)",33.5194453,126.493001,정좌표
1675140,커피파니,"제주특별자치도 제주시 우정로5길 26, 1층 (외도일동)",33.4888436,126.4297263,정좌표
1675142,노블레스호텔,"제주특별자치도 제주시 연동8길 31, 1층 (연동)",33.483011,126.4908156,정좌표
1675144,씨유제주오라점,"제주특별자치도 제주시 연사길 60, 103호 (오라이동)",33.4892836,126.5126289,정좌표
1675184,씨유제주노형길점,"제주특별자치도 제주시 노형5길 15, 1층 (노형동)",33.4771889,126.4742632,정좌표
1675192,이루다샐러드,"제주특별자치도 제주시 과원북2길 66, 1층 (연동)",33.4787094,126.4893206,정좌표
1675238,잔디가미,"제주특별자치도 제주시 우도면 우도해안길 912, 1층",33.5134109,126.9641504,정좌표
1675240,훼미리마트용원점,"제주특별자치도 제주시 용문로 125 (용담이동,(1층))",33.5060339,126.5084851,정좌표
1675246,투썸플레이스오라점,"제주특별자치도 제주시 연삼로 259, 1층 (오라일동)",33.4944914,126.5169161,정좌표
1675364,봉크랑동문시장점,"제주특별자치도 제주시 동문로4길 7-1, 1층 (일도일동)",33.5123688,126.5284577,정좌표
1675370,베스킨라빈스연동점,제주특별자치도 제주시 국기로 9 (연동),33.4808859,126.4900692,정좌표
1675478,문개항아리조천본점,제주특별자치도 제주시 조천읍 조함해안로 217-1,33.5534876,126.6440569,정좌표
1686024,코너,제주특별자치도 제주시 광양10길 12 (이도이동),33.4988325,126.5284227,정좌표
1686200,지에스25제주진군점,제주특별자치도 제주시 진군3길 16 (노형동),33.4777597,126.479265,정좌표
1686206,바세츠아이스크림제주연동점,제주특별자치도 제주시 원노형로 84 (노형동),33.4812802,126.4846324,정좌표
1686214,씨유도남오거리점,제주특별자치도 제주시 도남로 37 (도남동),33.4967907,126.5266359,정좌표
1686223,지에스25제주연중점,"제주특별자치도 제주시 연동13길 9, 1층 (연동)",33.4888428,126.494786,정좌표
1686276,제주노형뜨란채점빽다방,"제주특별자치도 제주시 수덕로 35, 1층 (노형동)",33.4865662,126.4734011,정좌표
1686299,알리바바디저트카페,"제주특별자치도 제주시 동광로9길 19, 1층 (이도일동)",33.5035966,126.5326705,정좌표
1686301,야미얌,"제주특별자치도 제주시 동광로 24, 1층 (이도이동)",33.5017037,126.5318322,정좌표
1686302,배터지는생동까스노형점,"제주특별자치도 제주시 남녕로 21, 1층 (노형동)",33.4897768,126.4817084,정좌표
1686311,한동,"제주특별자치도 제주시 진동로5길 31, 121호 (화북일동,화북종합시장)",33.5217894,126.5664447,정좌표
1686323,세난,"제주특별자치도 제주시 조천읍 중산간동로 883-31, 1층",33.5029546,126.6942576,정좌표
1686355,진명북카페,"제주특별자치도 제주시 조천읍 함덕30길 18, 1층",33.5380939,126.6771778,정좌표
1686361,더힐링족욕카페,"제주특별자치도 제주시 서해안로 652, 1층 (용담삼동)",33.5159378,126.5065814,정좌표
1686516,미호채김밥,"제주특별자치도 제주시 다랑곶4길 33, 102호 (노형동)",33.4890796,126.4790349,정좌표
1686520,리치망고신제주점,"제주특별자치도 제주시 국기로 14, 104호 (연동)",33.480516,126.488719,정좌표
1686577,파스쿠찌제주노형점,제주특별자치도 제주시 연북로 25 (노형동),33.4823151,126.4841044,정좌표
1686588,GS25제주삼화점,제주특별자치도 제주시 화삼북로2길 32 (화북일동),33.5161099,126.5749142,정좌표
1686598,지에스25제주사평점,제주특별자치도 제주시 사평4길 24-10 (오라이동),33.4432075,126.5176282,정좌표
1686608,CU오복점,제주특별자치도 제주시 오복3길 14 (이도이동),33.4973073,126.5350067,정좌표
1686618,진영,제주특별자치도 제주시 용화로 24 (용담이동),33.5097636,126.5061117,정좌표
1690586,이삭토스트제주중앙여고점,"제주특별자치도 제주시 남광로2길 32-1, 1층 (이도이동)",33.4902004,126.5408219,정좌표
1690720,제주섬마트휴게소,"제주특별자치도 제주시 번영로 606 (봉개동,(1층))",33.485245,126.6049096,정좌표
1690730,아이갓에브리씽,"제주특별자치도 제주시 문연로 6, 1층 (연동)",33.4888341,126.4980797,정좌표
1690737,세븐일레븐제주인화로점,"제주특별자치도 제주시 동광로21길 6, 1층 (일도이동)",33.5099397,126.5424588,정좌표
1690739,국제토산품스낵,"제주특별자치도 제주시 임항로 191, 1층 (건입동)",33.5227169,126.5434748,정좌표
1690749,지에스25첨단점,"제주특별자치도 제주시 첨단로 217, 1층 (영평동)",33.4564727,126.5714479,정좌표
1690759,지에스25제주동광점,"제주특별자치도 제주시 연신로 15, 1층 (일도이동)",33.4996035,126.5449393,정좌표
1690895,두루,제주특별자치도 제주시 정존5길 36 (노형동),33.4851728,126.472482,정좌표
1690961,팅이마카롱,"제주특별자치도 제주시 서광로19길 4-1, 1층 (삼도일동)",33.5004995,126.5208696,정좌표
1690968,맘스터치화북남문점,"제주특별자치도 제주시 일주동로 192, 1층 (화북일동)",33.5184665,126.5661528,정좌표
1691508,씨유이도에코빌점,"제주특별자치도 제주시 중앙로 274, 101호 (이도이동)",33.4898174,126.550979,정좌표
1691518,선물고팡,"제주특별자치도 제주시 월성로 15, 2층 (용담이동)",33.5029868,126.5049379,정좌표
1691726,제주중앙여고점빽다방,"제주특별자치도 제주시 남광로2길 43-13, 1층 (이도이동)",33.4893506,126.540243,정좌표
1691763,카페허그,"제주특별자치도 제주시 관덕로 16-1, 1층 (삼도이동)",33.5128193,126.5210883,정좌표
1691783,이디야에스프레소제주노형점,제주특별자치도 제주시 달마루길 10-1 (노형동),33.4892616,126.4748494,정좌표
1691793,씨유광평점,"제주특별자치도 제주시 광평동로 20, 1층 (노형동)",33.482115,126.470826,정좌표
1691803,설기,"제주특별자치도 제주시 충효길 44, 1층 (삼도일동)",33.5083702,126.519512,정좌표
1691805,등머울카페,"제주특별자치도 제주시 우도면 안비양길 35, 1층",33.514771,126.9678746,정좌표
1691822,지에스25크라운점,"제주특별자치도 제주시 삼무로3길 26, 1층 (연동)",33.4904845,126.4932232,정좌표
1691832,세븐일레븐제주아라점,"제주특별자치도 제주시 인다2길 66, 1층 (아라일동)",33.4719786,126.5501884,정좌표
1691842,씨유뉴메르헨점,"제주특별자치도 제주시 연북로 41, 133호 (노형동)",33.4823102,126.4859142,정좌표
1691922,투썸플레이스한라대점,"제주특별자치도 제주시 한라대학로 17, 1~2층 (노형동)",33.4797388,126.4739243,정좌표
1691966,에이바우트커피,"제주특별자치도 제주시 한라대학로 39, 1~2층 (노형동)",33.4772209,126.476779,정좌표
1692092,샤론앤이든,"제주특별자치도 제주시 서해안로 210, 1층 (도두일동)",33.5110314,126.4802212,정좌표
1692104,씨유제주아라초교점,"제주특별자치도 제주시 중앙로 530, 1층 (아라일동)",33.4814679,126.5411458,정좌표
1692112,윤다방,"제주특별자치도 제주시 중앙로 114, 2층 (삼도이동)",33.5165519,126.5240428,정좌표
1692113,갤러리피씨,"제주특별자치도 제주시 중앙로 322, 2층 (이도이동)",33.5039954,126.5396044,정좌표
1692115,지에스25건입현대점,"제주특별자치도 제주시 만덕로3길 19, 102호 (건입동)",33.5160093,126.5332395,정좌표
1692118,까사델마레,"제주특별자치도 제주시 조천읍 함와로 566-27, 115동",33.5145232,126.6777359,정좌표
1692178,바라나시책골목,"제주특별자치도 제주시 동한두기길 35-2, 1층 (용담일동)",33.5162969,126.5153031,정좌표
1692185,씨유제주노형행운점,"제주특별자치도 제주시 수덕7길 14, 102호 (노형동)",33.4868259,126.4756765,정좌표
1692195,킴스케이크,"제주특별자치도 제주시 방일4길 45-2, 1층 (노형동)",33.4745328,126.471409,정좌표
1692196,다가미아라점,"제주특별자치도 제주시 중앙로 530, 1층 (아라일동)",33.4814679,126.5411458,정좌표
1692265,루바토,"제주특별자치도 제주시 구남동2길 25-12, 1층 (이도이동)",33.4884262,126.5359374,정좌표
1692268,난타오천피자외도점,"제주특별자치도 제주시 우정로11길 14 (외도일동,(1층))",33.4876624,126.4324526,정좌표
1692270,고봉민김밥인화북점,"제주특별자치도 제주시 화삼로 21, 1층 (화북일동)",33.5144325,126.5755025,정좌표
1692295,써브웨이제주시청점,"제주특별자치도 제주시 중앙로 252, 1~2층 (이도이동)",33.4980476,126.5517297,정좌표
1692455,GS25제주칠성로점,"제주특별자치도 제주시 관덕로15길 15, 1층 (일도일동)",33.5146078,126.5265933,정좌표
1692465,하이안나,"제주특별자치도 제주시 조천읍 중산간동로 896-1, 1층",33.5114419,126.7051952,정좌표
1692481,다다,"제주특별자치도 제주시 신설로6길 2-3, 1층 (아라이동)",33.4938082,126.5429455,정좌표
1692501,마농떡볶이,제주특별자치도 제주시 연화로 49 (연동),33.4772987,126.4874957,정좌표
1692511,하나맘김밥,"제주특별자치도 제주시 귀아랑2길 14, 1층 (연동)",33.491174,126.498927,정좌표
1692591,떡꼬치전문점,"제주특별자치도 제주시 진남로6길 8, 1층 (화북일동)",33.5196194,126.5659023,정좌표
1692596,낭,제주특별자치도 제주시 삼무로 40 (연동),33.4896572,126.4910296,정좌표
1692692,토브,"제주특별자치도 제주시 조천읍 신촌10길 20-5, 1층",33.5336918,126.6261718,정좌표
1692712,7번가피자제주이도점,"제주특별자치도 제주시 남광북3길 50, 1층 (이도이동)",33.4954117,126.537451,정좌표
1692722,지에스25인제점,"제주특별자치도 제주시 고마로 67, 1층 (일도이동)",33.5083466,126.5402416,정좌표
1692732,씨유제주영평점,제주특별자치도 제주시 연신로 264 (영평동),33.4816594,126.5606022,정좌표
1692742,블리스찬,"제주특별자치도 제주시 아연로 112, 1층 (오라이동)",33.4747642,126.512388,정좌표
1692752,카페아꼬떼,제주특별자치도 제주시 조천읍 선교로 548,33.4727191,126.7061921,정좌표
1692754,미래네분식,제주특별자치도 제주시 수덕3길 33 (노형동),33.4846047,126.4753324,정좌표
1692770,까페띠아모중앙점,제주특별자치도 제주시 중앙로14길 5 (이도일동),33.5112544,126.5238228,정좌표
1692780,우도하영,"제주특별자치도 제주시 우도면 우도해안길 516, 1층",33.520099,126.9481111,정좌표
1692790,삼양돈까스,"제주특별자치도 제주시 선사로6길 10, 1층 (삼양일동)",33.5263587,126.58953,정좌표
1692792,스카이리더스호텔,제주특별자치도 제주시 신광로 106 (연동),33.4826164,126.4896573,정좌표
1692802,빠빠라기,제주특별자치도 제주시 중앙로 218 (이도이동),33.4966782,126.5458071,정좌표
1692892,델리,제주특별자치도 제주시 중앙로 151 (이도일동),33.5030704,126.5285942,정좌표
1692932,씨유제주신하와이점,"제주특별자치도 제주시 도령로 40, 101호 (노형동,하와이오피스텔)",33.4879587,126.4835365,정좌표
1692942,지에스25제주천수점,"제주특별자치도 제주시 동광로 154, 1층 (일도이동)",33.5089068,126.542714,정좌표
1692952,메종드카페,"제주특별자치도 제주시 서광로 242, 1층 (삼도일동)",33.4995325,126.5222646,정좌표
1693032,한량,"제주특별자치도 제주시 노형4길 6, 101호 (노형동)",33.4846837,126.4824402,정좌표
1693036,배스킨라빈스제주삼화점,"제주특별자치도 제주시 건주로 43, 1층 (도련일동)",33.5166785,126.5790859,정좌표
1693046,탐앤탐스신제주점,제주특별자치도 제주시 신광로 52 (연동),33.4874051,126.4896979,정좌표
1693056,씨유제주남성점,제주특별자치도 제주시 남성로 47-1 (용담일동),33.5045811,126.5126008,정좌표
1693066,명동왕만두,제주특별자치도 제주시 조천읍 신북로 209,33.535406,126.6354812,정좌표
1693086,땡초김밥싱싱왕만두본점,"제주특별자치도 제주시 중앙로 564-1, 1층 (아라일동)",33.4731472,126.545429,정좌표
1693096,미스터피자신제주점,제주특별자치도 제주시 신광로 101 (연동),33.483041,126.4901696,정좌표
1693119,씨유제주여상점,제주특별자치도 제주시 동문로 95 (건입동),33.5140674,126.5369069,정좌표
1693128,감성커피삼화점,"제주특별자치도 제주시 지석13길 2-2, 1층 (삼양이동)",33.5215617,126.58569,정좌표
1693138,못난이찹쌀꽈배기제주노형점,"제주특별자치도 제주시 진군1길 7, 103호 (노형동, 으뜸마을상가동)",33.478918,126.480314,정좌표
1693148,2003신덴뿌라떡볶이,"제주특별자치도 제주시 은남3길 42, 103호 (연동)",33.4874976,126.4914426,정좌표
1693155,씨유제주정실점,"제주특별자치도 제주시 아연로 171, 1층 (오라이동)",33.4710292,126.5092983,정좌표
1693165,서희원꼬지닷컴한라점,제주특별자치도 제주시 연화로 35 (연동),33.4784871,126.4875019,정좌표
1693177,한국맥도날드제주노형점,"제주특별자치도 제주시 노연로 7, 1~3층 (노형동)",33.4863212,126.4809779,정좌표
1693187,씨유제주이호행운점,제주특별자치도 제주시 일주서로 7525 (이호일동),33.4951423,126.4504911,정좌표
1693197,랩툰,"제주특별자치도 제주시 중앙로 222, 6층 (이도이동)",33.4970481,126.5518335,정좌표
1693200,씨유제주중앙점,"제주특별자치도 제주시 남광로2길 11-2, 1층 (이도이동)",33.4918077,126.5383575,정좌표
1693210,씨유제주화북점,제주특별자치도 제주시 화남로 66 (화북이동),33.5122146,126.5633963,정좌표
1693220,이디야커피연동점,제주특별자치도 제주시 신광로 27 (연동),33.489688,126.4903727,정좌표
1693230,씨유제주신삼양점,제주특별자치도 제주시 일주동로 379 (삼양이동),33.5213302,126.5856737,정좌표
1693235,티움,"제주특별자치도 제주시 동광로3길 2, 1층 (이도일동)",33.5019582,126.530939,정좌표
1693239,동감,"제주특별자치도 제주시 진군길 38, 1층 (노형동)",33.4786092,126.4808317,정좌표
1693247,별밥,제주특별자치도 제주시 노형1길 18 (노형동),33.4199606,126.4919204,정좌표
1693256,잼잼팩토리,"제주특별자치도 제주시 조천읍 함와로 566-27, 119동 1층",33.5145232,126.6777359,정좌표
1693276,바람의향기가전해주는하루는,"제주특별자치도 제주시 동문로8길 11-5, 1층 (일도일동)",33.512079,126.5307745,정좌표
1693286,카페라,"제주특별자치도 제주시 신성로13길 3, 1층 (이도이동)",33.4997113,126.5291056,정좌표
1693290,난타오천법원점,제주특별자치도 제주시 남광로 8 (이도이동),33.4922407,126.5372311,정좌표
1693293,봄봄일도점,"제주특별자치도 제주시 고마로 123, 1층 (일도이동)",33.5037076,126.5422717,정좌표
1693303,커피동굴,"제주특별자치도 제주시 사라봉길 5, 지하1층 (건입동)",33.5146043,126.5392335,정좌표
1693304,에이바우트커피시청점,"제주특별자치도 제주시 광양13길 1, 지하1~3층 (이도이동)",33.4987626,126.5309037,정좌표
1693314,벌툰제주시청점,"제주특별자치도 제주시 중앙로 230-1, 4층 (이도이동)",33.496228,126.5513995,정좌표
1693324,다온,제주특별자치도 제주시 도남로 40 (도남동),33.4965561,126.5263924,정좌표
1693408,낭만핫도그제주일도점,"제주특별자치도 제주시 천수로9길 1, 102호 (일도이동)",33.5027478,126.5381725,정좌표
1693414,커피주의보,"제주특별자치도 제주시 남광로 16, 1층 (이도이동)",33.4979375,126.5462372,정좌표
1693424,제원분식,제주특별자치도 제주시 신광로6길 2 (연동),33.4880428,126.4896524,정좌표
1693434,커피템플,"제주특별자치도 제주시 영평길 269, 1층 (월평동)",33.478135,126.57017,정좌표
1693444,카페비아,"제주특별자치도 제주시 벌랑6길 20-1, 1층 (삼양삼동)",33.5252043,126.5786962,정좌표
1693448,땡초김밥싱싱왕만두이도점,"제주특별자치도 제주시 중앙로 298, 1층 (이도이동)",33.4967027,126.5523698,정좌표
1693458,동천마트,제주특별자치도 제주시 동문로 10 (일도일동),33.5127762,126.5278363,정좌표
1693468,세븐일레븐삼양중앙점,"제주특별자치도 제주시 설촌로 16-1, 1층 (삼양이동)",33.5227647,126.5816974,정좌표
1693475,코시롱,"제주특별자치도 제주시 노형1길 12-2, 1층 (노형동)",33.4889495,126.4846021,정좌표
1693555,청춘테이블,제주특별자치도 제주시 동문로 89 (건입동),33.513963,126.5361564,정좌표
1693556,지에스25조천다온점,"제주특별자치도 제주시 조천읍 신북로 99, 1층",33.5386704,126.6458435,정좌표
1693576,봉개마트,제주특별자치도 제주시 번영로 532 (봉개동),33.488394,126.5976166,정좌표
1693586,용꽈배기,"제주특별자치도 제주시 서광로30길 3, 1층 (이도이동)",33.4999102,126.5270264,정좌표
1693596,안자바,"제주특별자치도 제주시 인다3길 26, 1층 (아라일동)",33.4760657,126.5492812,정좌표
1693597,지에스25노형서광점,"제주특별자치도 제주시 진군1길 4, 1층 (노형동)",33.4790886,126.4815485,정좌표
1693607,씨유제주삼봉로점,"제주특별자치도 제주시 삼봉로2길 64, 1층 (삼양이동)",33.5196781,126.5835776,정좌표
1693617,씨유외도우정점,"제주특별자치도 제주시 우정로 37, 103호 (외도일동)",33.4893522,126.4312633,정좌표
1693627,커피바리,"제주특별자치도 제주시 조천읍 남조로 1794-3, 1층",33.4845921,126.6554822,정좌표
1693637,멜로우베이킹,"제주특별자치도 제주시 조천읍 중산간동로 691, 1~2층",33.4987502,126.6592525,정좌표
1693655,드롭탑제주삼성점,"제주특별자치도 제주시 광양1길 2, 1~2층 (이도일동)",33.5040303,126.5275539,정좌표
1693684,맘스터치터미널점,"제주특별자치도 제주시 서광로 167, 아리랑빌딩 1층 103호 (용담일동)",33.5003421,126.5144941,정좌표
1693714,씨유제주아연로점,"제주특별자치도 제주시 아연로 114, 1층 (오라이동)",33.4732807,126.5037819,정좌표
1693724,세븐일레븐월랑센터점,"제주특별자치도 제주시 다랑곶4길 26, 1층 (노형동)",33.488813,126.4797938,정좌표
1693734,에그드랍제주노형점,"제주특별자치도 제주시 원노형로 82, 1층 (노형동)",33.4814091,126.4846248,정좌표
1693809,봄봄칠성점,"제주특별자치도 제주시 관덕로11길 18, 1층 (일도일동)",33.5147229,126.5257368,정좌표
1693819,지에스25제주대학로점,"제주특별자치도 제주시 광양14길 4, 1층 (이도이동)",33.4983841,126.5301568,정좌표
1693995,아라스마일찰진꽈배기,"제주특별자치도 제주시 중앙로 523, 1층 (아라일동)",33.4765216,126.5448799,정좌표
1694001,핀아플라워,"제주특별자치도 제주시 수덕9길 86, 1층 (노형동)",33.4829531,126.470212,정좌표
1694002,노리파크화북삼양점,"제주특별자치도 제주시 일주동로 224, 3층 (화북일동)",33.5186592,126.5695617,정좌표
1694007,듀쎄흐,"제주특별자치도 제주시 용화로 54, 1층 (용담이동)",33.509348,126.5092529,정좌표
1694019,화실커피,"제주특별자치도 제주시 조천읍 신흥로 1, 2층",33.5437853,126.6529436,정좌표
1694059,타임당,"제주특별자치도 제주시 구산로 45, 1층 (아라일동)",33.4842422,126.5398521,정좌표
1694061,씨유제주한국병원점,"제주특별자치도 제주시 서광로 189, 1층 (삼도일동)",33.5002234,126.5167065,정좌표
1694117,온정떡방,"제주특별자치도 제주시 중앙로11길 1, 2층 201호 (이도일동)",33.5125758,126.5252426,정좌표
1694119,스타벅스제주도남DT점,"제주특별자치도 제주시 연북로 394, 1~2층 (도남동)",33.4876744,126.5244076,정좌표
1694616,지에스25외도부영점,"제주특별자치도 제주시 우정로7길 30, 1층 (외도일동)",33.4891039,126.4341578,정좌표
1694623,세븐일레븐제주무근성길점,"제주특별자치도 제주시 무근성길 26, 1층 102호 (삼도이동, 덕우빌라)",33.5159169,126.5192608,정좌표
1694625,씨유아라스위첸점,"제주특별자치도 제주시 아란9길 22, 105호 (아라일동, 제주아라 KCC스위첸)",33.4723479,126.5436636,정좌표
1694637,델마커피숍,"제주특별자치도 제주시 연대마을길 16-8, 1~2층 (외도이동)",33.4935626,126.4277893,정좌표
1694671,씨유제주함덕사거리점,"제주특별자치도 제주시 조천읍 함와로 23, 1층",33.5145232,126.6777359,정좌표
1694721,세븐일레븐제주정든로점,"제주특별자치도 제주시 정든로6길 11, 1층 (이도이동)",33.4984351,126.5432597,정좌표
1694726,세븐일레븐노형에코점,"제주특별자치도 제주시 원노형6길 28, 1층 (노형동)",33.4836503,126.4827094,정좌표
1694734,오피스제주,제주특별자치도 제주시 조천읍 조천2길 25,33.5328984,126.6311401,정좌표
1694736,씨유제주삼화부영8차점,"제주특별자치도 제주시 화삼로 89, 상가동 1층 101호 (도련일동, 제주삼화사랑으로부영8차)",33.5152147,126.5821821,정좌표
1694816,무거버거,"제주특별자치도 제주시 조천읍 조함해안로 356, 1~2층",33.5490079,126.6551297,정좌표
1702896,씨유제주북촌점,"제주특별자치도 제주시 조천읍 북촌14길 1-7, 1층",33.5441316,126.7005017,정좌표
1702916,윌리코키,"제주특별자치도 제주시 일주동로 233, 4층 (화북일동)",33.5197394,126.5701983,정좌표
1702926,에이바우트커피신제주점,"제주특별자치도 제주시 연북로 12, 이레하이텔 1층 102호, 103호, 104호 (노형동)",33.4816856,126.4825392,정좌표
1702936,프렌즈스터디룸,"제주특별자치도 제주시 연북로 21, 2층 202호 (노형동)",33.4858923,126.518754,정좌표
1702938,더치앤빈제주시청점,"제주특별자치도 제주시 서광로 292, 1층 (이도이동)",33.5001971,126.5276468,정좌표
1702948,에이바우트커피스위첸점,"제주특별자치도 제주시 중앙로 566, 1~2층 (아라일동)",33.4814679,126.5411458,정좌표
1702958,씨유삼화주공점,"제주특별자치도 제주시 화삼북로2길 12, 1층 (화북일동, 삼화휴먼시아1단지)",33.5161791,126.5748885,정좌표
1702968,세븐일레븐제주동서타워점,"제주특별자치도 제주시 연동1길 3, 1층 101호 (연동, 동서연동타워)",33.489454,126.4867608,정좌표
1702978,와플대학제주시청캠퍼스,"제주특별자치도 제주시 광양8길 1-8, 1층 (이도이동)",33.4994981,126.5295268,정좌표
1702988,씨유제주도련사거리점,"제주특별자치도 제주시 연삼로 978, 1층 (도련이동)",33.5107139,126.6051651,정좌표
1702998,지에스25연동신라점,"제주특별자치도 제주시 노연로 61, 다울하우스 1층 105호 (연동)",33.4861535,126.4868418,정좌표
1703008,씨유제주월랑초교점,"제주특별자치도 제주시 남녕로 66, 1층 (노형동)",33.4907525,126.4806413,정좌표
1703010,세븐일레븐제주삼화부영2차점,"제주특별자치도 제주시 화삼로 12, 상가동 1층 101호 (화북이동, 삼화사랑으로부영2차아파트)",33.5139216,126.5809689,정좌표
1703020,씨유제주황사평,"제주특별자치도 제주시 황사평6길 58, 113동 1층 101호 (화북이동, 황사평갤럭시타운)",33.494578,126.563586,정좌표
1703029,씨유제주유블레스호텔점,"제주특별자치도 제주시 조천읍 조함해안로 502, 유탑유블레스호텔 1층",33.5423291,126.6661651,정좌표
1703049,드롭탑누웨모루점,"제주특별자치도 제주시 연동7길 24, 2층 (연동)",33.475739,126.4960852,정좌표
1703059,만랩커피제주아라점,"제주특별자치도 제주시 인다10길 37, 1층 (아라일동)",33.474777,126.5472968,정좌표
1703069,스타벅스제주외도DT점,"제주특별자치도 제주시 일주서로 7300, 1~2층 (외도일동)",33.4821763,126.4414468,정좌표
1703079,에이바우트커피노형점,"제주특별자치도 제주시 월랑로10길 1, 1층 (노형동)",33.4893282,126.4763794,정좌표
1703089,팔공티노형점,"제주특별자치도 제주시 연화로 33, 1층 (연동)",33.4787252,126.4875107,정좌표
1703099,세븐일레븐제주화북중앙점,"제주특별자치도 제주시 진남로6길 21, 1층 (화북일동)",33.5206127,126.565647,정좌표
1703109,에이바우트커피구남점,"제주특별자치도 제주시 도남로 199, 1층 (아라일동)",33.4949334,126.5273705,정좌표
1703119,스타벅스제주삼화DT점,"제주특별자치도 제주시 연삼로 884, 1~2층 (도련일동)",33.5042129,126.5872568,정좌표
1703129,아꼬앙,"제주특별자치도 제주시 중앙로11길 1, 2층 206호 (이도일동)",33.5125758,126.5252426,정좌표
1703137,꿀스커피제주아라점,"제주특별자치도 제주시 간월동로 14, 1층 (아라이동)",33.4854845,126.5441361,정좌표
1703147,신촌밥상,"제주특별자치도 제주시 조천읍 신촌3길 19, 1층",33.5347646,126.6184535,정좌표
1703307,달당,"제주특별자치도 제주시 고마로 16, 1층 근106호 (일도이동)",33.5124313,126.5379161,정좌표
1703317,오동다방,"제주특별자치도 제주시 광양8길 2, 1층 (이도이동)",33.5001659,126.5291184,정좌표
1703322,콩순이키즈카페,"제주특별자치도 제주시 연사2길 82, 에이동 1층 (오라이동)",33.4859234,126.5131279,정좌표
1703332,아꼽지리젠트마린호텔점,"제주특별자치도 제주시 서부두2길 20, 호텔리젠트마린더블루 103동 1층 (건입동)",33.5176293,126.5267886,정좌표
1703342,씨유제주아라중점,"제주특별자치도 제주시 간월동로 33, 1층 (아라이동)",33.4869029,126.54585,정좌표
1703352,써니의부엌,제주특별자치도 제주시 오등봉동길 24-1 (오등동),33.4770582,126.5270676,정좌표
1703362,펠롱,"제주특별자치도 제주시 신성로10길 9, 1층 (이도이동)",33.4959468,126.5301302,정좌표
1703363,씨유제주성안점,"제주특별자치도 제주시 서사로 59, 1층 (삼도이동)",33.5070914,126.5202323,인근좌표
1703443,씨유제주정든점,"제주특별자치도 제주시 월랑로 47, 주립빌딩 1층 (노형동)",33.4894697,126.4751223,정좌표
1703459,씨유제주부영7차점,"제주특별자치도 제주시 화삼북로 90, 상가동 1층 101호 (도련일동, 제주삼화사랑으로부영7차)",33.5139216,126.5809689,정좌표
1703469,더한섬하우스제주점,"제주특별자치도 제주시 연북로 257, 1층 (오라이동)",33.4816199,126.5088394,정좌표
1703484,세븐일레븐제주화북남문점,"제주특별자치도 제주시 일주동로 181, 1층 (화북일동)",33.5190101,126.564906,정좌표
1703494,그럼외도,"제주특별자치도 제주시 월대3길 16, 2동 1층 (외도이동)",33.4942916,126.43403,정좌표
1703693,씨유제주아라아이파크점,"제주특별자치도 제주시 인다1길 20, 상가동 1층 105호 (아라일동, 아라아이파크)",33.4751177,126.5503298,정좌표
1703725,씨유제주칠성로점,"제주특별자치도 제주시 관덕로11길 8-3, 1층 (일도일동)",33.5139657,126.525741,정좌표
1703747,카페나모나모,"제주특별자치도 제주시 도두봉6길 4, 1~4층 (도두일동)",33.5082095,126.4723209,정좌표
1704618,지에스25제주월랑점,"제주특별자치도 제주시 월랑로 93, 1층 (도두일동)",33.4906012,126.4743753,정좌표
1704628,지에스25한화리조트제주점,"제주특별자치도 제주시 명림로 575-107, 한화리조트 1층 105호 (회천동)",33.4489935,126.637412,정좌표
1704638,에그드랍신제주연동점,"제주특별자치도 제주시 신대로14길 52, 1층 (연동)",33.4880128,126.4910387,정좌표
1704701,왕가탕후루,"제주특별자치도 제주시 중앙로 240, 1층 (이도이동)",33.4967027,126.5523698,정좌표
1704712,씨유제주연동아랑점,"제주특별자치도 제주시 신대로18길 16, 1층 105호 (연동, 삼다연동맨션)",33.4847657,126.4947672,정좌표
1704720,누베커피,"제주특별자치도 제주시 인다14길 15, 1층 101호 (아라일동)",33.4714067,126.5468857,정좌표
1704758,대니스,"제주특별자치도 제주시 우도면 우도해안길 1128, 디동 1~2층",33.497816,126.967993,정좌표
1704836,픽스커피공단점,"제주특별자치도 제주시 청풍남8길 55, 1층 (화북이동)",33.51464,126.5721,정좌표
1704893,씨유제주일주동로점,"제주특별자치도 제주시 일주동로 243, 1층 (화북일동)",33.5200733,126.5711637,정좌표
1704899,씨유화북진동점,"제주특별자치도 제주시 진동로 7, 1층 (화북일동)",33.5197476,126.5685653,정좌표
1704904,해뜨는집,"제주특별자치도 제주시 연삼로 525 (일도이동,(연삼로569))",33.509057,126.5373988,정좌표
1704922,불타는여고24시떡볶이도남점,"제주특별자치도 제주시 신성로 19, 1층 (도남동)",33.4963202,126.5216574,정좌표
1704945,젬마쇼콜라,"제주특별자치도 제주시 삼무로11길 9, 1층 109호 (연동)",33.4902049,126.4880364,정좌표
1704974,버드아일랜드,"제주특별자치도 제주시 노형로 82, 1층 (해안동)",33.4752619,126.4659069,정좌표
1705003,플레이리스트,"제주특별자치도 제주시 구남동1길 46, 1층 (아라이동)",33.4916487,126.5389939,정좌표
1705027,씨유동부휴게소점,"제주특별자치도 제주시 조천읍 번영로 1619, 1층",33.4574092,126.7037176,정좌표
1705047,스케치,"제주특별자치도 제주시 남광로4길 15, 1층 (이도이동)",33.4913271,126.5403461,정좌표
1705051,망원동티라미수제주삼화점,"제주특별자치도 제주시 건주로6길 62, 백송빌딩 1층 (도련일동)",33.514435,126.5796409,정좌표
1705064,오멘,"제주특별자치도 제주시 아란5길 13, 1층 101호 (아라일동)",33.5540964,126.7958924,정좌표
1705124,세븐일레븐제주노형제일점,"제주특별자치도 제주시 진군3길 27, 에코반주택 1층 (노형동)",33.4775487,126.4780143,정좌표
1705134,씨유제주도련블루힐점,"제주특별자치도 제주시 삼봉로 167, 1층 (도련일동)",33.5063662,126.5912556,정좌표
1705144,빽다방베이커리제주사수본점,"제주특별자치도 제주시 서해안로 291-5, 1~2층 (도두이동)",33.5055899,126.4897243,정좌표
1706876,씨유제주복지로점,"제주특별자치도 제주시 복지로북길 37, 1층 (도남동)",33.4887375,126.5219401,정좌표
1706881,씨유제주용화점,"제주특별자치도 제주시 용화로 37-2, 1층 (용담이동)",33.5099394,126.5078307,정좌표
1706961,타이거커피제주점,"제주특별자치도 제주시 노형9길 1, 1층 (노형동)",33.4876143,126.4852812,정좌표
1706992,쌍화153,"제주특별자치도 제주시 아연로 301, 1층 (오등동)",33.4670272,126.5200562,정좌표
1707027,곤을커피,"제주특별자치도 제주시 곤을서길 7, 2층 (화북일동)",33.5224083,126.5592217,정좌표
1707055,카페아이니,"제주특별자치도 제주시 우도면 우도해안길 778, 나동 1층",33.5164442,126.9577205,정좌표
1707120,카페봄봄봉개점,"제주특별자치도 제주시 번영로 524, 1층 (봉개동)",33.4887859,126.5971164,정좌표
1707130,오마뎅제주연동점,"제주특별자치도 제주시 연화로 41, 1층 101호 (연동)",33.4780047,126.4874996,정좌표
1707140,씨유제주인화중앙점,"제주특별자치도 제주시 동광로15길 8, 1층 (일도이동)",33.5062255,126.5376599,정좌표
1707150,오다윤카페,"제주특별자치도 제주시 연오로 35, 3층 (오라삼동)",33.4900691,126.5021939,정좌표
1707166,메가엠지씨커피제주대점,"제주특별자치도 제주시 제주대학로 107, 1층 (아라이동)",33.4603265,126.5615486,정좌표
1707242,제라한속풀이,"제주특별자치도 제주시 은남3길 42, 103호 (연동, 삼성원룸)",33.4874976,126.4914426,정좌표
1707243,세븐일레븐제주이동중앙점,"제주특별자치도 제주시 구남로7길 36, 1층 109,110호 (이도이동, 주공1아파트)",33.4924001,126.5337884,정좌표
1707253,씨유제주아라방선문점,"제주특별자치도 제주시 아연로 531, 1층 (아라일동)",33.4777007,126.5360598,정좌표
1707263,유쥬얼커피,"제주특별자치도 제주시 도남로13길 11, 1층 (도남동)",33.4931873,126.529542,정좌표
1707278,국민떡볶이,"제주특별자치도 제주시 신대로 134, 1층 (연동)",33.4853771,126.4961887,정좌표
1707288,세븐일레븐전농로점,"제주특별자치도 제주시 전농로 79, 1층 (삼도이동)",33.5045698,126.5217549,정좌표
1707368,못난이꽈배기제주이도점,"제주특별자치도 제주시 구남동1길 32, 1층 (이도이동)",33.4916487,126.5389939,정좌표
1707386,옴팡휴게점,"제주특별자치도 제주시 한북로 132, 제2동 1층 (오등동)",33.4599739,126.5376801,정좌표
1707387,쿠키상점,"제주특별자치도 제주시 동고산로 1, 1층 (이도이동)",33.4980185,126.5314855,정좌표
1707452,포빈즈,"제주특별자치도 제주시 조천읍 중산간동로 668, 1층",33.5029546,126.6942576,정좌표
1707500,루나힐카페,"제주특별자치도 제주시 조천읍 선교로 159-27, 나동 1~2층",33.4727191,126.7061921,정좌표
1707514,망원동티라미수,"제주특별자치도 제주시 노형9길 6, 1층 (노형동)",33.4876143,126.4852812,정좌표
1707596,에이바우트커피중앙여고점,"제주특별자치도 제주시 중앙로 343, 1층 (이도이동)",33.4967027,126.5523698,정좌표
1707696,크라우드피씨드림타워점,"제주특별자치도 제주시 원노형4길 1, 2층 (노형동)",33.483098,126.4772312,정좌표
1707701,씨유제주새길1호점,"제주특별자치도 제주시 수덕9길 65, 1층 (노형동)",33.4840262,126.4719889,정좌표
1707710,세븐일레븐제주연동센터점,"제주특별자치도 제주시 신광로 103, 신제주오피스텔 1층 107호 (연동)",33.4828457,126.490202,정좌표
1707720,씨유제주서사라점,"제주특별자치도 제주시 서사로18길 2, 1층 (삼도일동)",33.502086,126.5194156,정좌표
1707800,데일리커피앤디저트,"제주특별자치도 제주시 수목원길 25, 지하1층 (연동)",33.4696112,126.4875002,정좌표
1707822,지에스25도련중앙점,제주특별자치도 제주시 삼봉로 120 (도련일동),33.5106947,126.5890569,정좌표
1707832,세븐일레븐제주와산리점,"제주특별자치도 제주시 조천읍 함와로 562, 1층",33.5145232,126.6777359,정좌표
1707852,씨유이호해변길점,"제주특별자치도 제주시 서해안로 72, 1층 (이호일동)",33.4965806,126.4621677,정좌표
1707932,씨유제주삼양원당점,"제주특별자치도 제주시 원당로 39, 1층 (삼양일동)",33.5246281,126.5902828,정좌표
1707939,씨유제주이도점,"제주특별자치도 제주시 서광로 283, 1층 (이도일동)",33.5005315,126.5268814,정좌표
1707948,카페효주,"제주특별자치도 제주시 관덕로 8, 1층 (삼도이동)",33.5127375,126.5202782,정좌표
1707988,씨유제주오등동점,"제주특별자치도 제주시 아연로 429, 1층 (오등동)",33.4747642,126.512388,정좌표
1707998,씨유제주에코아바점,"제주특별자치도 제주시 원노형3길 40, 1층 103호 (노형동)",33.4867828,126.482006,정좌표
1708008,턴어라운드,"제주특별자치도 제주시 연화로2길 17, 1층 (연동)",33.477517,126.4890519,정좌표
1708014,아체레타커피로스팅하우스,"제주특별자치도 제주시 조천읍 함조길 129-98, 1~2층",33.5287941,126.6550449,정좌표
1708122,작은부엌,제주특별자치도 제주시 국기로3길 14 (연동),33.4792148,126.4915829,정좌표
1708437,에이바우트커피연북로점,"제주특별자치도 제주시 연북로 161, 1층 (연동)",33.4821031,126.4987553,정좌표
1708513,그날의조각,"제주특별자치도 제주시 노형1길 39, 1층 (노형동)",33.4771889,126.4742632,정좌표
1708536,에이바우트커피화북남문점,"제주특별자치도 제주시 진서로 1, 1층 (화북일동)",33.5192708,126.5625393,정좌표
1708626,하늘이네,"제주특별자치도 제주시 동문로4길 18, 1층 (일도일동)",33.5122409,126.5273998,정좌표
1708636,씨유제주동광양점,"제주특별자치도 제주시 동광로 24, 1층 (이도이동)",33.5017037,126.5318322,정좌표
1708646,지에스25제주동여중점,"제주특별자치도 제주시 천수로 23, 1층 (이도이동)",33.5028349,126.5396702,정좌표
1708652,세븐일레븐제주소봉힐타워점,"제주특별자치도 제주시 연북로 257, 지하2층 (오라이동)",33.4816199,126.5088394,정좌표
1708654,에이바우트커피봉개점,"제주특별자치도 제주시 번영로 510, 1층 (봉개동)",33.4910451,126.5970139,정좌표
1708716,프레젠트,"제주특별자치도 제주시 서광로20길 18, 1층 (삼도일동)",33.4982414,126.5218012,정좌표
1708721,제주엔봄,"제주특별자치도 제주시 정실동1길 5, 1층 (오라이동)",33.4660678,126.5147693,정좌표
1708729,노마와사비,"제주특별자치도 제주시 고마로 146, 영구빌딩 1층 (이도이동)",33.5016347,126.5430178,정좌표
1708745,제주앨리스연동점,"제주특별자치도 제주시 국기중길 10, 1층 (연동)",33.4801328,126.4910818,정좌표
1708897,카페누보,"제주특별자치도 제주시 조천읍 남조로 2023, 교래자연휴양림 1층",33.4417685,126.6666615,정좌표
1708937,테스그릭,"제주특별자치도 제주시 노형1길 12-13, 1층 (노형동)",33.4889495,126.4846021,정좌표
1709224,에이바우트커피삼무공원점,"제주특별자치도 제주시 신광로 20, 1층 (연동)",33.4903817,126.4899625,정좌표
1709333,씨유제주아란마을점,"제주특별자치도 제주시 아란15길 26, 1층 (아라일동)",33.4713443,126.5425518,정좌표
1709413,씨유이호테우해변점,"제주특별자치도 제주시 테우해안로 172, 1층 (이호일동)",33.4968798,126.4520215,정좌표
1710109,그루,"제주특별자치도 제주시 산록북로 819-20, 다동 1층 (아라일동)",33.4360741,126.5538129,정좌표
1710132,씨유제주서해안로점,"제주특별자치도 제주시 서해안로 456-2, 1층 (용담삼동)",33.5180385,126.4885274,정좌표
1710197,카페이도이,"제주특별자치도 제주시 동고산로 14, 필하우스 1층 (이도이동)",33.4982726,126.5325455,정좌표
1710210,마피스,"제주특별자치도 제주시 조천읍 조함해안로 329-1, 1~2층",33.5506209,126.6532542,정좌표
1710324,차달임,"제주특별자치도 제주시 우평로 71-177, 1층 (도평동)",33.480118,126.451244,정좌표
1710378,메이83,"제주특별자치도 제주시 지석8길 13-22, 4층 (삼양이동)",33.5203216,126.5820225,정좌표
1710379,오라앤커피,제주특별자치도 제주시 정실3길 123 (오라이동),33.4760089,126.5113816,정좌표
1710388,벌크커피노형점,"제주특별자치도 제주시 월랑로 35, 하늘빌딩 1층 (노형동)",33.4886585,126.4760231,정좌표
1710410,세븐일레븐제주영평휴안점,"제주특별자치도 제주시 아봉로 234, 101동 근생101호 (영평동, 영평 휴안2차)",33.4804228,126.5754748,정좌표
1710416,남이스프앤소스,"제주특별자치도 제주시 노형1길 18-9, 1층 (노형동)",33.4719302,126.484934,정좌표
1710430,내가좋아해,"제주특별자치도 제주시 조천읍 신촌9길 36, 1층",33.5375164,126.6232436,정좌표
1710446,크라우드피시방드림타워2호점,제주특별자치도 제주시 노연로 48 (노형동),33.4859151,126.4850355,정좌표
1710455,씨유제주칼호텔점,"제주특별자치도 제주시 중앙로 143, 1층 (이도일동)",33.5030704,126.5285942,정좌표
1710465,와흘354,"제주특별자치도 제주시 조천읍 와흘로 354, 1층",33.4745399,126.6441734,정좌표
1710489,카페토스피아제주연동점,"제주특별자치도 제주시 삼무로11길 9, 1층 108호 (연동)",33.4902049,126.4880364,정좌표
1710492,버터넛,"제주특별자치도 제주시 광양9길 32, 1층 (이도이동)",33.5007961,126.5329979,정좌표
1710533,타이거슈가제주시청점,"제주특별자치도 제주시 중앙로 220, 1,2층 (이도이동)",33.4971786,126.5523575,정좌표
1710604,서울은마꽈배기,"제주특별자치도 제주시 번영로 480, 원복빌딩 1층 (봉개동)",33.4915275,126.592636,정좌표
1710610,요거프레소이도점,"제주특별자치도 제주시 중앙로 201, 1층 (이도일동)",33.5067302,126.5270745,정좌표
1710619,에이바우트커피이편한세상시티점,"제주특별자치도 제주시 원노형남1길 24, 1층 (노형동)",33.4838459,126.4830696,정좌표
1710672,체리블라썸,"제주특별자치도 제주시 일주동로 334, 2층 (삼양이동)",33.5209896,126.5838194,정좌표
1710674,국제꿀꽈배기,"제주특별자치도 제주시 연동1길 8, 1층 (연동)",33.4892707,126.486614,정좌표
1710690,미쁜재주,"제주특별자치도 제주시 복지로5길 21, 케이엘하우스 1층 (도남동)",33.4889055,126.5242872,정좌표
1710693,으뜸분식으뜸아이스크림할인점,"제주특별자치도 제주시 동문로 60, 1층 (일도이동)",33.5132396,126.533085,정좌표
1710698,세븐일레븐번영로점,"제주특별자치도 제주시 번영로 388, 1층 (봉개동)",33.4910451,126.5970139,정좌표
1710708,본도시락제주아라점,"제주특별자치도 제주시 아란5길 43, 1층 (아라일동)",33.5540964,126.7958924,정좌표
1710725,씨유제주연미길점,"제주특별자치도 제주시 연미길 101, 1층 (연동)",33.4884191,126.5050501,정좌표
1710735,홀리싯커피서플라이,"제주특별자치도 제주시 남광로 56, 1층 (이도이동)",33.49481,126.5413,정좌표
1710747,트립1849,"제주특별자치도 제주시 연북로 88, 정민빌딩 2층 (연동)",33.4827724,126.4890682,정좌표
1710806,못난이꽈배기제주월랑점,"제주특별자치도 제주시 월랑로 55, 1층 (노형동)",33.4899924,126.4745203,정좌표
1710832,씨유제주아라센터점,"제주특별자치도 제주시 아란8길 5, 1층 (아라일동)",33.4735731,126.5452315,정좌표
1710842,지에스25화북진남점,"제주특별자치도 제주시 진남로 33, 1층 (화북일동)",33.5232133,126.5638979,정좌표
1710850,해를품은달,제주특별자치도 제주시 은수길 69 (연동),33.470619,126.4881811,정좌표
1710860,달리는커피제주노형점,"제주특별자치도 제주시 노형7길 4, 1층 (노형동)",33.4870192,126.4835071,정좌표
1710866,지에스25구남중앙점,"제주특별자치도 제주시 구남동2길 47, 1층 (이도이동)",33.4887305,126.5350261,정좌표
1710869,카페타리,"제주특별자치도 제주시 일주동로 17, 국립제주박물관 1층 (건입동)",33.5134644,126.5489586,정좌표
1710877,걸피커피,"제주특별자치도 제주시 도남로 9-8, 1층 (도남동)",33.4990588,126.5259411,정좌표
1710902,이큐티,"제주특별자치도 제주시 인다13길 28, 1층 102호 (아라일동, 아라휴팰리스)",33.4724943,126.5469308,정좌표
1710959,감성커피봉개점,"제주특별자치도 제주시 번영로 356, 1층 (봉개동)",33.4910451,126.5970139,정좌표
1710985,세컨드찬스,"제주특별자치도 제주시 아란4길 66, 1층 (아라일동)",33.4711508,126.5421455,정좌표
1711051,감성커피연동점,"제주특별자치도 제주시 신대로20길 46, 1층 102호 (연동, 연동가나휘닉스1)",33.4838953,126.4916191,정좌표
1711059,지에스25제주바오젠점,"제주특별자치도 제주시 신광로 21, 1층 (연동)",33.4901164,126.4903868,정좌표
1711069,지에스25연동베스트점,"제주특별자치도 제주시 성신로1길 30, 1층 (연동)",33.4925383,126.4849474,정좌표
1711079,그러므로파트투,"제주특별자치도 제주시 수목원길 16-14, 1층 (노형동)",33.4683912,126.4860864,정좌표
1711382,건달방선문,"제주특별자치도 제주시 오라남로 28, 1층 (오라이동)",33.450492,126.5120366,정좌표
1711388,바른식빵연동점,"제주특별자치도 제주시 과원북4길 57, 1층 (연동)",33.4812199,126.4878859,정좌표
1711389,지에스25연동은수길점,"제주특별자치도 제주시 수목원길 23, 1층 (연동)",33.4693987,126.4873791,정좌표
1711425,꽃길,"제주특별자치도 제주시 서광로25길 60, 1층 (삼도일동)",33.5036046,126.5218596,정좌표
1711551,오늘의마카롱,"제주특별자치도 제주시 노형5길 36, 1층 (노형동)",33.4771889,126.4742632,정좌표
1711587,너븐팡,"제주특별자치도 제주시 신광로 102-1, 1층 (연동)",33.4829184,126.4896542,정좌표
1714647,나이롱,"제주특별자치도 제주시 선사로2길 37, 1층 (삼양일동)",33.5248592,126.589603,정좌표
1714665,감성커피한라병원점,"제주특별자치도 제주시 도령로 73, 104호 (연동, 연동 펠리체)",33.4899875,126.4858085,정좌표
1714671,세븐일레븐제주가령로점,"제주특별자치도 제주시 가령로4길 1, 1층 (이도이동)",33.494969,126.5377846,정좌표
1714681,세븐일레븐제주칠성로점,"제주특별자치도 제주시 관덕로15길 22, 1층 (일도일동)",33.5152133,126.5269425,정좌표
1714713,컴포즈커피제주아라점,"제주특별자치도 제주시 중앙로 531, 1층 (아라일동)",33.4759163,126.5450794,정좌표
1714744,선셋커피스탠드,"제주특별자치도 제주시 탑동로11길 6, 1층 (삼도이동)",33.5169485,126.5234344,정좌표
1714754,모모샌드,제주특별자치도 제주시 용담로18길 17 (용담일동),33.5086516,126.5134965,정좌표
1714764,제주김만복함덕점,"제주특별자치도 제주시 조천읍 함덕28길 1, 1층",33.5146233,126.6794547,정좌표
1715900,씨유제주해모루점,"제주특별자치도 제주시 연삼로 295-1, 1층 (도남동)",33.4876744,126.5244076,정좌표
1715910,지에스25제주교래점,"제주특별자치도 제주시 조천읍 비자림로 658, 가동",33.4369041,126.6771728,정좌표
1716646,씨유제주시민점,"제주특별자치도 제주시 중앙로 122, 1층 (삼도이동)",33.5165777,126.5242458,정좌표
1716814,씨유제주혜인한국병원점,"제주특별자치도 제주시 서광로 193, 한국병원 가동 3층 (삼도일동)",33.5002078,126.5170609,정좌표
1716819,혜윰,"제주특별자치도 제주시 아란13길 40, 더블레스 1층 (아라일동)",33.4681025,126.5437556,정좌표
1716822,서울은마꽈배기동문시장점,"제주특별자치도 제주시 중앙로14길 4-1, 1층 (이도일동)",33.5114339,126.5240619,정좌표
1716825,씨유제주북성로점,"제주특별자치도 제주시 북성로 62-1, 1층 (삼도이동)",33.5155755,126.5182333,정좌표
1716835,루아드제주,"제주특별자치도 제주시 우정로 89, 1층 (외도일동)",33.4848108,126.4311741,정좌표
1716840,더타로카페,"제주특별자치도 제주시 신설로 34, 1층 (이도이동)",33.4929335,126.5473827,정좌표
1716848,청춘당찹쌀꽈배기봉개점,"제주특별자치도 제주시 번영로 356, 1층 (봉개동)",33.4910451,126.5970139,정좌표
1716858,씨유제주국기점,"제주특별자치도 제주시 국기로2길 27, 1층 (연동)",33.4807216,126.4924971,정좌표
1716868,168테우카페,"제주특별자치도 제주시 테우해안로 168, 1층 (이호일동)",33.496849,126.4518628,정좌표
1716878,더스완,"제주특별자치도 제주시 월성로4길 19, 지하1층 (용담이동)",33.5004485,126.501107,정좌표
1716888,사계절,"제주특별자치도 제주시 정존3길 26, 1층 (노형동)",33.4837392,126.4722607,정좌표
1717084,세븐일레븐제주연동도호점,"제주특별자치도 제주시 연동12길 13, 1층 (연동)",33.4845488,126.4933152,정좌표
1717123,구라파의상,"제주특별자치도 제주시 조천읍 선교로 437, 1층",33.4727191,126.7061921,정좌표
1717125,커피오엘,"제주특별자치도 제주시 서사로 179, 1층 (오라일동)",33.4962458,126.5200284,정좌표
1717131,카페이응시옷,"제주특별자치도 제주시 벌랑1길 49, 다동 (삼양삼동)",33.525991,126.5745842,정좌표
1717140,점빵동네슈퍼,제주특별자치도 제주시 서사로 11-1 (삼도이동),33.5059873,126.5204103,정좌표
1717150,휴예그리나,"제주특별자치도 제주시 우도면 우도해안길 626, 1층",33.5074342,126.954269,정좌표
1717160,지에스25제주삼양초교점,"제주특별자치도 제주시 지석14길 15, 1층 (삼양이동)",33.5204811,126.5855035,정좌표
1717178,애월연어시청점,"제주특별자치도 제주시 서광로 288, 메카플러스 1층 123호 (이도이동)",33.5001247,126.5272822,정좌표
1717188,더벤티제주용담점,"제주특별자치도 제주시 용담로 39, 제1동 1층 (용담삼동)",33.5131523,126.5070598,정좌표
1717198,반투명,"제주특별자치도 제주시 은수길 7, 지하1층 (연동)",33.4755605,126.4863888,정좌표
1717208,크라우드피씨방용담점,"제주특별자치도 제주시 용문로 152, 2층 (용담이동)",33.5081223,126.5101133,정좌표
1717211,와플칸삼화지구점,"제주특별자치도 제주시 일주동로 260, 1층 (화북일동)",33.5200652,126.5731982,정좌표
1717221,세븐일레븐제주우도해안길점,"제주특별자치도 제주시 우도면 우도해안길 810, 다동 1층",33.5133865,126.9574805,정좌표
1717240,컵앤케이크,"제주특별자치도 제주시 조천읍 함덕24길 6-6, 1층 102호",33.5394185,126.6756336,정좌표
1717254,씨유제주삼주점,"제주특별자치도 제주시 동고산로 29, 동광주택 1층 (이도이동)",33.4990345,126.5340693,정좌표
1717414,씨유제주연동사거리점,"제주특별자치도 제주시 노연로 145, 1층 (연동)",33.4858964,126.4958903,정좌표
1717422,어반브루잉,"제주특별자치도 제주시 신설로9길 42-8, 1층 (이도이동)",33.4945144,126.5469581,정좌표
1717432,카페연이랑,제주특별자치도 제주시 조천읍 선교로 586,33.4727191,126.7061921,정좌표
1717452,세븐일레븐제주에코블루점,"제주특별자치도 제주시 연북로 98, 에코 블루 1층 1호 (연동)",33.4857276,126.4875106,정좌표
1717459,달콤커피제주공항점,"제주특별자치도 제주시 공항로 2, 국제공항 여객청사 1층 (용담이동)",33.5060124,126.4987847,정좌표
1717469,지미네커피,"제주특별자치도 제주시 연동12길 27, 1층 (연동)",33.4834223,126.4932788,정좌표
1717479,이글루,"제주특별자치도 제주시 중앙로 138, 2층 (삼도이동)",33.5165519,126.5240428,정좌표
1717481,아일랜드커피,"제주특별자치도 제주시 고마로 16, 1층 근109호 (일도이동)",33.5124313,126.5379161,정좌표
1717491,시나브로,"제주특별자치도 제주시 남성로 157, 1층 (삼도이동)",33.5094374,126.5222835,정좌표
1717671,에그셀런트노형점,"제주특별자치도 제주시 원노형남1길 11, 1층 114호 (노형동)",33.4837103,126.4842211,정좌표
1717681,오후다섯시두가지착각조차도,"제주특별자치도 제주시 조천읍 조함해안로 273-37, 1층",33.5530066,126.6494592,정좌표
1717701,씨유제주대학교학생회관점,"제주특별자치도 제주시 제주대학로 102, 제주대학교학생회관(0-6호) 1층 (아라일동)",33.4558924,126.5620301,정좌표
1717709,씨유제주월랑중앙점,"제주특별자치도 제주시 월랑로4길 3, 1층 (노형동)",33.487873,126.4779833,정좌표
1717717,위드유,"제주특별자치도 제주시 은수길 44, 1층 (노형동)",33.4721583,126.4880259,정좌표
1717720,우도해녀922,"제주특별자치도 제주시 우도면 우도해안길 922, 1층",33.5128074,126.9647539,정좌표
1717725,펫다방,"제주특별자치도 제주시 1100로 3328, 정원빌딩 1층 (노형동)",33.4832551,126.4811368,정좌표
1717728,씨유제주프로빌아파트점,"제주특별자치도 제주시 금월길 46, 프로빌빌딩 1층 (아라이동)",33.484238,126.550697,정좌표
1717737,달리는커피제주삼화점,"제주특별자치도 제주시 화삼북로 90, 상가동 1층 105호 (도련일동, 제주삼화사랑으로부영7차)",33.5152147,126.5821821,정좌표
1717747,배떡아라점,"제주특별자치도 제주시 중앙로 504, 1층 (아라일동)",33.4814679,126.5411458,정좌표
1717755,보스턴수제버거,"제주특별자치도 제주시 신광로 28, 1층 (연동)",33.4896876,126.4899778,정좌표
1717765,씨유제주516교차로점,"제주특별자치도 제주시 516로 3157, 1층 (아라일동)",33.455646,126.5509099,정좌표
1717771,씨유제주외도한라점,"제주특별자치도 제주시 우령서로 47, 1층 (외도일동)",33.4887166,126.4268692,정좌표
1717775,세븐일레븐제주선흘점,"제주특별자치도 제주시 조천읍 선교로 202, 1층 1호",33.4853867,126.6997621,정좌표
1717785,빽다방제주법조타워점,"제주특별자치도 제주시 남광북1길 1, 제주법조타워 1층 102호 (이도이동)",33.4959532,126.5367367,정좌표
1717795,스탠스커피,"제주특별자치도 제주시 고산동산5길 27, 1층 (이도이동)",33.4968713,126.5354165,정좌표
1717800,씨유제주신촌동수동점,"제주특별자치도 제주시 조천읍 신조로 32, 나동 1층",33.5173771,126.6232646,정좌표
1717806,카페봄봄오라점,"제주특별자치도 제주시 오라로 51, 1층 (오라삼동)",33.4963723,126.5091493,정좌표
1717812,더벤티제주일도점,"제주특별자치도 제주시 동광로 87, 1층 (일도이동)",33.5051326,126.5372618,정좌표
1717817,카페시소,"제주특별자치도 제주시 조천읍 조천북1길 70, 1층",33.5417896,126.6358046,정좌표
1717837,슈가드,"제주특별자치도 제주시 박성내동길 49, 1층 (아라이동)",33.491587,126.5427873,정좌표
1717847,에이바우트커피인화점,"제주특별자치도 제주시 고마로 45, 인화빌딩 1층 (일도이동)",33.5102725,126.5394128,정좌표
1717857,봄봄카페오일장점,"제주특별자치도 제주시 성신북길 36, 1층 101호 (연동, 삼성빌라)",33.4933479,126.4848784,정좌표
1717867,그디동광,"제주특별자치도 제주시 동광로8길 37, 1층 (이도이동)",33.49946,126.5346798,정좌표
1717868,설렁설렁,"제주특별자치도 제주시 월두2길 39, 1층 (아라이동)",33.4843921,126.5480826,정좌표
1717878,빽다방제주연동사거리점,"제주특별자치도 제주시 선덕로 1, 하늘그린오피스텔 1층 103호 (연동)",33.4858405,126.4970059,정좌표
1717888,크라상점제주법원점,"제주특별자치도 제주시 중앙로 326-1, 1층 (이도이동)",33.4977475,126.5514334,정좌표
1717898,봄봄제주아라점,"제주특별자치도 제주시 중앙로 564-1, 1층 (아라일동)",33.4731472,126.545429,정좌표
1717907,요망진김밥,"제주특별자치도 제주시 오라남로 14-14, 1층 (오라이동)",33.450492,126.5120366,정좌표
1717913,줄리브신제주점,"제주특별자치도 제주시 수목원길 25, 1층 (연동)",33.4696112,126.4875002,정좌표
1717923,세븐일레븐제주삼성제일점,"제주특별자치도 제주시 신산로 36, 1층 (일도이동)",33.5101561,126.5323105,정좌표
1717933,노기다제주특별자치도의회점,"제주특별자치도 제주시 문연로 13, 제주특별자치도의회 의사당 1층 (연동)",33.4902365,126.4989517,정좌표
1717934,샌치블리,"제주특별자치도 제주시 진군3길 15-1, 1층 (노형동)",33.4774214,126.4792494,정좌표
1717944,컴포즈커피제주법원점,"제주특별자치도 제주시 중앙로 325, 1층 (이도이동)",33.5033423,126.5406431,정좌표
1717948,겨우서른,"제주특별자치도 제주시 구남동8길 31, 1층 (이도이동)",33.4870912,126.5381221,정좌표
1717957,설빙제주삼화점,"제주특별자치도 제주시 화삼북로2길 19, 2층 (화북일동)",33.5161099,126.5749142,정좌표
1717967,파생,"제주특별자치도 제주시 신산로11길 15, 1층 (일도이동)",33.5076512,126.5357816,정좌표
1717977,아일랜드보울,"제주특별자치도 제주시 아란14길 11, 1층 (아라일동)",33.4706266,126.5438726,정좌표
1717987,종종제주,"제주특별자치도 제주시 조천읍 선교로 66, 1층",33.4727191,126.7061921,정좌표
1718007,멍더랜드,"제주특별자치도 제주시 월광로 147, 1층 (노형동)",33.4920804,126.4734937,정좌표
1718015,토마스씨(탐나에프앤비),"제주특별자치도 제주시 진서로 32, 1층 (화북일동)",33.5214207,126.563173,정좌표
1718022,달곰카페,"제주특별자치도 제주시 조천읍 중산간동로 671, 1층",33.5029546,126.6942576,정좌표
1718024,씨유제주외도월대점,"제주특별자치도 제주시 절물2길 8-2, 1층 101호 (외도일동)",33.4920707,126.4325044,정좌표
1718029,아이앤지,"제주특별자치도 제주시 조천읍 와산서2길 57-19, 1층",33.4867128,126.6722315,정좌표
1718031,샌드잇츠,"제주특별자치도 제주시 과원북4길 69, 효정빌딩3차 1층 (연동)",33.4812159,126.4889597,정좌표
1718039,샐러바웃,"제주특별자치도 제주시 우령2길 19-1, 1층 (외도일동)",33.4872709,126.432083,정좌표
1718049,배터지는생동까스화북삼양점,제주특별자치도 제주시 동화로1길 45-8 (화북일동),33.5183503,126.5772659,정좌표
1718265,소소밀,"제주특별자치도 제주시 한북로 139, 1층 (오등동)",33.4599739,126.5376801,정좌표
1718269,쏭스핫도그제주대점,"제주특별자치도 제주시 제주대학로 103-1, 1층 (아라이동)",33.4602868,126.5610028,정좌표
1718270,베러댄버터,"제주특별자치도 제주시 월랑로2길 30, 1층 (노형동)",33.4882709,126.4817573,정좌표
1718280,컴포즈커피화북공단점,"제주특별자치도 제주시 화남로 65, 1층 (화북이동)",33.5122969,126.5641999,정좌표
1718282,노다웃디저트,"제주특별자치도 제주시 정존7길 3, 1층 101호 (노형동, 영주빌라)",33.4836985,126.4751761,정좌표
1718292,때지분식,"제주특별자치도 제주시 신광로8길 3, 1층 (연동)",33.4868335,126.4895539,정좌표
1718298,브로피시방,"제주특별자치도 제주시 중앙로 324, 1층 (이도이동)",33.5029093,126.539939,정좌표
1718304,신전떡볶이외도점,"제주특별자치도 제주시 우정로 44, 1층 (외도일동)",33.4889879,126.4306867,정좌표
1718314,세븐일레븐제주이호로드점,"제주특별자치도 제주시 일주서로 7589, 1층 (이호일동)",33.4934634,126.4559021,정좌표
1718324,공차한라대점,"제주특별자치도 제주시 한라대학로 31, 1층 (노형동)",33.4772209,126.476779,정좌표
1718334,명랑핫도그동문점,"제주특별자치도 제주시 동문로 8, 1층 (일도일동)",33.5129003,126.5274359,정좌표
1718337,지에스25서사라점,"제주특별자치도 제주시 서사로 100, 1층 (삼도일동)",33.5034853,126.5197222,정좌표
1718347,브릭커피,"제주특별자치도 제주시 정존1길 21, 1층 (노형동)",33.4825196,126.4713974,정좌표
1718387,커피핌,"제주특별자치도 제주시 신대로16길 6, 1층 101호 (연동)",33.4868105,126.4931447,정좌표
1718391,마카롱제작소,"제주특별자치도 제주시 관덕로8길 13, 1층 (이도일동)",33.5119026,126.5236741,정좌표
1718401,피자베이노형점,"제주특별자치도 제주시 노형2길 47, 1층 (노형동)",33.4836386,126.4818486,정좌표
1718411,카페살레,"제주특별자치도 제주시 우도면 우도해안길 816, 1~2층",33.513074,126.957847,정좌표
1718421,리치망고함덕점,"제주특별자치도 제주시 조천읍 조함해안로 530, 1층 101호",33.5440366,126.6537771,정좌표
1718441,신전떡볶이제주대점,"제주특별자치도 제주시 제주대학로7길 6-1, 아라 아트맨션 2층 (아라이동)",33.4606581,126.5618497,정좌표
1718451,퍼펫애견카페,"제주특별자치도 제주시 중앙로 204, 1층 (이도일동)",33.5067302,126.5270745,정좌표
1718461,지에스25아라스위첸점,"제주특별자치도 제주시 아란9길 25, 소랑빌 1층 (아라일동)",33.4723479,126.5436636,정좌표
1718466,크라우드피씨법원점,"제주특별자치도 제주시 중앙로 302, 3층 (이도이동)",33.4957137,126.5509798,정좌표
1718467,세븐일레븐제주정실점,"제주특별자치도 제주시 아연로 145, 1층 102호 (오라이동)",33.4747642,126.512388,정좌표
1718473,다사로운,"제주특별자치도 제주시 남성로 32, 1층 (용담일동)",33.5029763,126.5132008,정좌표
1718483,소울김밥,"제주특별자치도 제주시 고마로 71, 103호 (일도이동, 인제네오하임)",33.5081063,126.5405825,정좌표
1718493,씨유제주연북로점,"제주특별자치도 제주시 연북로 260, 1층 (오라이동)",33.4858923,126.518754,정좌표
1718520,바잘트,"제주특별자치도 제주시 서광로 294, 1층 (이도이동)",33.500189,126.5279536,정좌표
1718530,부커피,"제주특별자치도 제주시 서해안로 498, 1층 (용담삼동)",33.5188204,126.4921734,정좌표
1718540,카페봄봄용담점,"제주특별자치도 제주시 용담로 64, 1층 (용담이동)",33.5125707,126.5095237,정좌표
1718550,쎄븐일레븐제주조천우회로점,"제주특별자치도 제주시 조천읍 조천우회로 710, 1층",33.5344076,126.6342455,정좌표
1718606,근휘커피,"제주특별자치도 제주시 구남로6길 44, 1층 (이도이동)",33.4866745,126.5359464,정좌표
1718616,상향평준화,"제주특별자치도 제주시 남성로 156, 지하1층 (삼도이동)",33.5090945,126.5219589,정좌표
1718626,엔제리너스제주연북로점,"제주특별자치도 제주시 연북로 514, 1층 (아라일동)",33.4841141,126.5355699,정좌표
1718634,카페만감,"제주특별자치도 제주시 동광로 51, 1층 (이도일동)",33.5031617,126.5340873,정좌표
1718644,카페리블링스,"제주특별자치도 제주시 동성길 67, 1층 (오라이동)",33.4946744,126.5091278,정좌표
1718654,택트커피,"제주특별자치도 제주시 고산동산서길 5, 1층 (이도이동)",33.4945302,126.5314002,정좌표
1718664,곶자왈노크,제주특별자치도 제주시 명림로 143 (봉개동),33.4740885,126.6098575,정좌표
1718674,소랑햄수다,"제주특별자치도 제주시 서사로21길 4, 1층 (삼도일동)",33.4986736,126.5203249,정좌표
1718684,씨유제주정원로점,"제주특별자치도 제주시 정원로 35, 엘림빌딩 1층 (노형동)",33.4803463,126.4777974,정좌표
1718688,카페가젠,"제주특별자치도 제주시 연수로 19, 1층 (일도이동)",33.503952,126.5460331,정좌표
1718698,도두과자점,"제주특별자치도 제주시 도공로 18, 1,2층 (도두일동)",33.5045927,126.4652146,정좌표
1718704,씨유제주광장점,"제주특별자치도 제주시 연삼로 404, 1층 (이도이동)",33.4977644,126.5410423,정좌표
1718784,테스그릭아라일동점,"제주특별자치도 제주시 아란4길 85-5, 다랑쉬빌 1층 (아라일동)",33.4762433,126.8229497,정좌표
1718794,아르커피,"제주특별자치도 제주시 서흘2길 11, 1층 (삼양일동)",33.5281477,126.5898004,정좌표
1718796,싱싱프루츠,"제주특별자치도 제주시 남광로2길 41-1, 1층 (이도이동)",33.48947,126.5400463,정좌표
1718806,씨유제주삼화지구점,"제주특별자치도 제주시 화삼로 7, 1층 104호 (화북일동)",33.5143764,126.5791822,정좌표
1718824,밥때,"제주특별자치도 제주시 조천읍 조함해안로 120, B1층",33.5440366,126.6537771,정좌표
1718844,제주파파일일,"제주특별자치도 제주시 동대북길 11, 1층 (건입동)",33.5177659,126.5374614,정좌표
1718851,단호,"제주특별자치도 제주시 아란5길 31-6, 1층 (아라일동)",33.5540964,126.7958924,정좌표
1718861,프리제과,"제주특별자치도 제주시 전농로 28, 1층 (삼도일동)",33.5042622,126.5161619,정좌표
1718871,호산나떡볶이,"제주특별자치도 제주시 평전1길 16, 1층 (삼도일동)",33.5006298,126.517738,정좌표
1718874,생생생공화국,"제주특별자치도 제주시 중앙로26길 2, 4층 501호 (삼도이동, 동인스파월드빌)",33.5059017,126.5248934,정좌표
1718879,세븐일레븐제주인제사거리점,"제주특별자치도 제주시 고마로 87, 1층 (일도이동)",33.5065403,126.5410425,정좌표
1718888,씨유제주동문로터리점,"제주특별자치도 제주시 동문로 8, 1층 (일도일동)",33.5129003,126.5274359,정좌표
1718898,가든샐러드,"제주특별자치도 제주시 남광로 123, 1층 (일도이동)",33.4983575,126.5473997,정좌표
1718900,호떡당아라점,"제주특별자치도 제주시 구산로 70, 1층 (아라일동)",33.4850531,126.5421066,정좌표
1718922,루루비건,"제주특별자치도 제주시 연북로 28, 2층 (노형동)",33.4816608,126.4844214,정좌표
1718938,먹쿠슬낭노형점,"제주특별자치도 제주시 정존15길 33, 1층 (노형동)",33.4875242,126.4765949,정좌표