Column1,name,address,Latitude,Longitude,상태
700857,서프로와,"제주특별자치도 제주시 테우해안로 132, 지하1층 (이호일동)",33.49776,126.448,정좌표
701426,오캄커피,"제주특별자치도 제주시 광양11길 16, 101호 (이도이동, 희봉빌라)",33.49954,126.5318,정좌표
701470,황소곱창,제주특별자치도 제주시 삼무로3길 8 (연동),33.49052,126.4951,정좌표
701510,삼아갈비,제주특별자치도 제주시 서광로21길 4-1 (삼도일동),33.50051,126.5222,정좌표
701512,최가네옛날손두부집,"제주특별자치도 제주시 사장2길 36, 1층 (연동)",33.4843,126.4921,정좌표
701576,민성이네식당,"제주특별자치도 제주시 도령로11길 20, 1층 (연동, 대원빌라1차)",33.49235,126.4868,정좌표
701579,파도소리해녀촌,제주특별자치도 제주시 우도면 우도해안길 510,33.51976,126.9489,정좌표
701903,유가네한우곰탕,"제주특별자치도 제주시 추자면 추자로 50, 1층",33.96272,126.2942,정좌표
701904,제주돈아도두점,제주특별자치도 제주시 서해안로 272 (도두이동),33.50925,126.4747,정좌표
702013,정개,"제주특별자치도 제주시 서사로21길 3, 1층 (삼도일동)",33.49896,126.5202,정좌표
702173,바르다김선생제주연동신시가지점,"제주특별자치도 제주시 연북로 24, 지하1층 102호 (노형동)",33.48167,126.4839,정좌표
702251,옛날아우내순대외도점,"제주특별자치도 제주시 도근내길 12-1, 1층 (외도일동)",33.4924,126.4326,정좌표
702281,레드팬더,제주특별자치도 제주시 신대로18길 51 (연동),33.48461,126.491,정좌표
702284,신라스테이제주카페(CAFE),"제주특별자치도 제주시 노연로 100, 11층 (연동)",33.4855,126.491,정좌표
702312,레스토랑더원,"제주특별자치도 제주시 사장3길 33, 1층 (연동)",33.48253,126.4915,정좌표
702317,상구비어삼도점,"제주특별자치도 제주시 서광로 240-1, 1층 (삼도일동)",33.49955,126.5221,정좌표
702324,마린수산회센타,"제주특별자치도 제주시 동문로2길 10, 1층 (일도일동, 산지천복개 제1공구 비동6호)",33.51236,126.5266,정좌표
702378,팔팔돼지,제주특별자치도 제주시 제원길 7 (연동),33.48924,126.4896,정좌표
702491,제주공항본점공항뚝배기,제주특별자치도 제주시 연삼로 31 (연동),33.49387,126.4959,정좌표
703019,샤오핑,"제주특별자치도 제주시 연신로 71, 1층 (이도이동)",33.49522,126.5482,정좌표
703028,목마,"제주특별자치도 제주시 곤을길 23, 1층 (화북일동)",33.52309,126.5596,정좌표
703064,노랑통닭,제주특별자치도 제주시 신대로16길 44 (연동),33.48708,126.4914,정좌표
703132,20세기소년,"제주특별자치도 제주시 동광로1길 2, 1층 (이도일동)",33.50141,126.5296,정좌표
703152,모리아짬뽕,"제주특별자치도 제주시 조천읍 함덕로 32, 1층",33.54199,126.6719,정좌표
703270,용우동제주시청점,"제주특별자치도 제주시 서광로 292-1, 1층 (이도이동)",33.50016,126.5277,정좌표
703290,돈먹고돈주기,"제주특별자치도 제주시 무근성7길 22, 1층 (삼도이동)",33.51445,126.5207,정좌표
703299,투다리한라점,"제주특별자치도 제주시 진남로6길 26, 1층 (화북일동)",33.52109,126.5659,정좌표
703315,전주이모네,제주특별자치도 제주시 연동9길 37 (연동),33.49684,126.5011,정좌표
703427,설빙신제주직영점,제주특별자치도 제주시 신광로 65 (연동),33.48618,126.4902,정좌표
703493,정순화손두부,제주특별자치도 제주시 조천읍 일주동로 1415,33.54466,126.6861,정좌표
703523,오누이밥상,제주특별자치도 제주시 추자면 추자로 68,33.96127,126.2945,정좌표
703536,우도이모네식당,제주특별자치도 제주시 우도면 우목길 6,33.50822,126.9529,정좌표
703537,멍군식당,제주특별자치도 제주시 조천읍 신북로 601,33.5401,126.6737,정좌표
703561,일품왕솥뚜껑,제주특별자치도 제주시 고마로15길 3 (일도이동),33.50704,126.5409,정좌표
703563,쭈꾸쭈꾸쭈꾸미,"제주특별자치도 제주시 연동11길 33 (연동, 제1호)",33.49665,126.5008,정좌표
703907,후니참치,제주특별자치도 제주시 노연로 39 (노형동),33.48624,126.4843,정좌표
703911,아침바다,"제주특별자치도 제주시 수덕5길 66, 103호 (노형동)",33.48361,126.4725,정좌표
705531,고씨회관시청점,제주특별자치도 제주시 신성로13길 30 (이도이동),33.49764,126.5303,정좌표
705533,제주예찬,"제주특별자치도 제주시 1100로 2997, 1층 (노형동)",33.45407,126.4869,정좌표
705971,짬뽕에취한날,제주특별자치도 제주시 귀아랑2길 4 (연동),33.49111,126.4979,정좌표
706156,하노이안브라더스,제주특별자치도 제주시 천수동로 1 (건입동),33.50964,126.5436,정좌표
706226,황궁쟁반행복반점,제주특별자치도 제주시 절물3길 24 (외도일동),33.49047,126.4332,정좌표
706227,착한집,제주특별자치도 제주시 서광로 98 (오라삼동),33.49997,126.507,정좌표
707427,흑마가든,제주특별자치도 제주시 연화로2길 20-1 (연동),33.47729,126.4893,정좌표
707445,고래냉삼,제주특별자치도 제주시 우령2길 29-5 (외도일동),33.4866,126.4322,정좌표
707466,연동한라국시,제주특별자치도 제주시 신대로18길 41 (연동),33.48451,126.4921,정좌표
707467,고객식당,"제주특별자치도 제주시 오현길 78-6, 1층 (이도일동)",33.5117,126.5258,정좌표
707684,술집마씸,제주특별자치도 제주시 조천읍 함덕13길 2,33.5414,126.6677,정좌표
707690,육장갈비제주본점,제주특별자치도 제주시 승천로 2 (이도이동),33.49724,126.538,정좌표
707703,방일해장국제주본점,"제주특별자치도 제주시 월광로 163, 1층 (노형동)",33.49288,126.4746,정좌표
707730,남문숯불바베큐앤치킨신촌점,제주특별자치도 제주시 조천읍 신촌3길 7,33.53362,126.6186,정좌표
707750,텅꼬치구이도남점,"제주특별자치도 제주시 도남로 12 (삼도일동,지상1층)",33.49896,126.5249,정좌표
707752,오션베스트빌,제주특별자치도 제주시 조천읍 조함해안로 221,33.55308,126.6447,정좌표
707782,유행,제주특별자치도 제주시 신대로10길 32 (연동),33.49103,126.4933,정좌표
707783,아라숯불갈비,제주특별자치도 제주시 중앙로 555 (아라일동),33.47367,126.5459,정좌표
707852,만사오케이,"제주특별자치도 제주시 전농로 81, 1층 (삼도이동)",33.50452,126.5219,정좌표
707871,잠녀해녀촌,제주특별자치도 제주시 조천읍 조함해안로 410,33.54628,126.66,정좌표
708285,비에이치씨신제주점,제주특별자치도 제주시 원노형남1길 23 (노형동),33.48413,126.483,정좌표
708336,주민상회신제주점,제주특별자치도 제주시 원노형6길 31 (노형동),33.48324,126.4829,정좌표
708343,월계,"제주특별자치도 제주시 월평1길 8 (월평동,(월평1로 47))",33.47164,126.5737,정좌표
708345,젬마손,"제주특별자치도 제주시 진동로 3, 101호 (화북일동,건하주택)",33.51935,126.5686,정좌표
708352,국수장터,제주특별자치도 제주시 동광로 50-1 (이도이동),33.50275,126.5342,정좌표
708423,황금섬숯불갈비,제주특별자치도 제주시 추자면 추자로 36,33.96302,126.2957,정좌표
708428,바다풍경,제주특별자치도 제주시 서해안로 654 (용담삼동),33.51618,126.5068,정좌표
714935,아침하늘,제주특별자치도 제주시 조천읍 조와로 5,33.53495,126.6361,정좌표
714957,국수상회,제주특별자치도 제주시 연동10길 7 (연동),33.49704,126.5006,정좌표
714960,달빛노을,"제주특별자치도 제주시 중앙로 22, 지하1층 (건입동)",33.51639,126.5246,정좌표
714963,세이슌칠성로점,"제주특별자치도 제주시 관덕로11길 35, 2층 (건입동)",33.51611,126.5255,정좌표
714981,본죽앤비빔밥아라점,"제주특별자치도 제주시 아란9길 6, 1층 (아라일동)",33.4726,126.545,정좌표
714991,얼얼이불막창,"제주특별자치도 제주시 건주로4길 26, 1층 (도련일동)",33.51668,126.5789,정좌표
714993,24시얼큰시원생고기김치찌개외도점,"제주특별자치도 제주시 우정로 85, 1층 (외도일동)",33.48513,126.4311,정좌표
715047,월랑다호,"제주특별자치도 제주시 월랑로6길 32, 1층 (노형동)",33.49003,126.4795,정좌표
715048,도남황금,제주특별자치도 제주시 신성로 98 (도남동),33.49622,126.5295,정좌표
715085,제주돈,제주특별자치도 제주시 연신로 83 (이도이동),33.49443,126.5488,정좌표
715122,청해회센타,"제주특별자치도 제주시 신대로10길 28-1, 1층 (연동)",33.49101,126.4937,정좌표
715136,바다양푼이동태탕외도점,"제주특별자치도 제주시 우령6길 77, 101호 (외도일동, 한영빌딩)",33.48444,126.429,정좌표
715149,시골뚝배기,"제주특별자치도 제주시 선반로 19 (화북일동, 외3필지)",33.51508,126.5602,정좌표
715150,제주밥상,제주특별자치도 제주시 사장3길 27 (연동),33.48277,126.4919,정좌표
715390,손사장네행복하소,"제주특별자치도 제주시 연북로 74, 1층 (연동)",33.48155,126.4892,정좌표
715401,서가장인곱창연동점,제주특별자치도 제주시 신대로16길 47 (연동),33.48674,126.4914,정좌표
715403,옆구리터진올레김밥,제주특별자치도 제주시 공설로 5 (삼도일동),33.49928,126.5166,정좌표
715410,오니기리와이규동일도점,제주특별자치도 제주시 고마로 98-1 (일도이동),33.50553,126.5409,정좌표
715416,레인보우치킨,"제주특별자치도 제주시 조천읍 중산간동로 814, 1층",33.4924,126.6691,정좌표
715444,용담포차,제주특별자치도 제주시 흥운길 11 (용담이동),33.51019,126.511,정좌표
715446,천원,"제주특별자치도 제주시 관덕로8길 22 (삼도이동,(남문로 42))",33.51121,126.5231,정좌표
715447,오늘은좋은날,제주특별자치도 제주시 우령8길 17 (외도일동),33.48968,126.4275,정좌표
715753,보리문디,제주특별자치도 제주시 중앙로 598 (아라일동),33.46991,126.546,정좌표
715779,금관,"제주특별자치도 제주시 탑동로 114 (용담일동,외1필지 제101호)",33.51467,126.5171,정좌표
715787,통통시장,"제주특별자치도 제주시 연삼로 541 (일도이동,(연삼로589))",33.50255,126.5466,정좌표
715805,요기소바외도점,"제주특별자치도 제주시 우령안1길 29, 1층 (외도일동)",33.48621,126.4296,정좌표
715811,빅디어,"제주특별자치도 제주시 신성로12길 2, 1층 (이도이동)",33.49665,126.5301,정좌표
715834,정암식당,"제주특별자치도 제주시 동광로1길 30, 1층 (이도일동)",33.50328,126.5281,정좌표
715841,곰,제주특별자치도 제주시 복지로3길 1-4 (도남동),33.48931,126.5232,정좌표
716609,나홀로,"제주특별자치도 제주시 서해안로 488, 2층 (용담삼동)",33.51909,126.4913,정좌표
716645,먹주,제주특별자치도 제주시 신성로13길 1 (이도이동),33.49985,126.529,정좌표
716649,큰맘할매순대국조천점,"제주특별자치도 제주시 조천읍 신북로 68, 103,104호",33.5341,126.6213,정좌표
716737,오르방,"제주특별자치도 제주시 신광로8길 14, 1층 (연동)",33.4871,126.4885,정좌표
716747,타코밤,"제주특별자치도 제주시 우도면 우도해안길 780-2, 1층",33.51625,126.9576,정좌표
716764,기쁨이네해물탕앤돌솥밥,제주특별자치도 제주시 조천읍 신북로 527-1,33.54203,126.6663,정좌표
717502,해아름,"제주특별자치도 제주시 가령로 7, 1층 (이도이동)",33.50348,126.537,정좌표
717504,써니왕갈비탕,"제주특별자치도 제주시 진남로8길 17-1, 1층 (화북일동)",33.52059,126.5669,정좌표
717506,소담돈까스,"제주특별자치도 제주시 성신로1길 23, 2층 (연동)",33.49194,126.4879,정좌표
717543,봉봉,제주특별자치도 제주시 우도면 우도해안길 630,33.52372,126.9549,정좌표
727643,돈데이,"제주특별자치도 제주시 신대로12길 25, 1층 (연동)",33.4886,126.4939,정좌표
727644,제주닭집,제주특별자치도 제주시 조천읍 함덕14길 3,33.54104,126.6672,정좌표
727754,뭉클만두,제주특별자치도 제주시 서광로20길 3 (삼도일동),33.49926,126.5221,정좌표
727755,장미맨숀제주시청점,"제주특별자치도 제주시 신성로13길 5, 2층 (이도이동)",33.49966,126.5291,정좌표
727761,오름,제주특별자치도 제주시 조천읍 비자림로 657,33.43699,126.6767,정좌표
729261,내담식당,"제주특별자치도 제주시 우정로10길 4, 1층 (외도일동)",33.48888,126.4303,정좌표
729268,콘킹부대찌개,제주특별자치도 제주시 제주대학로7길 5-2 (아라이동),33.46064,126.561,정좌표
729288,고기가게,제주특별자치도 제주시 국기중길 12 (연동),33.47991,126.491,정좌표
729488,바삭돈가스,"제주특별자치도 제주시 과원북4길 61, 103호 (연동)",33.48122,126.4882,정좌표
729616,제주보말칼국수,제주특별자치도 제주시 관덕로8길 40 (삼도이동),33.50989,126.5232,정좌표
729793,컵독스커피제주1호점,제주특별자치도 제주시 신성로 71 (도남동),33.49553,126.5269,정좌표
729817,큰언니네이층집,"제주특별자치도 제주시 도령로 106, 2층 (연동)",33.49117,126.4891,정좌표
729818,갑도니,"제주특별자치도 제주시 광양14길 14, 1층 (이도이동)",33.49794,126.5292,정좌표
729824,추자바다숯불갈비,제주특별자치도 제주시 추자면 추자로 94-1,33.95972,126.2963,정좌표
729829,이모칼국수,"제주특별자치도 제주시 월랑로4길 15 (노형동, 제2호)",33.48862,126.4787,정좌표
729837,조금만천천히,"제주특별자치도 제주시 조천읍 신북로 201, 1층",33.53529,126.6348,정좌표
729865,캠핑스톤,"제주특별자치도 제주시 우정로16길 30, 1동 1층 (외도일동)",33.48611,126.4276,정좌표
729877,행복식당,"제주특별자치도 제주시 다랑곶길 23, 1층 (노형동)",33.48826,126.4804,정좌표
730293,아라미당한우전문점,"제주특별자치도 제주시 아연로 595, 1~2층 (아라일동)",33.47831,126.5424,정좌표
730313,몰돗,"제주특별자치도 제주시 조천읍 함대로 2, 1층",33.5436,126.6578,정좌표
730617,제주돈드르족발보쌈,제주특별자치도 제주시 은남길 25 (연동),33.48739,126.496,정좌표
730627,북촌자연산횟집,제주특별자치도 제주시 조천읍 북촌13길 24-1,33.55137,126.6963,정좌표
730639,종달빛,제주특별자치도 제주시 도남로 50 (도남동),33.49579,126.5269,정좌표
730640,옛날홍가네,"제주특별자치도 제주시 전농로 113 (삼도이동,동양타운103호(전농로12))",33.50466,126.5251,정좌표
730705,돈치비,"제주특별자치도 제주시 원노형2길 29-5, 101호 (노형동)",33.48374,126.4819,정좌표
730713,제주삼계탕,"제주특별자치도 제주시 진동로 5, 101호 (화북일동)",33.51951,126.5686,정좌표
730721,누이,제주특별자치도 제주시 서광로26길 2 (삼도일동),33.49954,126.5241,정좌표
730722,제주세호해장국연동점,"제주특별자치도 제주시 신대로20길 28, 101호 (연동)",33.48385,126.4935,정좌표
730726,제주어멍국수본점,"제주특별자치도 제주시 선덕로3길 28, 1층 (연동)",33.48831,126.4988,정좌표
730773,맛있는한끼,"제주특별자치도 제주시 광양7길 32, 1층 (이도이동)",33.5016,126.5324,정좌표
730780,제주오도록,"제주특별자치도 제주시 삼봉로2길 16, 1층 (삼양이동)",33.51979,126.5861,정좌표
730806,육갑봉,제주특별자치도 제주시 신설로11길 2-9 (아라이동),33.4911,126.5447,정좌표
730832,영춘식당,"제주특별자치도 제주시 도남로7길 37-1, 1층 (도남동)",33.4969,126.5273,정좌표
730842,일도화로구이,"제주특별자치도 제주시 연삼로 517-1, 1층 (일도이동)",33.50142,126.5445,정좌표
730843,돈삼겹외도점,"제주특별자치도 제주시 우정로11길 21, 1층 (외도일동)",33.48801,126.4331,정좌표
730865,쨍하고회뜰날,제주특별자치도 제주시 신광로10길 18 (연동),33.48411,126.4876,정좌표
730873,우도부릉이,"제주특별자치도 제주시 우도면 우도해안길 480, 1층",33.51755,126.9488,정좌표
730912,함덕촐래밥상,"제주특별자치도 제주시 조천읍 함대로 57, 1층",33.5392,126.658,정좌표
731090,갈래길국수,제주특별자치도 제주시 제원길 14 (연동),33.48874,126.4892,정좌표
731095,완벽한인생,제주특별자치도 제주시 원노형남1길 33 (노형동),33.48418,126.484,정좌표
731098,탕탕이2호점,제주특별자치도 제주시 다랑곶1길 15 (노형동),33.48797,126.4778,정좌표
731103,참스큐도두점,"제주특별자치도 제주시 도공로 10-1 (도두일동,(1층))",33.50527,126.4648,정좌표
731110,우도해녀의집,"제주특별자치도 제주시 우도면 우도해안길 144, 1층",33.49433,126.945,정좌표
731142,밥먹젠,제주특별자치도 제주시 제주대학로 107 (아라이동),33.46034,126.5615,정좌표
731153,동서지간,제주특별자치도 제주시 사라봉길 1 (건입동),33.51452,126.5389,정좌표
731160,달페이지2,"제주특별자치도 제주시 구남동2길 28, 1층 (이도이동)",33.48934,126.5351,정좌표
731162,제주정,"제주특별자치도 제주시 일주동로 320, 1층 (삼양이동)",33.52101,126.579,정좌표
731198,바위소리,"제주특별자치도 제주시 우도면 우도해안길 1112, 1층 제1호",33.49769,126.9692,정좌표
731478,비에이치씨치킨노형점,"제주특별자치도 제주시 수덕로 81, 동원빌딩 1층 (노형동)",33.48369,126.4697,정좌표
731509,대한식당신시가지점,"제주특별자치도 제주시 국기로 52, 1층 (연동)",33.47784,126.4913,정좌표
731527,싸움의고수제주노형점,"제주특별자치도 제주시 원노형로 3, 1층 (노형동)",33.48811,126.484,정좌표
731537,쌍고동,제주특별자치도 제주시 서광로5길 27 (용담일동),33.50259,126.5143,정좌표
731539,홍어대가,제주특별자치도 제주시 전농로 99-1 (삼도이동),33.50448,126.5239,정좌표
731545,한라향,"제주특별자치도 제주시 도남로 104, 107호 (도남동, 백록아파트)",33.49119,126.528,정좌표
731565,행복오리,"제주특별자치도 제주시 우정로 64, 1~2층 (외도일동)",33.48708,126.4307,정좌표
731572,빽포,제주특별자치도 제주시 정존11길 43 (노형동),33.4869,126.4738,정좌표
731574,정담,제주특별자치도 제주시 구남로8길 6 (이도이동),33.49088,126.536,정좌표
731600,정겨운수제비,"제주특별자치도 제주시 제원1길 23, 105호 (연동)",33.48917,126.4869,정좌표
731609,고망딱새,제주특별자치도 제주시 서해안로 96 (이호일동),33.50345,126.4596,정좌표
731620,제주대통,제주특별자치도 제주시 연화로2길 18 (연동),33.47729,126.4891,정좌표
731633,돈지,제주특별자치도 제주시 동문로10길 2 (일도일동),33.51286,126.5311,정좌표
731714,술판,"제주특별자치도 제주시 광양14길 1, 2층 (이도이동)",33.49826,126.5304,정좌표
731717,추자집,"제주특별자치도 제주시 임항로 51, 1층 (건입동)",33.51687,126.5303,정좌표
731725,긴자,제주특별자치도 제주시 신광로8길 30-1 (연동),33.48717,126.4869,정좌표
731797,오라숲소리,제주특별자치도 제주시 오라로 80 (오라이동),33.49553,126.5118,정좌표
731808,중화루,제주특별자치도 제주시 삼무로 68 (연동),33.48959,126.4939,정좌표
731810,제주큰물살아있는해물탕,제주특별자치도 제주시 조공포길 49 (외도일동),33.48798,126.4344,정좌표
732019,하늘채,제주특별자치도 제주시 오등14길 4 (오등동),33.47484,126.5303,정좌표
732034,갤러리호텔비앤비,"제주특별자치도 제주시 삼무로3길 48, 2층 (연동)",33.4906,126.4907,정좌표
732044,텍사스하우스,제주특별자치도 제주시 박성내동길 49-1 (아라이동),33.49083,126.5439,정좌표
732063,사라봉진가네해장국,제주특별자치도 제주시 사라봉길 28 (건입동),33.51525,126.541,정좌표
732069,오르막가든,제주특별자치도 제주시 오일장중길 41 (도두일동),33.49622,126.4727,정좌표
734148,나룻배,"제주특별자치도 제주시 연삼로 543, 1층 (일도이동)",33.50271,126.5467,정좌표
734149,형제,"제주특별자치도 제주시 원노형로 93, 상가동 지하105호 (노형동)",33.47993,126.485,정좌표
734482,교래삼복가든,제주특별자치도 제주시 조천읍 비자림로 653,33.43676,126.6765,정좌표
734492,미듬포장마차,제주특별자치도 제주시 조천읍 신북로 252-1,33.53767,126.6391,정좌표
734498,오쿠다,"제주특별자치도 제주시 구남동4길 45, 1층 (이도이동)",33.48692,126.5358,정좌표
734730,우리양,"제주특별자치도 제주시 성신로1길 23, 1층 (연동)",33.49194,126.4879,정좌표
734747,라마띠네,"제주특별자치도 제주시 중앙로 304, 1층 101호 (이도이동)",33.4935,126.5343,정좌표
734749,신춘반점,"제주특별자치도 제주시 진동로5길 30, 1층 (화북일동)",33.52132,126.5662,정좌표
734759,화리,"제주특별자치도 제주시 감수북길 36, 지하1층 (삼양이동)",33.52516,126.5837,정좌표
734794,톡순,"제주특별자치도 제주시 연동7길 30, 5층 (연동)",33.49693,126.5012,정좌표
734797,천하장사뷔페,"제주특별자치도 제주시 제원1길 23, 2층 102호 (연동, 뉴제원)",33.48917,126.4869,정좌표
734817,역전할머니맥주외도점,"제주특별자치도 제주시 우령2길 24, 1층 (외도일동)",33.48727,126.4314,정좌표
734837,쿠쿠아림,"제주특별자치도 제주시 아란2길 38, 1층 (아라일동)",33.47406,126.5405,정좌표
734920,어드레감수강,"제주특별자치도 제주시 다랑곶4길 25, 106호 (노형동)",33.4886,126.4795,정좌표
734925,청보리,"제주특별자치도 제주시 연동4길 29, 105호 (연동)",33.49723,126.5008,정좌표
734933,순복이식당,"제주특별자치도 제주시 서문로4길 15 (용담일동, 제1호)",33.51093,126.518,정좌표
734934,브이,"제주특별자치도 제주시 노연로 41, 2층 (노형동)",33.48624,126.4845,정좌표
734935,공룡고기,"제주특별자치도 제주시 과원로 22, 1층 (노형동)",33.47613,126.4858,정좌표
734958,이쁘당,"제주특별자치도 제주시 조천읍 함덕6길 5, 제1동 1층",33.54313,126.661,정좌표
735092,돔베돈,제주특별자치도 제주시 관덕로15길 25 (건입동),33.51555,126.5267,정좌표
735364,우도래요,"제주특별자치도 제주시 우도면 우도해안길 360, 1층",33.51026,126.9434,정좌표
735377,사쿠라,"제주특별자치도 제주시 우령2길 34, 2층 (외도일동)",33.48634,126.4314,정좌표
735378,쿠킹노트32,"제주특별자치도 제주시 수덕7길 32, 1~2층 (노형동)",33.48568,126.4743,정좌표
735407,대자연가든,제주특별자치도 제주시 조천읍 신북로 618,33.54006,126.6754,정좌표
735457,농부와꽃돼지,"제주특별자치도 제주시 조천읍 함대로 530, 1층",33.49913,126.659,정좌표
735473,순풍해장국,제주특별자치도 제주시 일주동로 355 (삼양이동),33.5214,126.583,정좌표
735556,제주족마니,"제주특별자치도 제주시 도남로 67, 가동 101호 (도남동)",33.49432,126.528,정좌표
735559,해호텔,"제주특별자치도 제주시 서해안로 526, 지하1층 (용담삼동)",33.51961,126.4952,정좌표
735569,에린,제주특별자치도 제주시 도남로 116 (도남동),33.48996,126.5285,정좌표
735604,몸에조은국수,제주특별자치도 제주시 동문로 53 (건입동),33.51342,126.5324,정좌표
735605,군족,"제주특별자치도 제주시 동화로 74, 1층 (화북이동)",33.51356,126.5724,정좌표
736165,다이노바이트샌드위치,제주특별자치도 제주시 관덕로 16 (삼도이동),33.51286,126.5209,정좌표
736168,김가네한라대점,제주특별자치도 제주시 한라대학로 75 (노형동),33.47651,126.4784,정좌표
736178,가득한한잔,"제주특별자치도 제주시 성지로 72, 1층 (일도이동)",33.51138,126.5309,정좌표
736185,바나나껍데기,"제주특별자치도 제주시 은남2길 30, 1층 (연동)",33.48841,126.4926,정좌표
736194,마초그릴,"제주특별자치도 제주시 중앙로 39, 2층 (일도일동)",33.5148,126.5249,정좌표
736218,당근가게,"제주특별자치도 제주시 서광로5길 4, 1층 (용담일동)",33.50066,126.5144,정좌표
736227,연포낙지,"제주특별자치도 제주시 연동9길 39 (연동,(은남4로6))",33.49684,126.5011,정좌표
736229,양순이네순대국밥,제주특별자치도 제주시 동광로1길 32 (이도일동),33.5033,126.5279,정좌표
736233,신촌풍경,"제주특별자치도 제주시 조천읍 일주동로 817, 1층",33.53163,126.6287,정좌표
736235,순덕이네왕갈비,"제주특별자치도 제주시 진남로10길 34, 1호 (화북일동)",33.52218,126.5674,정좌표
736239,리에또,제주특별자치도 제주시 원노형로 49-1 (노형동),33.4842,126.485,정좌표
736241,생각할때,제주특별자치도 제주시 남녕로 7 (노형동),33.48889,126.4826,정좌표
736265,삼겹살동동,제주특별자치도 제주시 조천읍 신촌3길 7-2,33.53378,126.6186,정좌표
736285,남문숯불바베큐앤치킨노형점,"제주특별자치도 제주시 정존5길 21, 1층 (노형동)",33.48414,126.4732,정좌표
736301,양촌리마을,제주특별자치도 제주시 진군길 31-5 (노형동),33.47936,126.4814,정좌표
736309,허클베리핀,"제주특별자치도 제주시 노형5길 44, 1층 (노형동)",33.47946,126.4741,정좌표
736421,황금손가락함덕점,"제주특별자치도 제주시 조천읍 신북로 519, 1층",33.54199,126.6653,정좌표
736625,우무깨,제주특별자치도 제주시 우도면 우도해안길 356,33.50996,126.9435,정좌표
736651,차이메이,제주특별자치도 제주시 신설로9길 37 (이도이동),33.49523,126.5471,정좌표
736653,안녕육지사람,제주특별자치도 제주시 우도면 우도해안길 792,33.51509,126.9572,정좌표
737845,야끼니꾸호타루,"제주특별자치도 제주시 과원북4길 17, 101호 (노형동)",33.48135,126.484,정좌표
737849,공룡마라탕5호점,제주특별자치도 제주시 우정로 67 (외도일동),33.48677,126.4311,정좌표
737875,심향(중식당),제주특별자치도 제주시 중앙로 151 (이도일동),33.50568,126.5264,정좌표
737911,고래고래,"제주특별자치도 제주시 월랑로4길 16, 1층 (노형동)",33.48835,126.479,정좌표
737919,서울식당,제주특별자치도 제주시 조천읍 함덕13길 5,33.54191,126.6677,정좌표
739575,민박사봉평막국수교래점,"제주특별자치도 제주시 조천읍 비자림로 685-14, 1층",33.4371,126.6806,정좌표
739587,산천초목오리약선요리,제주특별자치도 제주시 오복6길 8 (이도이동),33.49616,126.5374,정좌표
739596,갈비정식,"제주특별자치도 제주시 진남로6길 3, 1층 (화북일동)",33.51923,126.5655,정좌표
739599,맛조이,"제주특별자치도 제주시 동광로6길 27, 1층 (이도이동)",33.49991,126.5332,정좌표
739607,돈삼겹삼화3호점,"제주특별자치도 제주시 지석8길 13-22, 1층 (삼양이동)",33.5198,126.5823,정좌표
739617,오미정,제주특별자치도 제주시 평전길 31 (삼도일동),33.50266,126.5191,정좌표
739620,황금돼지,제주특별자치도 제주시 연동8길 6 (연동),33.49659,126.5013,정좌표
740241,오늘와인한잔,"제주특별자치도 제주시 신대로16길 44, 1층 (연동)",33.48708,126.4914,정좌표
740276,공단반점,"제주특별자치도 제주시 화남로 62, 1층 (화북일동)",33.51244,126.5633,정좌표
740277,자담치킨노형점,제주특별자치도 제주시 수덕5길 35 (노형동),33.48524,126.4751,정좌표
740286,짱숯불갈비,제주특별자치도 제주시 신대로14길 38 (연동),33.48794,126.4926,정좌표
740321,산지해장국노형직영점,"제주특별자치도 제주시 노형9길 16-1, 1층 (노형동)",33.48333,126.4764,정좌표
740387,리틀오사카,"제주특별자치도 제주시 진군남4길 7-5, 1층 (노형동)",33.47548,126.4811,정좌표
740409,스트라이크존,"제주특별자치도 제주시 고마로 95, 2층 (일도이동)",33.50596,126.5413,정좌표
740410,토마토도시락제주대후문점,"제주특별자치도 제주시 산천단동3길 31, 1층 (아라일동)",33.45053,126.5583,정좌표
740413,하남집,"제주특별자치도 제주시 청사로3길 1-6, 1층 (도남동)",33.49065,126.5268,정좌표
740414,우도이디중식,"제주특별자치도 제주시 우도면 우도로 193, 1층",33.50922,126.9532,정좌표
740418,미소돈,"제주특별자치도 제주시 선사로8길 20, 1~2층 (삼양일동)",33.52585,126.5878,정좌표
740426,써니킴밥,"제주특별자치도 제주시 수덕11길 1, 1층 (노형동)",33.48799,126.476,정좌표
740461,제주인짬뽕,"제주특별자치도 제주시 지석12길 14, 1층 (삼양이동)",33.51974,126.5841,정좌표
740538,상호네숯불구이,"제주특별자치도 제주시 남광로 146, 1층 (이도이동)",33.49906,126.5497,정좌표
740560,왔다옛날손짜장,제주특별자치도 제주시 문송길 42 (연동),33.48604,126.4971,정좌표
740561,양푼속닭한마리,제주특별자치도 제주시 연동9길 26 (연동),33.49684,126.5011,정좌표
740673,우도향,제주특별자치도 제주시 우도면 우도해안길 848,33.51225,126.9602,정좌표
740678,조실장회센타,제주특별자치도 제주시 고산동산6길 4 (이도이동),33.49501,126.5326,정좌표
740695,율군짬뽕,"제주특별자치도 제주시 천수로 82, 105동 101호 (일도이동, 혜성대유아파트)",33.50566,126.5446,정좌표
740713,땅땅치킨이도초점,제주특별자치도 제주시 구남동2길 48 (이도이동),33.48836,126.5333,정좌표
740719,토대력대학로점,"제주특별자치도 제주시 서광로32길 6 (이도이동,(학사서로 10))",33.49974,126.528,정좌표
740724,본죽앤비빔밥제주노형점,"제주특별자치도 제주시 월랑로 39, 동마빌딩 104호 (노형동)",33.48894,126.4756,정좌표
740748,금하갈비,"제주특별자치도 제주시 오등14길 23 (오등동, 제2호)",33.47317,126.5313,정좌표
740769,나눔마당,"제주특별자치도 제주시 사장길 12, 1층 (연동)",33.48453,126.4955,정좌표
740770,광림본점,제주특별자치도 제주시 전농로 82 (삼도일동),33.50422,126.5217,정좌표
740773,커피트리,"제주특별자치도 제주시 한라대학로 73 (노형동,(한라대학로77))",33.47653,126.4781,정좌표
740777,장가계,제주특별자치도 제주시 다랑곶4길 66 (노형동),33.4911,126.4766,정좌표
740788,오부장치킨노형뜨란체점,제주특별자치도 제주시 정존11길 43 (노형동),33.4869,126.4738,정좌표
740802,곰솔과맹개,"제주특별자치도 제주시 연동3길 33 (연동,(연제2로 45))",33.49739,126.5009,정좌표
740804,물만난고기,제주특별자치도 제주시 다랑곶4길 24 (노형동),33.48875,126.4798,정좌표
740811,굽네치킨도남점,제주특별자치도 제주시 신성로 70 (도남동),33.49526,126.5269,정좌표
740812,불닭공장노형점,제주특별자치도 제주시 원노형6길 19 (노형동),33.48436,126.483,정좌표
740816,고니노형점,"제주특별자치도 제주시 다랑곶4길 2 (노형동,(다랑굿5로4))",33.48749,126.4813,정좌표
740820,곶자왈,"제주특별자치도 제주시 조천읍 비자림로 631, 1층",33.43569,126.6746,정좌표
741114,부가네얼큰이,제주특별자치도 제주시 도남로 27 (도남동),33.49765,126.526,정좌표
741138,외도조개구이,"제주특별자치도 제주시 우령2길 29-5, 101호 (외도일동, 오페라연립)",33.4866,126.4322,정좌표
741146,주식회사,"제주특별자치도 제주시 평전길 13, 1층 (삼도일동)",33.50111,126.5191,정좌표
741152,하루밥,"제주특별자치도 제주시 도근내길 28, 1층 (외도일동)",33.4922,126.434,정좌표
741180,탐라궁,"제주특별자치도 제주시 문송1길 23, 1층 (연동)",33.48819,126.4996,정좌표
741184,헬로우프렌드,제주특별자치도 제주시 과원북2길 64 (연동),33.47871,126.4891,정좌표
741196,오렌지트리,제주특별자치도 제주시 관덕로8길 7-12 (이도일동),33.5123,126.5243,정좌표
741197,쉐프부부,"제주특별자치도 제주시 다랑곶길 15, 103호 (노형동)",33.48773,126.4796,정좌표
741207,태백산제주본점,"제주특별자치도 제주시 도공로 154-12, 1~2층 (이호이동)",33.49474,126.4672,정좌표
741419,문경회센터,"제주특별자치도 제주시 인다7길 10, 1층 (아라일동)",33.47654,126.5453,정좌표
741451,김밥천국이도점,제주특별자치도 제주시 중앙로 348 (이도이동),33.49048,126.5374,정좌표
741538,해루,"제주특별자치도 제주시 지석12길 14, 1층 (삼양이동)",33.51974,126.5841,정좌표
741558,접시고기,"제주특별자치도 제주시 광양13길 18 (이도이동,(1층))",33.49935,126.5323,정좌표
741576,도담치킨서사라점,"제주특별자치도 제주시 서광로13길 22, 1층 (삼도일동)",33.5019,126.5179,정좌표
741579,이노찌,"제주특별자치도 제주시 전농로 77, 1층 (삼도이동)",33.50455,126.5215,정좌표
741604,삼양다맛,"제주특별자치도 제주시 원당로7길 18, 1층 (삼양일동)",33.52711,126.5902,정좌표
741607,정직한통닭중앙점,"제주특별자치도 제주시 중앙로14길 29, 1층 (삼도이동)",33.51093,126.5214,정좌표
741628,신신낙지,제주특별자치도 제주시 문송1길 15 (연동),33.48823,126.499,정좌표
741639,심야식당낭만혼술,"제주특별자치도 제주시 신대로20길 1, 1층 (연동)",33.4835,126.496,정좌표
741655,낭만오름,"제주특별자치도 제주시 정실동1길 4, 1층 (오라이동)",33.46575,126.5146,정좌표
741735,더통큰집,제주특별자치도 제주시 월랑로4길 6 (노형동),33.48788,126.4785,정좌표
741745,맛고을명가,제주특별자치도 제주시 중앙로1길 12 (건입동),33.51607,126.5258,정좌표
741756,미미국수,"제주특별자치도 제주시 삼성로 39, 1층 (일도이동)",33.50668,126.5299,정좌표
741993,함덕감자탕,"제주특별자치도 제주시 조천읍 함덕로 28-1, 1층",33.5421,126.6724,정좌표
742021,손맛촌,제주특별자치도 제주시 조천읍 비자림로 661,33.43732,126.6774,정좌표
742509,시네마,"제주특별자치도 제주시 광양13길 2 (이도이동,(시청남2로2))",33.49855,126.531,정좌표
742537,클라우드베이,"제주특별자치도 제주시 명림로 575-107 (회천동, 고객센타1층104호)",33.449,126.6374,정좌표
742540,조천틈,"제주특별자치도 제주시 조천읍 조천11길 6, 1층",33.53655,126.6373,정좌표
742554,리치망고우도검멀레점,"제주특별자치도 제주시 우도면 우도해안길 1132, 이동 1층",33.49771,126.9677,정좌표
743098,30년일소추어탕,제주특별자치도 제주시 삼무로 74 (연동),33.48958,126.4945,정좌표
743105,돈까스송쉡,"제주특별자치도 제주시 조천읍 조함해안로 538, 2층",33.54242,126.6703,정좌표
743307,뻐꾸기,제주특별자치도 제주시 신성로13길 1 (이도이동),33.49985,126.529,정좌표
743359,백년초식당,제주특별자치도 제주시 원노형로 63-1 (노형동),33.48292,126.485,정좌표
743364,바다어사또,제주특별자치도 제주시 조천읍 조함해안로 478,33.54306,126.664,정좌표
743558,하늘보리,제주특별자치도 제주시 조천읍 선교로 196,33.48614,126.6996,정좌표
743592,명품전통육개장,"제주특별자치도 제주시 원노형로 37, 1층 (노형동)",33.48533,126.4851,정좌표
743625,대풍해장국,"제주특별자치도 제주시 삼봉로 39, 1층 (도련이동)",33.51785,126.589,정좌표
743657,주영,"제주특별자치도 제주시 신설로11길 13, 1층 (아라이동)",33.49231,126.5446,정좌표
743693,범선,"제주특별자치도 제주시 우도면 우도해안길 832, 1층",33.51197,126.9589,정좌표
743742,엄마손,제주특별자치도 제주시 연동3길 35 (연동),33.49739,126.5009,정좌표
744228,장금이,"제주특별자치도 제주시 도공로 35, 1층 (도두일동)",33.5035,126.4664,정좌표
744296,해원담,"제주특별자치도 제주시 선사로 36, 1층 (삼양이동)",33.52477,126.5862,정좌표
744301,파랑도,"제주특별자치도 제주시 서해안로 658 (용담삼동,(서해안로25))",33.51619,126.5072,정좌표
744313,미락칼국수,제주특별자치도 제주시 아연로 120 (오라이동),33.47304,126.5042,정좌표
744322,규태네남녕점,제주특별자치도 제주시 월랑로4길 40 (노형동),33.48972,126.4808,정좌표
744342,아주좋아,제주특별자치도 제주시 신대로16길 34 (연동),33.48711,126.493,정좌표
744376,순풍해장국이도점,제주특별자치도 제주시 남광로2길 43 (이도이동),33.48925,126.54,정좌표
744409,안세미가든,"제주특별자치도 제주시 명림로 175-13, 1호 (봉개동)",33.47189,126.6113,정좌표
744416,서원토종닭,제주특별자치도 제주시 삼성로13길 35 (일도이동),33.50943,126.5338,정좌표
744421,카페인우도,"제주특별자치도 제주시 우도면 우도해안길 1040, 1층",33.50297,126.9678,정좌표
744553,칭다오양꼬치화북점,"제주특별자치도 제주시 동화로 5, 201호 (화북일동)",33.51961,126.5731,정좌표
744566,죽이야기제주연동점,"제주특별자치도 제주시 도령로 73, 108호 (연동)",33.49012,126.4859,정좌표
744576,한끼국수,"제주특별자치도 제주시 광평동로 36, 1층 (노형동)",33.48312,126.4696,정좌표
744590,포동정식시청점,제주특별자치도 제주시 광양11길 20 (이도이동),33.50002,126.5323,정좌표
744639,황토,"제주특별자치도 제주시 오일장서길 26, 6-41호, 6-42호 (도두일동)",33.4968,126.4758,정좌표
744671,하얼빈양꼬치,"제주특별자치도 제주시 신대로16길 42, 2층 (연동)",33.48709,126.4923,정좌표
744673,미루네닭숯불구이삼화점,"제주특별자치도 제주시 건주로4길 14-6, 1층 (도련일동)",33.51635,126.5794,정좌표
744693,별이네국수,"제주특별자치도 제주시 남녕로 39 (노형동,(남녕로 55))",33.49091,126.4803,정좌표
744694,설빙제주시청점,"제주특별자치도 제주시 광양14길 7, 2층 (이도이동)",33.49803,126.5299,정좌표
744726,케이백,"제주특별자치도 제주시 신광로 48 (연동,(신광로66))",33.48778,126.4898,정좌표
744758,신촌불닭발,제주특별자치도 제주시 원노형남1길 35 (노형동),33.48408,126.4843,정좌표
744830,금뽕똘,"제주특별자치도 제주시 번영로 500 (봉개동, (1층, 2층))",33.49015,126.5948,정좌표
744832,탐라국꾼연동점,"제주특별자치도 제주시 도령로13길 9, 104호 (연동)",33.49225,126.4882,정좌표
744834,영자네해장국,제주특별자치도 제주시 진동로 29 (화북일동),33.5216,126.5679,정좌표
744835,황궁쟁반탐라원,"제주특별자치도 제주시 원노형6길 7 (노형동,(원노형3로 11))",33.48536,126.483,정좌표
744906,화북대표술집,제주특별자치도 제주시 진남로6길 12 (화북일동),33.51981,126.5658,정좌표
744912,서울24시,제주특별자치도 제주시 신성로 96 (도남동),33.49632,126.5294,정좌표
744957,소락,"제주특별자치도 제주시 남광로2길 7-17, 1층 (이도이동)",33.49249,126.5385,정좌표
744967,홀스버드,"제주특별자치도 제주시 고마로15길 2, 2층 (일도이동)",33.50674,126.5409,정좌표
744974,삼공주회센터,"제주특별자치도 제주시 진동로 74-6, 1층 (화북일동)",33.52496,126.5682,정좌표
744981,삼공주회센터2호,"제주특별자치도 제주시 진동로 74-6, 2층 (화북일동)",33.52496,126.5682,정좌표
744988,신풍해장국,"제주특별자치도 제주시 동광로16길 1 (일도이동,(동여중4로3))",33.50538,126.5386,정좌표
744989,하오츠,"제주특별자치도 제주시 조천읍 북촌12길 33-3, 2층",33.54672,126.6991,정좌표
745003,화북옛통치킨,제주특별자치도 제주시 진남로6길 12 (화북일동),33.51981,126.5658,정좌표
745013,마켓정정육식당,제주특별자치도 제주시 신설로11길 2-3 (아라이동),33.49145,126.5444,정좌표
745017,설촌명가,제주특별자치도 제주시 설촌로 11 (삼양이동),33.52241,126.5813,정좌표
745025,촌뜨기화로구이,제주특별자치도 제주시 도남로 117 (도남동),33.49012,126.529,정좌표
745104,섬라왕갈비탕,"제주특별자치도 제주시 중앙로 606-4, 1층 (아라일동)",33.46962,126.5463,정좌표
745105,빨간맛집함덕점,"제주특별자치도 제주시 조천읍 함덕13길 4, 2층",33.54165,126.6679,정좌표
745201,달소금,제주특별자치도 제주시 성신로1길 22 (연동),33.49156,126.4879,정좌표
745202,외도용국수,제주특별자치도 제주시 수정2길 10 (외도일동),33.49243,126.4279,정좌표
745227,고니식당,"제주특별자치도 제주시 아란7길 3-7, 101호 (아라일동)",33.47376,126.5451,정좌표
745262,치맥집,"제주특별자치도 제주시 서사로 133, 1층 (삼도일동)",33.50035,126.52,정좌표
745272,루스트플레이스아이파크점,"제주특별자치도 제주시 노형8길 9, 2~3층 (노형동)",33.48427,126.4781,정좌표
745361,연대토종닭,"제주특별자치도 제주시 연대마을길 11-4, 1층 (외도이동)",33.49293,126.4267,정좌표
745366,황금족발,제주특별자치도 제주시 일주동로 386-1 (삼양이동),33.52101,126.5863,정좌표
745370,오양손칼국수,제주특별자치도 제주시 공설로9길 1 (오라일동),33.49698,126.5182,정좌표
745399,이화닭발1979,제주특별자치도 제주시 신대로14길 42 (연동),33.48796,126.4921,정좌표
745419,이만갑,제주특별자치도 제주시 남광로2길 43-4 (이도이동),33.48924,126.5405,정좌표
745437,한잔의추억,"제주특별자치도 제주시 남성로 40, 1층 (용담일동)",33.50383,126.5133,정좌표
745441,동해,제주특별자치도 제주시 조천읍 신북로 486,33.54305,126.662,정좌표
745621,미도횟집,"제주특별자치도 제주시 관덕로14길 12, 1층 (이도일동)",33.51213,126.5261,정좌표
745639,그리다앤쿡,"제주특별자치도 제주시 신성로 111, 3층 (이도이동)",33.49749,126.5306,정좌표
745708,넉넉한밥상,"제주특별자치도 제주시 인다5길 12-21, 1층 (아라일동, 행복한집17)",33.4757,126.5457,정좌표
745719,노형순창,제주특별자치도 제주시 진군3길 1 (노형동),33.47749,126.4806,정좌표
745729,엘리와젬마의치킨스토리,"제주특별자치도 제주시 서광로29길 13, 1층 (이도일동)",33.50145,126.5264,정좌표
745737,함덕뚝배기,제주특별자치도 제주시 조천읍 조함해안로 538,33.54242,126.6703,정좌표
745973,노가리앤비어노형점,제주특별자치도 제주시 월랑로10길 21 (노형동),33.49031,126.4776,정좌표
745976,김서방재첩해장국,제주특별자치도 제주시 원노형6길 27 (노형동),33.48367,126.483,정좌표
746129,바르다김선생삼화점,"제주특별자치도 제주시 건주로 37, 1층 (도련일동)",33.51611,126.581,정좌표
746207,죠스떡볶이삼화점,"제주특별자치도 제주시 화삼로 19, 1층 (화북일동)",33.51444,126.5752,정좌표
746221,사계절국수,"제주특별자치도 제주시 조천읍 남조로 2115, 2동 1층",33.45444,126.6618,정좌표
747117,옛날아우내순대제대점,제주특별자치도 제주시 산천단동2길 15 (아라일동),33.44931,126.5582,정좌표
747132,올레예촌국수,"제주특별자치도 제주시 가령로 46, 101호 (이도이동, 대유맨션)",33.50021,126.5362,정좌표
747142,스쿨아이,제주특별자치도 제주시 구남로2길 12 (이도이동),33.48811,126.533,정좌표
747150,서희원꼬지닷컴동문점,제주특별자치도 제주시 동문로 55 (건입동),33.51348,126.5326,정좌표
747151,카페쏘해피,"제주특별자치도 제주시 서광로13길 32, 1층 (삼도일동)",33.50289,126.518,정좌표
747423,확끌리네,"제주특별자치도 제주시 도남로15길 18, 104호 (도남동,고덕쉐르빌)",33.49154,126.5302,정좌표
747425,목포세발낙지,제주특별자치도 제주시 중앙로 21-1 (건입동),33.51628,126.5251,정좌표
747427,삼번지,"제주특별자치도 제주시 서해안로 350 (도두이동,(서해안로347))",33.51028,126.4825,정좌표
747446,옥이네복돼지,제주특별자치도 제주시 삼무로 11-1 (연동),33.49045,126.488,정좌표
747451,호맥,제주특별자치도 제주시 은남3길 34 (연동),33.48755,126.4923,정좌표
747467,해락원2호점,제주특별자치도 제주시 중앙로24길 5 (삼도이동),33.50643,126.5242,정좌표
747468,서울뚝배기,제주특별자치도 제주시 아연로 10 (연동),33.48075,126.4966,정좌표
747484,황금숯불닭갈비,제주특별자치도 제주시 월랑로10길 25 (노형동),33.49059,126.4779,정좌표
747485,만리장성,"제주특별자치도 제주시 신대로20길 56 (연동,(사장4로86))",33.48393,126.4904,정좌표
747660,이모네보리밥집,제주특별자치도 제주시 월랑로6길 42 (노형동),33.49064,126.4803,정좌표
747684,금요일의아침조금,"제주특별자치도 제주시 가령골1길 12, 1층 (이도이동)",33.50308,126.5374,정좌표
747688,새마을식당제주연동점,"제주특별자치도 제주시 신대로14길 52, 1층 (연동)",33.48807,126.491,정좌표
747690,국수정복,"제주특별자치도 제주시 탑동로13길 27, 1층 (삼도이동)",33.51685,126.5194,정좌표
747693,훈이네찌개,"제주특별자치도 제주시 광양8길 11, 1층 (이도이동)",33.4998,126.5284,정좌표
747694,중국성,"제주특별자치도 제주시 서광로11길 36, 1층 (삼도일동)",33.50308,126.5168,정좌표
748282,우도해장국밥,제주특별자치도 제주시 우도면 우도로 183,33.50837,126.9532,정좌표
748285,오일장미옥이네,제주특별자치도 제주시 월랑로4길 35 (노형동),33.48973,126.4804,정좌표
748288,제라진뚝배기갈비찜,"제주특별자치도 제주시 도공로 25-1, 102호 (도두일동)",33.50449,126.4658,정좌표
748292,피플,"제주특별자치도 제주시 조천읍 신촌북3길 58, 1층",33.53796,126.6138,정좌표
750564,큰맘할매순대국제주외도점,"제주특별자치도 제주시 우정로 26, 가동 1층 (외도일동)",33.49052,126.4306,정좌표
750574,서부회센타,"제주특별자치도 제주시 논세길 46, 1층 (내도동)",33.48939,126.4414,정좌표
750593,아마츄어,제주특별자치도 제주시 연삼로 436 (이도이동),33.49701,126.5375,정좌표
750594,꽃마름제주이도점,"제주특별자치도 제주시 승천로 73, 3층 (아라이동)",33.49243,126.543,정좌표
750637,본초불닭발제대점,"제주특별자치도 제주시 산천단동2길 15, 2층 (아라일동)",33.44931,126.5582,정좌표
750638,소랑호젠인제주,"제주특별자치도 제주시 서해안로 354, 2층 (도두이동)",33.51046,126.4829,정좌표
750691,고서방짬뽕,"제주특별자치도 제주시 인다5길 11-5, 1층 (아라일동)",33.47595,126.5482,정좌표
750785,평창메밀막국수외도,"제주특별자치도 제주시 우령2길 29-5, 상가동 102호 (외도일동, 오페라연립)",33.4866,126.4322,정좌표
750789,올드레코드,"제주특별자치도 제주시 광양13길 6-3, 2층 (이도이동)",33.49864,126.5315,정좌표
750791,탁탁,"제주특별자치도 제주시 동광로6길 29-1, 1층 (이도이동)",33.49969,126.5334,정좌표
750797,세숫대야냉면,"제주특별자치도 제주시 진군길 1-7 (노형동,(제일고길6))",33.48058,126.4813,정좌표
750869,스시나미,"제주특별자치도 제주시 승천로 81, 지하1층 (아라이동, 제1호)",33.4918,126.5436,정좌표
750908,엄마공간,제주특별자치도 제주시 조천읍 함덕13길 4,33.54165,126.6679,정좌표
751320,함덕흑돼지연탄구이,"제주특별자치도 제주시 조천읍 신북로 535, 1층",33.54171,126.667,정좌표
751606,황가네뚝배기,제주특별자치도 제주시 삼무로11길 24 (연동),33.49156,126.4958,정좌표
751641,뉴청석골칡냉면전문,제주특별자치도 제주시 조천읍 신북로 222,33.53573,126.6367,정좌표
751659,로컬,"제주특별자치도 제주시 신성로13길 31, 4층 (이도이동)",33.49762,126.5305,정좌표
751660,소망식당,제주특별자치도 제주시 조천읍 신북로 39,33.53289,126.6186,정좌표
751662,덩,"제주특별자치도 제주시 월랑북길 42 (노형동,(서중로11))",33.49296,126.4773,정좌표
751663,돈드림,"제주특별자치도 제주시 조천읍 함덕19길 7, 1층",33.54111,126.6702,정좌표
751713,푸주옥오라점,제주특별자치도 제주시 오라로 140 (오라일동),33.49432,126.5174,정좌표
751766,파스쿠찌제주도남점,"제주특별자치도 제주시 연북로 444, 2호 (도남동)",33.48022,126.5291,정좌표
751797,오태식해바라기치킨봉개점,"제주특별자치도 제주시 봉개서길 7-6, 1층 (봉개동)",33.49137,126.5905,정좌표
751802,정박사본점,"제주특별자치도 제주시 성신로 13-10, 1층 (연동)",33.49067,126.4847,정좌표
751838,사라봉주물럭,"제주특별자치도 제주시 사라봉길 7, 1층 제1호 (건입동)",33.51467,126.5393,정좌표
751846,크라운호프도남점,"제주특별자치도 제주시 청사로 85, 102호 (도남동)",33.49028,126.5277,정좌표
751870,불타는차돌쭈꾸미,제주특별자치도 제주시 신설로7길 2 (아라이동),33.49214,126.5436,정좌표
751880,비만고양이,"제주특별자치도 제주시 신성로13길 31, 3층 (이도이동)",33.49762,126.5305,정좌표
751885,맨도롱또똣,"제주특별자치도 제주시 조천읍 와선로 9, 1층",33.49035,126.6828,정좌표
751945,연북로명태명가삼화점,"제주특별자치도 제주시 건주로 43, 2층 (도련일동)",33.51562,126.581,정좌표
752016,라돌체비타,"제주특별자치도 제주시 구남로8길 8, 1층 (이도이동)",33.4908,126.5362,정좌표
752021,맛있는소리,"제주특별자치도 제주시 진동로 6, 1층 (화북일동)",33.51961,126.5689,정좌표
752105,신수성,"제주특별자치도 제주시 남광북1길 39, 1층 (이도이동)",33.49666,126.5374,정좌표
752112,교촌치킨일도점,제주특별자치도 제주시 고마로 95 (일도이동),33.50596,126.5413,정좌표
752122,제주흑돼지본점고기가자,"제주특별자치도 제주시 노형13길 16, 1층 (노형동)",33.48256,126.4783,정좌표
752126,아란구길,"제주특별자치도 제주시 아란9길 6-3, 1층 (아라일동)",33.47281,126.5448,정좌표
752129,산지해장국아라점,"제주특별자치도 제주시 아란9길 15, 1층 (아라일동)",33.47235,126.5437,정좌표
752165,국수먹고가게,"제주특별자치도 제주시 흥운길 54, 101호 (용담이동)",33.51332,126.5132,정좌표
752193,추자숙이네밥상,제주특별자치도 제주시 월랑로4길 6 (노형동),33.48788,126.4785,정좌표
752199,까투리월랑점,제주특별자치도 제주시 월랑로4길 6 (노형동),33.48788,126.4785,정좌표
752200,돈맛,제주특별자치도 제주시 고산동산5길 30 (이도이동),33.49675,126.5356,정좌표
752201,싱싱쌈촌,"제주특별자치도 제주시 정원로 49, 1층 (노형동)",33.47752,126.4777,정좌표
752211,푸른소금,제주특별자치도 제주시 천수로6길 6 (이도이동),33.50269,126.5417,정좌표
752212,스와니호프하우스,"제주특별자치도 제주시 노형11길 19-4, 1층 (노형동)",33.48297,126.4781,정좌표
752214,부가네얼큰이노형점,"제주특별자치도 제주시 월랑북길 26, 101호 (노형동)",33.49174,126.4766,정좌표
752224,산들바람,제주특별자치도 제주시 조천읍 선교로 44,33.48761,126.715,정좌표
752246,천족마족,제주특별자치도 제주시 다랑곶길 38 (노형동),33.48887,126.4817,정좌표
752249,명도암정식,"제주특별자치도 제주시 명림로 218, 1층 (봉개동)",33.46769,126.6106,정좌표
752281,가마치통닭용담점,"제주특별자치도 제주시 서문로 21, A동 (용담일동)",33.51026,126.5136,정좌표
752287,제주귤품은흑돼지전문점제주공항점,"제주특별자치도 제주시 도두항서길 42, 2층 (도두일동)",33.50637,126.4639,정좌표
753401,삼화포크,제주특별자치도 제주시 건주로4길 12 (도련일동),33.51601,126.5795,정좌표
753417,내아이가먹는족발,"제주특별자치도 제주시 우령2길 28, 1층 (외도일동)",33.48676,126.4314,정좌표
753422,산지해장국,"제주특별자치도 제주시 임항로 34, 1층 (건입동)",33.51636,126.5285,정좌표
758054,가령골오리,"제주특별자치도 제주시 인다8길 38, 1층 (아라일동)",33.47616,126.5489,정좌표
758069,샐러데이즈제주시청점,제주특별자치도 제주시 중앙로 214 (이도이동),33.50024,126.5291,정좌표
758077,키친요디,"제주특별자치도 제주시 동화로1길 53-13, 1층 (화북일동)",33.51784,126.5777,정좌표
758181,세미식당,"제주특별자치도 제주시 조천읍 번영로 1208, 1층",33.46924,126.6638,정좌표
758231,탕탕이,제주특별자치도 제주시 천수로 39 (일도이동),33.5032,126.5412,정좌표
758232,제주앤스시,"제주특별자치도 제주시 고산동산5길 3-4, 1층 (이도이동)",33.49608,126.5335,정좌표
758248,서가앤쿡제주점,"제주특별자치도 제주시 서부두2길 26, 1~2층 (건입동)",33.51738,126.5275,정좌표
758331,집밥홍선생,"제주특별자치도 제주시 진군1길 6, 1층 (노형동)",33.47913,126.4813,정좌표
758338,미소벙커,"제주특별자치도 제주시 관덕로 41, 지하1층 (일도일동)",33.51341,126.5238,정좌표
758343,명태어가,"제주특별자치도 제주시 도령로 46, 1층,2층 (노형동)",33.48828,126.4838,정좌표
758346,황금무지개뜨는곳,제주특별자치도 제주시 원당로5길 36 (삼양일동),33.52682,126.5882,정좌표
758440,손두부촌,"제주특별자치도 제주시 오복4길 9, 지하1층 (이도이동)",33.49551,126.5367,정좌표
758454,삼성혈분식,"제주특별자치도 제주시 오현길 9, 지하1층 지102호 (이도일동)",33.5064,126.5272,정좌표
758463,춤추는식탁,"제주특별자치도 제주시 우정로7길 6, 1층 (외도일동)",33.48906,126.4318,정좌표
758491,홍대더브릿지,"제주특별자치도 제주시 광양8길 4, 2층 (이도이동)",33.50012,126.5289,정좌표
758501,광명식당,제주특별자치도 제주시 동문로4길 9 (일도일동),33.51209,126.5282,정좌표
759113,허니비어노형점,"제주특별자치도 제주시 노형로 407, 5층 517호 (노형동)",33.48582,126.4783,정좌표
759121,일공공샤브제주연동점,제주특별자치도 제주시 연북로 86 (연동),33.48151,126.4904,정좌표
759158,청년다방제주삼화지구점,"제주특별자치도 제주시 화삼북로 40, 1층 (화북일동)",33.5171,126.5771,정좌표
759199,황금돼지등갈비,"제주특별자치도 제주시 남녕로 5-5, 101호 (노형동)",33.48833,126.4825,정좌표
759215,처갓집양념치킨일도점,"제주특별자치도 제주시 고마로19길 41, 1층 (일도이동)",33.50697,126.5448,정좌표
759218,류빈,"제주특별자치도 제주시 구남로6길 12, 1층 (이도이동)",33.48921,126.5345,정좌표
759247,미풍해장국아라점,"제주특별자치도 제주시 아란7길 26, 1층 (아라일동)",33.47458,126.5427,정좌표
759272,교촌치킨도두해안도로점,"제주특별자치도 제주시 서해안로 160-1, 1층 (도두일동)",33.50378,126.4662,정좌표
759321,짬뽕바나나,"제주특별자치도 제주시 남광로 44, 1층 (이도이동)",33.49407,126.5402,정좌표
759346,또만나,"제주특별자치도 제주시 서광로2길 35, 1층 (오라일동)",33.49857,126.5147,정좌표
759358,맛있는이가국수집,"제주특별자치도 제주시 우령6길 63-2, 1층 (외도일동)",33.48539,126.4292,정좌표
759376,빨간맛집아라점,"제주특별자치도 제주시 중앙로 556, 2층 (아라일동)",33.47399,126.5453,정좌표
759399,제주포차,"제주특별자치도 제주시 신성로13길 16, 2~3층 (이도이동)",33.49871,126.5295,정좌표
759403,제주정낭집,제주특별자치도 제주시 지석11길 6 (삼양이동),33.52173,126.5845,정좌표
759462,마녀김밥,제주특별자치도 제주시 오현길 16 (이도일동),33.50679,126.5276,정좌표
759463,아일랜드스푼,제주특별자치도 제주시 구남동4길 10-12 (이도이동),33.48901,126.5363,정좌표
759476,그린기사,제주특별자치도 제주시 일주서로 7892 (연동),33.49363,126.4898,정좌표
759494,동문김밥,제주특별자치도 제주시 중앙로 85 (이도일동),33.51072,126.5242,정좌표
759502,돈놓고돈먹기,"제주특별자치도 제주시 남광로 138, 1층 (이도이동)",33.49874,126.5488,정좌표
759511,타이니,제주특별자치도 제주시 광양10길 6 (이도이동),33.4993,126.5294,정좌표
759517,조가네갑오징어신제주점,제주특별자치도 제주시 원노형남1길 45-1 (노형동),33.48419,126.4853,정좌표
759549,고돔,"제주특별자치도 제주시 테우해안로 148, 지하1층 (이호일동)",33.49709,126.4495,정좌표
759567,요기,"제주특별자치도 제주시 전농로 3, 101호 (용담일동)",33.50463,126.5137,정좌표
759729,대학로참닭갈비,"제주특별자치도 제주시 일주동로 254, 1층 (화북일동)",33.51987,126.5725,정좌표
759741,용팔이막창아라점,제주특별자치도 제주시 중앙로 601 (아라일동),33.47017,126.5465,정좌표
759748,오지하우스신제주점,"제주특별자치도 제주시 월랑로 43, 1층 (노형동)",33.48913,126.4754,정좌표
759835,고추잡채와소파,"제주특별자치도 제주시 동광로2길 3, 3층 (이도이동)",33.50094,126.5306,정좌표
759837,스시테이카이센동,"제주특별자치도 제주시 연북로 440, 2동 1층 (도남동)",33.48046,126.5282,정좌표
759890,차돌집노형점,"제주특별자치도 제주시 다랑곶7길 24, 1층 (노형동)",33.49078,126.4801,정좌표
759895,고래힘줄,"제주특별자치도 제주시 조천읍 신촌북3길 3, 1층",33.5372,126.6187,정좌표
759969,소보록,제주특별자치도 제주시 도근내길 27 (외도이동),33.4925,126.434,정좌표
759974,함덕해물라면오빠집,"제주특별자치도 제주시 조천읍 평사길 2, 1층",33.54286,126.6727,정좌표
760492,뷰타워리조트,"제주특별자치도 제주시 서해안로 346-9, 1층 (도두이동)",33.50959,126.482,정좌표
760501,동카름,"제주특별자치도 제주시 조천읍 신촌9길 40-3, 1층",33.53783,126.6234,정좌표
760729,아비앙또,"제주특별자치도 제주시 우도면 우도해안길 1100, 1층",33.49876,126.97,정좌표
760749,이돈갓시청점,"제주특별자치도 제주시 광양14길 9, 3층 (이도이동)",33.49794,126.5297,정좌표
760789,창석이네,"제주특별자치도 제주시 국기로2길 8 (연동,(국기3로8))",33.47991,126.4906,정좌표
760791,별오름,"제주특별자치도 제주시 1100로 3213-27, B201호 (노형동)",33.47601,126.4815,정좌표
761271,강쉐프,"제주특별자치도 제주시 정든로 39, 1층 (이도이동)",33.49766,126.5427,정좌표
761280,인생곱창,"제주특별자치도 제주시 남광로 72, 1층 (이도이동)",33.4956,126.5428,정좌표
761338,가르텐노형점,제주특별자치도 제주시 월랑로10길 2 (노형동),33.48903,126.4766,정좌표
761340,204유부당,"제주특별자치도 제주시 진군길 52, 1층 (노형동)",33.47727,126.4807,정좌표
761344,도남앤횟집,"제주특별자치도 제주시 도남로 49, 1층 (도남동)",33.49601,126.5271,정좌표
761364,탐나버거,"제주특별자치도 제주시 아연로 438-13, 1층 (오등동)",33.4738,126.5277,정좌표
761487,마미식당동태전문점,"제주특별자치도 제주시 오복2길 31, 1층 (이도이동)",33.49335,126.537,정좌표
761497,우도자연,제주특별자치도 제주시 우도면 우도해안길 602,33.52442,126.9525,정좌표
761611,삼도오리삼계,"제주특별자치도 제주시 남성로4길 10, 1층 (용담일동)",33.502,126.5141,정좌표
761614,봉추반점,제주특별자치도 제주시 우도면 우도로 174,33.50789,126.9543,정좌표
761655,소문난두루치기,"제주특별자치도 제주시 우정로 17, 101호 (외도일동)",33.49121,126.4312,정좌표
761658,양,제주특별자치도 제주시 원노형6길 3-8 (노형동),33.48532,126.4837,정좌표
761666,대성아귀찜,"제주특별자치도 제주시 조천읍 함덕3길 4, 1층",33.5443,126.6579,정좌표
761828,계절식탁,"제주특별자치도 제주시 신성로13길 13-1, 2층 (이도이동)",33.49895,126.5296,정좌표
761847,쿤도,"제주특별자치도 제주시 화삼로1길 17, 1층 (화북일동)",33.51476,126.5739,정좌표
761851,한량마초,"제주특별자치도 제주시 아봉로 47, 1층 (아라이동)",33.47769,126.5488,정좌표
761857,제주어장,제주특별자치도 제주시 동한두기길 23 (용담일동),33.51687,126.5155,정좌표
761897,홍열이네시청점,"제주특별자치도 제주시 광양10길 9-2, 1~2층 (이도이동)",33.49885,126.5292,정좌표
761915,도연식당,"제주특별자치도 제주시 고마로18길 4, 1층 (일도이동)",33.50458,126.541,정좌표
761939,노가리앤비어인제점,제주특별자치도 제주시 고마로 128 (이도이동),33.50303,126.5421,정좌표
761946,군자대한곱창제주시청점,제주특별자치도 제주시 광양10길 15 (이도이동),33.49865,126.5286,정좌표
761968,태화뷔페정식,제주특별자치도 제주시 우정로6길 28 (외도일동),33.49048,126.428,정좌표
761976,소노벨제주비비큐2호점,"제주특별자치도 제주시 조천읍 신북로 577, 본관동 164호",33.54103,126.6711,정좌표
761984,팍차이나,"제주특별자치도 제주시 승천로 66, 1층 (아라이동)",33.49271,126.5421,정좌표
762058,블랙데이,"제주특별자치도 제주시 만덕로 23-2, 1층 (건입동)",33.51435,126.5321,정좌표
762102,곤밥2,제주특별자치도 제주시 서부두남길 8 (일도일동),33.51485,126.5277,정좌표
762467,돈사무소,"제주특별자치도 제주시 구남로 44, 1층 (이도이동)",33.49061,126.5348,정좌표
762509,요술식탁,"제주특별자치도 제주시 관덕로6길 10, 1층 (삼도이동)",33.51211,126.5219,정좌표
762701,스시러브,제주특별자치도 제주시 절물1길 25 (외도일동),33.49063,126.4317,정좌표
762708,바로족발보쌈,제주특별자치도 제주시 진군1길 25 (노형동),33.47887,126.4794,정좌표
762820,한림칼국수 제주공항점,"제주특별자치도 제주시 광평중길 82, 1층 (노형동)",33.47896,126.4676,정좌표
763121,까망고띠,"제주특별자치도 제주시 조천읍 와선로 254, 1층",33.48496,126.6996,정좌표
763141,귀아낭,"제주특별자치도 제주시 선덕로 22, 101호 (연동)",33.48543,126.499,정좌표
763149,이왕돈까스,"제주특별자치도 제주시 제주대학로7길 9, 2층 (아라이동)",33.46076,126.561,정좌표
763174,꾸브라꼬숯불두마리치킨,"제주특별자치도 제주시 동광로9길 8, 1층 101호 (이도일동, 건영빌라)",33.50341,126.5333,정좌표
763366,해바라기,"제주특별자치도 제주시 중앙로 214 (이도이동,(1층))",33.50024,126.5291,정좌표
764878,24시전주명가콩나물국밥,제주특별자치도 제주시 구산로 59 (아라일동),33.48494,126.5408,정좌표
767662,소원이,"제주특별자치도 제주시 아연로 306, 1층 (오등동)",33.46667,126.5201,정좌표
767668,잘도식당,"제주특별자치도 제주시 중앙로15길 16, 1층 (이도일동)",33.51072,126.5254,정좌표
767720,한라산뼈해장국,"제주특별자치도 제주시 서광로2길 11-24, 1층 (오라일동)",33.49864,126.5139,정좌표
767740,서서방숯불닭갈비아라점,"제주특별자치도 제주시 아란7길 3-3, 1층 103호 (아라일동)",33.47404,126.5451,정좌표
767855,활어천국,"제주특별자치도 제주시 서광로20길 31, 1층 (도남동)",33.49698,126.5219,정좌표
767859,쿰다카페,"제주특별자치도 제주시 노형로 21, 1층 (해안동)",33.4622,126.4497,정좌표
767926,인자숯불갈비,"제주특별자치도 제주시 원남6길 54, 1층 (도남동)",33.48462,126.5297,정좌표
767961,무한질주,"제주특별자치도 제주시 광양10길 5, 2층 (이도이동)",33.49913,126.5295,정좌표
767967,79대포제주일도점,"제주특별자치도 제주시 천수로8길 1, 1층 (일도이동)",33.50263,126.5431,정좌표
767985,골목돼지,"제주특별자치도 제주시 원노형7길 3, 1층 (노형동)",33.48725,126.4834,정좌표
768008,정순대국밥,"제주특별자치도 제주시 우정로10길 4, 1층 (외도일동)",33.48888,126.4303,정좌표
768032,제주초밥,"제주특별자치도 제주시 신형로 19, 1층 (노형동)",33.48255,126.4775,정좌표
768094,우디집,"제주특별자치도 제주시 동광로 97, 1층 102호 (일도이동, 이룸해피안)",33.50568,126.5378,정좌표
768128,카페다미,"제주특별자치도 제주시 승천로 5, 2층 (이도이동)",33.49723,126.5386,정좌표
769408,마라청춘,"제주특별자치도 제주시 중앙로 201, 2층 (이도일동)",33.50157,126.5287,정좌표
769418,전이좋아,"제주특별자치도 제주시 수덕9길 86-2, 1층 (노형동)",33.48306,126.47,정좌표
769420,힐링푸드,"제주특별자치도 제주시 월랑로2길 22, 1층 101호 (노형동, 경인원룸)",33.48788,126.4812,정좌표
769432,펄호텔제주,"제주특별자치도 제주시 신대로20길 49, 제주펄호텔 1층 (연동)",33.48355,126.4909,정좌표
769481,용달통닭삼도점,"제주특별자치도 제주시 서사로 101, 1층 (삼도일동)",33.50331,126.5201,정좌표
769491,홍익돈까스제주점,"제주특별자치도 제주시 중앙로 501, 1층 (아라이동)",33.47848,126.5443,정좌표
769567,담아래,"제주특별자치도 제주시 수목원길 23, 1층 (연동)",33.46941,126.4873,정좌표
769697,와니피자치킨,"제주특별자치도 제주시 남성로4길 4, 1층 (용담일동)",33.50199,126.5136,정좌표
769707,작은카페,"제주특별자치도 제주시 칠성로길 30-1, 1,2층 (일도일동)",33.51439,126.5261,정좌표
769713,신이내린닭제주시청점,"제주특별자치도 제주시 광양4길 2, 2층 (이도일동)",33.50177,126.5279,정좌표
769727,제주맛집칼국수,"제주특별자치도 제주시 조천읍 비자림로 685, 1층",33.43704,126.6791,정좌표
769961,퀴즈노스서브제주화북점,"제주특별자치도 제주시 동화로 10, 1층 (화북일동)",33.51918,126.5726,정좌표
770007,라화쿵부제주점,"제주특별자치도 제주시 연동3길 37, 2층 (연동)",33.49739,126.5009,정좌표
770112,곰표반점,"제주특별자치도 제주시 화삼북로 63, 삼화빌딩 2층 201호 (삼양이동)",33.5175,126.5799,정좌표
770122,가영이네횟집,"제주특별자치도 제주시 성지로 46-1, 1층 (일도일동)",33.51068,126.5283,정좌표
770140,부영식당,"제주특별자치도 제주시 조천읍 신흥관전길 60-1, 1층",33.54615,126.6495,정좌표
770876,브라보유어라이프,"제주특별자치도 제주시 제주대학로 77, 1층 (아라일동)",33.45934,126.5585,정좌표
771052,정든반점,"제주특별자치도 제주시 정존11길 68, 상가동 101호 (노형동, 정든마을3단지)",33.48878,126.4722,정좌표
771056,몽돌,"제주특별자치도 제주시 우정로5길 10, 1층 (외도일동)",33.49017,126.4319,정좌표
771093,제주골목국수,"제주특별자치도 제주시 신성로 42-1, 1층 (도남동)",33.49599,126.5239,정좌표
771115,성미가든2,"제주특별자치도 제주시 조천읍 교래1길 2, 1층",33.43775,126.6768,정좌표
771435,일품순두부일도점,"제주특별자치도 제주시 연신로 19, 1층 (일도이동)",33.49914,126.5452,정좌표
771453,외도사랑국수,"제주특별자치도 제주시 우정로13길 14, 1층 (외도일동)",33.4869,126.4324,정좌표
771477,중종,"제주특별자치도 제주시 연오로 39, 1층 (오라삼동)",33.48975,126.502,정좌표
771510,용은이네솥뚜껑오겹살,"제주특별자치도 제주시 연삼로 535, 1층 (일도이동)",33.50219,126.546,정좌표
771518,바삭한하루,"제주특별자치도 제주시 박성내서길 10, 1층 (이도이동)",33.49199,126.5411,정좌표
771549,옹기밥상,"제주특별자치도 제주시 미리내길 171-4, 1층 (노형동)",33.45046,126.4814,정좌표
771590,흑본오겹함덕점,"제주특별자치도 제주시 조천읍 신북로 454, 1층",33.54364,126.6587,정좌표
772384,티바두마리치킨삼화점,"제주특별자치도 제주시 건주로 66, 1층 107호 (도련일동)",33.51353,126.5803,정좌표
772400,우돈향,"제주특별자치도 제주시 조천읍 조함해안로 530, 2층",33.54249,126.6695,정좌표
772832,영심이네집밥,"제주특별자치도 제주시 인다10길 27, 강호체육관 1층 (아라일동)",33.4746,126.5486,정좌표
772854,연동신도시식당,"제주특별자치도 제주시 국기중길 28, 1층 (연동)",33.47884,126.4922,정좌표
772998,우향2호점,"제주특별자치도 제주시 산천단동2길 13, 1층 102호 (아라일동)",33.44919,126.5582,정좌표
773022,민속감자탕,"제주특별자치도 제주시 삼무로9길 26, 1층 (연동)",33.49145,126.4945,정좌표
773398,가치,"제주특별자치도 제주시 동한두기길 17, 1층 (용담일동)",33.51645,126.5158,정좌표
773524,신해조,제주특별자치도 제주시 임항로 38-4 (건입동),33.5163,126.5289,정좌표
773565,함덕마당,"제주특별자치도 제주시 조천읍 조함해안로 586, 1층",33.544,126.6742,정좌표
774325,광양왕소금깡통구이,"제주특별자치도 제주시 광양13길 13 (이도이동,(시청남2로21))",33.49922,126.5317,정좌표
774349,해산물포차,제주특별자치도 제주시 서광로32길 23 (이도이동),33.49859,126.5291,정좌표
774357,제주앞바다해물탕,제주특별자치도 제주시 동한두기길 29 (용담일동),33.51688,126.5154,정좌표
774443,바닷가식당,"제주특별자치도 제주시 서부두길 10-4, 1층 (건입동)",33.51686,126.5281,정좌표
774635,금성해장국,제주특별자치도 제주시 화남로 62 (화북일동),33.51244,126.5633,정좌표
774651,태을갈비,제주특별자치도 제주시 진군중길 12 (노형동),33.47792,126.4793,정좌표
774692,닥그네할망,"제주특별자치도 제주시 신성로10길 18 (도남동,(1층))",33.49528,126.53,정좌표
775146,돈오름숯불갈비,"제주특별자치도 제주시 신대로12길 33, 1층 (연동)",33.48856,126.493,정좌표
775183,목동그릴식당,제주특별자치도 제주시 관덕로13길 3 (일도일동),33.51348,126.5258,정좌표
775193,통큰아줌마순대국밥,"제주특별자치도 제주시 다랑곶4길 35, 1층 (노형동)",33.48922,126.4788,정좌표
775209,유끼,"제주특별자치도 제주시 은남2길 32 (연동,(연중3로23))",33.48844,126.4924,정좌표
775211,대선,"제주특별자치도 제주시 신대로12길 37 (연동,(연중2로53))",33.48855,126.4926,정좌표
775231,버무리떡볶이연동점,"제주특별자치도 제주시 국기로 14, 107호 (연동)",33.48055,126.4896,정좌표
775257,신영돌판구이,제주특별자치도 제주시 신대로15길 2 (연동),33.4866,126.4971,정좌표
775289,뜰향기,제주특별자치도 제주시 조천읍 남조로 2326,33.47301,126.6589,정좌표
775541,천지연무태장어천지연,제주특별자치도 제주시 연삼로 461 (이도이동),33.49869,126.5394,정좌표
775555,청년다방연동점,"제주특별자치도 제주시 성신로1길 25, 1층 (연동)",33.49207,126.4881,정좌표
775589,어부지리,"제주특별자치도 제주시 선사로8길 85, 1층 (삼양일동)",33.52965,126.5929,정좌표
776389,요기소바,"제주특별자치도 제주시 원노형6길 3-4, 1층 (노형동)",33.48543,126.4833,정좌표
776486,스시도모다찌칠성점,"제주특별자치도 제주시 관덕로13길 3, 1층 (일도일동)",33.51348,126.5258,정좌표
776687,관심사,"제주특별자치도 제주시 중앙로 77, 지하1층 (이도일동)",33.51124,126.5246,정좌표
776723,남가네설악추어탕도남점,"제주특별자치도 제주시 도남로 102, 1층 (도남동)",33.49147,126.5281,정좌표
776743,세화달팽이,"제주특별자치도 제주시 남광로 19, 1층 (이도이동)",33.49321,126.538,정좌표
776755,아라가야,"제주특별자치도 제주시 도남로16길 15, 1층 102호 (도남동, 재영샤르빌)",33.49155,126.5269,정좌표
776807,투접시족발일도점,"제주특별자치도 제주시 천수로 68, 신천지아파트 113동 1층 111호 (일도이동)",33.50478,126.5435,정좌표
776811,대한축산정육식당,"제주특별자치도 제주시 도남로 51, 1층 (도남동)",33.49572,126.5275,정좌표
776839,2월22일(Twenty second of February),"제주특별자치도 제주시 오라로18길 10-1, 1층 (오라일동)",33.49411,126.5172,정좌표
776878,콧수염양꼬치,"제주특별자치도 제주시 성신로1길 30, 2층 (연동)",33.49202,126.4885,정좌표
776902,이치진,"제주특별자치도 제주시 건주로 66, 1층 101호 (도련일동)",33.51353,126.5803,정좌표
777726,예산가마솥장수촌설렁탕신제주점,"제주특별자치도 제주시 연동10길 13, 1층 (연동)",33.49704,126.5006,정좌표
777742,부가네얼큰이봉개점,"제주특별자치도 제주시 봉개대동6길 41, 1층 (봉개동)",33.48802,126.5941,정좌표
777806,육고깃집노형점,"제주특별자치도 제주시 진군4길 8, 1층 (노형동)",33.47676,126.4801,정좌표
777838,에이프릴,"제주특별자치도 제주시 삼무로9길 30, 1층 (연동, 태원빌라)",33.49115,126.4945,정좌표
777846,홍어일번지,"제주특별자치도 제주시 연오로 31, 1층 (오라삼동)",33.49031,126.502,정좌표
777860,공기,"제주특별자치도 제주시 진남로6길 22-4, 1층 (화북일동)",33.52082,126.5663,정좌표
777896,노형포차,"제주특별자치도 제주시 다랑곶5길 9, 1층 (노형동)",33.48904,126.4801,정좌표
777924,노가리앤비어아라점,"제주특별자치도 제주시 아란9길 6-5, 1층 (아라일동)",33.47291,126.5448,정좌표
777936,2500분식,"제주특별자치도 제주시 구남로7길 36, 상가동 1층 105호 (이도이동, 주공1아파트)",33.49191,126.534,정좌표
777940,식도원,"제주특별자치도 제주시 연삼로 498, 1층 (이도이동)",33.50002,126.543,정좌표
777972,팜스테이블,"제주특별자치도 제주시 수목원길 41, 2층 (연동)",33.46971,126.4894,정좌표
778116,노랑통닭외도점,"제주특별자치도 제주시 우정로11길 13, 1층 (외도일동)",33.48798,126.4324,정좌표
778171,막창먹는놈외도점,"제주특별자치도 제주시 우정로 82, 1층 (외도일동)",33.48547,126.4306,정좌표
778189,한촌설렁탕제주종합운동장점,"제주특별자치도 제주시 오라로 118, 1층 (오라일동)",33.49425,126.5153,정좌표
778233,바우골곱창쭈꾸미제주본점,제주특별자치도 제주시 정존11길 36 (노형동),33.48674,126.4747,정좌표
778259,모토이시제주시청점,"제주특별자치도 제주시 서광로32길 29, 1층 (이도이동)",33.49829,126.5293,정좌표
778331,맛있는온도,"제주특별자치도 제주시 연수로5길 4, 1층 (일도이동)",33.50309,126.5434,정좌표
778356,시드니양갈비,"제주특별자치도 제주시 노형10길 10, 2층 (노형동)",33.48342,126.4781,정좌표
778388,심청이쌈밥,"제주특별자치도 제주시 아란5길 19-12, 1층 (아라일동)",33.47476,126.5447,정좌표
778406,카페온,"제주특별자치도 제주시 다랑곶6길 39, 1층 (노형동)",33.49033,126.4794,정좌표
778439,매콤명태촌,"제주특별자치도 제주시 절물3길 7, 1층 (외도일동)",33.49185,126.4338,정좌표
778445,카페다조천점,"제주특별자치도 제주시 조천읍 신북로 246, 1층",33.53719,126.6386,정좌표
778503,맥파이블루버드,"제주특별자치도 제주시 탑동로2길 7, 1~2층 (삼도이동)",33.51799,126.5234,정좌표
778674,돌수산,"제주특별자치도 제주시 사장길 17, 1층 (연동)",33.48406,126.4958,정좌표
778688,아라연,"제주특별자치도 제주시 조천읍 남조로 1842, 1층",33.43221,126.6737,정좌표
778844,맠,"제주특별자치도 제주시 동문로4길 9, 동문공설시장, 동문공영주차장 지하1층 D-3호 (일도일동)",33.51209,126.5282,정좌표
778924,돌트멍으로드는보름,"제주특별자치도 제주시 조천읍 와흘4길 59-1, 1층",33.50626,126.6311,정좌표
778966,오늘와인한잔제주아라점,"제주특별자치도 제주시 인다2길 36, 아라빌딩 1층 (아라일동)",33.47462,126.5498,정좌표
778974,아맛나찜닭제주점,"제주특별자치도 제주시 신대로20길 22, 1층 (연동)",33.48378,126.4941,정좌표
778978,그랜드키친,"제주특별자치도 제주시 노연로 12, 제주 드림타워 복합리조트 4층 (노형동)",33.48526,126.4815,정좌표
779200,녹나무,"제주특별자치도 제주시 노연로 12, 제주 드림타워 복합리조트 3층 (노형동)",33.48526,126.4815,정좌표
779276,시장밥상,"제주특별자치도 제주시 동문로4길 3, 1층 (일도일동)",33.51263,126.5287,정좌표
779288,무한99부대찌개,"제주특별자치도 제주시 조천읍 함덕26길 11, 1층",33.53882,126.6757,정좌표
779296,크랩팟테우,"제주특별자치도 제주시 테우해안로 106, 1층 (내도동)",33.49793,126.4456,정좌표
779406,유안이네교래점,"제주특별자치도 제주시 조천읍 남조로 2190, 1층",33.46105,126.6615,정좌표
779438,반주야,"제주특별자치도 제주시 건주로3길 19, 1층 102호 (도련일동)",33.51677,126.5814,정좌표
779458,피자알볼로제주외도점,"제주특별자치도 제주시 우정로 81, 1층 (외도일동)",33.48539,126.4311,정좌표
779498,치즈앤브레드,"제주특별자치도 제주시 조천읍 함덕29길 17, 1층",33.54157,126.675,정좌표
779606,우도특별시,"제주특별자치도 제주시 우도면 우도해안길 998, 1층",33.5067,126.967,정좌표
779633,비비큐제주노형점,"제주특별자치도 제주시 달마루길 18, 1층 101호 (노형동)",33.48957,126.4743,정좌표
779662,갤러리라운지,"제주특별자치도 제주시 노연로 12, 제주 드림타워 복합리조트 1층 (노형동)",33.48526,126.4815,정좌표
779666,크로쿠,"제주특별자치도 제주시 동문로4길 9, 동문공설시장, 동문공영주차장 지하1층 D-02호 (일도일동)",33.51209,126.5282,정좌표
779686,부산가야밀면,"제주특별자치도 제주시 중앙로 136, 1층 (삼도이동)",33.50646,126.5249,정좌표
779696,태양전복용담점,제주특별자치도 제주시 용해로 36 (용담삼동),33.51393,126.5024,정좌표
779720,맨도롱18,"제주특별자치도 제주시 조천읍 신촌9길 40-8, 1층",33.5376,126.6237,정좌표
779732,핵밥제주연동점,"제주특별자치도 제주시 도령로 103, 103호 (연동, 연동한일씨티파크)",33.4916,126.4885,정좌표
779802,카페8,"제주특별자치도 제주시 노연로 12, 제주 드림타워 복합리조트 8층 (노형동)",33.48526,126.4815,정좌표
779850,더쉐드,"제주특별자치도 제주시 남광로 17, 1층 (이도이동)",33.49306,126.5378,정좌표
779914,쌈짓골,제주특별자치도 제주시 조천읍 함대로 303,33.51789,126.6598,정좌표
779938,한촌설렁탕노형점,"제주특별자치도 제주시 원노형6길 29, 포럼빌딩 1층 (노형동)",33.4834,126.483,정좌표
779942,오늘은막창먹자,"제주특별자치도 제주시 동고산로 11, 1층 (이도이동)",33.49846,126.5323,정좌표
779972,마지노선,"제주특별자치도 제주시 원당로3길 26, 1층 (삼양일동)",33.52541,126.5877,정좌표
780001,올리다버거,"제주특별자치도 제주시 남성로 154-6, 1~2층 (삼도이동)",33.50875,126.5216,정좌표
780094,차차,"제주특별자치도 제주시 원노형6길 29, 1층 (노형동)",33.4834,126.483,정좌표
780430,브라보,"제주특별자치도 제주시 산지로 19, 1층 (건입동)",33.51523,126.5296,정좌표
780910,만보민물장어,"제주특별자치도 제주시 용두암길 60, 1층 (용담이동)",33.51233,126.5135,정좌표
780928,맨더린,"제주특별자치도 제주시 제원길 41, 5층 (연동)",33.48632,126.4895,정좌표
780934,육십계치킨외도점,"제주특별자치도 제주시 우정로15길 29, 1층 (외도일동)",33.48727,126.4324,정좌표
780957,알라카트,"제주특별자치도 제주시 용화로 63, 1층 (용담이동)",33.50945,126.5104,정좌표
780965,신대장군집,"제주특별자치도 제주시 삼무로 50, 1층 (연동)",33.48964,126.4919,정좌표
780999,청담피자신제주점,"제주특별자치도 제주시 연동4길 6-12, 1층 103호 (연동, 굿윌카운티)",33.49723,126.5008,정좌표
781020,라이라이,"제주특별자치도 제주시 절물3길 4, 1층 (외도일동)",33.49199,126.4335,정좌표
781398,제주각재기,"제주특별자치도 제주시 용해로 55, 1층 (용담이동)",33.51227,126.5031,정좌표
781404,임떡제주시청점,"제주특별자치도 제주시 중앙로 205, 2층 (이도일동)",33.50116,126.529,정좌표
781412,참돈,"제주특별자치도 제주시 월랑로 56, 1층 (노형동)",33.49019,126.4749,정좌표
781426,샤브마니아제주노형점,"제주특별자치도 제주시 한라대학로 25, 1층 (노형동)",33.47922,126.4744,정좌표
781505,석봉이네,"제주특별자치도 제주시 진군4길 30, 1층 (노형동)",33.47678,126.4778,정좌표
781519,금나라포차,"제주특별자치도 제주시 남성로 120, 1층 (삼도일동)",33.50863,126.518,정좌표
781521,그레이베이스,"제주특별자치도 제주시 서해안로 238, 1~2층 (도두일동)",33.50881,126.4715,정좌표
781634,장똘뱅이,"제주특별자치도 제주시 신광로6길 25, 1층 107호 (연동, 제원아파트)",33.48787,126.4868,정좌표
781720,동구미,"제주특별자치도 제주시 조천읍 중산간동로 929, 2층",33.49195,126.6814,정좌표
781836,일품순두부용담점,"제주특별자치도 제주시 용해로 85, 1층 (용담이동)",33.50971,126.5038,정좌표
781907,카페컴피,"제주특별자치도 제주시 조천읍 신북로 481-3, 2층",33.54356,126.6618,정좌표
781957,동근이숯불두마리치킨,"제주특별자치도 제주시 연삼로 12, 1층 101호 (연동, 성남빌라)",33.49346,126.4936,정좌표
781961,기분,"제주특별자치도 제주시 만덕로 9, 1층 (건입동)",33.51587,126.5319,정좌표
781987,유스테이추자,제주특별자치도 제주시 추자면 신양2길 28-12,33.94477,126.3304,정좌표
782007,오늘와인한잔제주외도점,"제주특별자치도 제주시 우령2길 19, 1층 (외도일동)",33.4875,126.4316,정좌표
782028,김정윤양갈비,제주특별자치도 제주시 절물1길 24 (외도일동),33.49068,126.4313,정좌표
782056,스니프,"제주특별자치도 제주시 중앙로 543, 1층 (아라일동)",33.47501,126.5457,정좌표
782113,청년피자신제주점,"제주특별자치도 제주시 원노형8길 6, 1층 102호 (노형동, 상원주택)",33.48538,126.4841,정좌표
782123,회심,"제주특별자치도 제주시 아봉로 200, 1층 (영평동)",33.47841,126.5645,정좌표
782394,임돈,"제주특별자치도 제주시 노연로 103, 1층 105호 (연동, 제주연동리슈빌디에스)",33.48617,126.4914,정좌표
782436,우정곱창연동점,"제주특별자치도 제주시 연화중길 15, 1층 (연동)",33.47754,126.4889,정좌표
782464,노가리앤비어제주화북점,"제주특별자치도 제주시 진동로1길 13, 원진빌딩 1층 (화북일동)",33.5195,126.5655,정좌표
782466,바른치킨외도직영점,"제주특별자치도 제주시 우정로 26, 1층 (외도일동)",33.49052,126.4306,정좌표
782494,피치랑삼화점,"제주특별자치도 제주시 일주동로 326, 1층 (삼양이동)",33.5211,126.5797,정좌표
782504,디온스크린골프제주점,"제주특별자치도 제주시 청사로 77, 동남빌딩 3층 (도남동)",33.49014,126.5272,정좌표
782506,꽃치다,"제주특별자치도 제주시 동문로4길 9, 동문공설시장, 동문공영주차장 지하 1층 A-6호 (일도일동)",33.51209,126.5282,정좌표
782551,그시절동태촌신제주점,"제주특별자치도 제주시 연화로1길 26-1, 1층 (연동)",33.4783,126.4899,정좌표
782571,송촌초밥,제주특별자치도 제주시 태성로4길 1 (일도이동),33.4992,126.5458,인근좌표
782612,톳띠아모,"제주특별자치도 제주시 동문로4길 9, 동문공설시장, 동문공영주차장 지하1층 B-4호 (일도일동)",33.51209,126.5282,정좌표
782651,제주솥밥모락모락,"제주특별자치도 제주시 동문로4길 9, 동문공설시장, 동문공영주차장 지하1층 A-4호 (일도일동)",33.51209,126.5282,정좌표
782749,제주포,"제주특별자치도 제주시 동문로4길 9, 동문공설시장, 동문공영주차장 지하1층 A-8호 (일도일동)",33.51209,126.5282,정좌표
782794,까사디동문,"제주특별자치도 제주시 동문로4길 9, 동문공설시장, 동문공영주차장 지하1층 A-5호 (일도일동)",33.51209,126.5282,정좌표
782894,탐라온,"제주특별자치도 제주시 동문로4길 9, 동문공설시장, 동문공영주차장 지하1층 A-1호 (일도일동)",33.51209,126.5282,정좌표
782927,판다루,"제주특별자치도 제주시 동문로4길 9, 동문공설시장, 동문공영주차장 지하1층 B-1호 (일도일동)",33.51209,126.5282,정좌표
782972,수타코,"제주특별자치도 제주시 동문로4길 9, 동문공설시장, 동문공영주차장 지하1층 B-3호 (일도일동)",33.51209,126.5282,정좌표
783010,유월,"제주특별자치도 제주시 동문로4길 9, 동문공설시장, 동문공영주차장 지하1층 D-1호 (일도일동)",33.51209,126.5282,정좌표
785698,제주보따리,"제주특별자치도 제주시 동문로4길 9, 동문공설시장, 동문공영주차장 지하1층 A-7호 (일도일동)",33.51209,126.5282,정좌표
785767,제주노형흑돼지,"제주특별자치도 제주시 월산북길 46, 1층 (도평동)",33.47576,126.4608,정좌표
785771,포102,"제주특별자치도 제주시 중앙로13길 25-2, 보인빌딩 1층 (일도일동)",33.51165,126.5272,정좌표
785792,맛쟁이정식,"제주특별자치도 제주시 고산동산2길 6, 1층 (이도이동)",33.49661,126.5312,정좌표
785840,역전할머니맥주제주함덕점,"제주특별자치도 제주시 조천읍 신북로 524, 1층",33.54164,126.6656,정좌표
785896,마초면탁해안,"제주특별자치도 제주시 노형로 89, 제주매직월드 2층 (해안동)",33.46494,126.4552,정좌표
786201,남가네설악추어탕도련점,"제주특별자치도 제주시 삼봉로 134, 1층 (도련일동)",33.50954,126.5895,정좌표
786222,솜빡매생이갈비탕,"제주특별자치도 제주시 도공로 26, 1층 (도두일동)",33.50401,126.4655,정좌표
786244,민이네김치찌개,"제주특별자치도 제주시 남광북1길 38, 1층 (이도이동)",33.49626,126.5373,정좌표
786273,함덕술집김씨술생활,"제주특별자치도 제주시 조천읍 함덕19길 7, 3층",33.54111,126.6702,정좌표
786521,와이키키바다,"제주특별자치도 제주시 우도면 우도해안길 744, 1층",33.51847,126.9601,정좌표
786523,제주명월집,"제주특별자치도 제주시 수덕7길 14, 103호 (노형동, 대왕아파트)",33.48681,126.4756,정좌표
786527,두찜외도점,"제주특별자치도 제주시 우정로 52, 1층 (외도일동)",33.4882,126.4307,정좌표
786550,돈돼지국밥연동점,"제주특별자치도 제주시 연동8길 9, 1층 (연동)",33.49659,126.5013,정좌표
786562,감동까스연동점,제주특별자치도 제주시 연동4길 22 (연동),33.49723,126.5008,정좌표
786563,돗깨비,"제주특별자치도 제주시 도리로 62, 1층 (이호일동)",33.49878,126.459,정좌표
786581,착한정육식당,"제주특별자치도 제주시 도련3길 43, 1층 (도련일동)",33.51065,126.586,정좌표
786583,비비큐제주시청점,"제주특별자치도 제주시 서광로 292-1, 1층 (이도이동)",33.50016,126.5277,정좌표
786595,스시혼,"제주특별자치도 제주시 1100로 3191, 1층 (노형동)",33.47146,126.4844,정좌표
787155,다가미삼양점,"제주특별자치도 제주시 선사로8길 22, 1층 (삼양일동)",33.52597,126.5879,정좌표
787201,한데모아정실점,"제주특별자치도 제주시 아연로 182, 1층 (오라이동)",33.47002,126.5092,정좌표
787226,똣똣,"제주특별자치도 제주시 국기로1길 2, 1층 (연동)",33.4807,126.49,정좌표
788138,술고래,제주특별자치도 제주시 추자면 추자로 58,33.96209,126.2938,정좌표
788362,푸짐한밥상,"제주특별자치도 제주시 중앙로 60, 지하층 스넥5,7,9,10,11호 (일도일동)",33.51316,126.5246,정좌표
788758,진냉면,제주특별자치도 제주시 탑동로 38 (삼도이동),33.51798,126.5212,정좌표
789622,태성각,제주특별자치도 제주시 도남로 86 (도남동),33.4929,126.5281,정좌표
789910,명태어장,"제주특별자치도 제주시 조천읍 함대로 16, 1층",33.54251,126.6574,정좌표
790358,뿔소라몽땅,"제주특별자치도 제주시 우도면 우도해안길 130-9, 1층",33.49506,126.9464,정좌표
792278,정원,제주특별자치도 제주시 삼무로 7 (연동),33.49029,126.4876,정좌표
792662,델라,"제주특별자치도 제주시 신대로14길 30 (연동,제동네스트빌 101호)",33.48791,126.4936,정좌표
792694,해돋이,"제주특별자치도 제주시 동문로14길 10 (일도이동,자양주택 102호)",33.51256,126.5331,정좌표
792794,다미진,제주특별자치도 제주시 청귤로3길 42-1 (이도이동),33.50135,126.5418,정좌표
811802,어머니와장독대,제주특별자치도 제주시 아연로 156-9 (오라이동),33.47152,126.5073,정좌표
813594,다소니,"제주특별자치도 제주시 고전길 2, 1층 (이도일동)",33.50632,126.5259,정좌표
813786,최고의밥상,제주특별자치도 제주시 서광로29길 36 (이도일동),33.50331,126.5262,정좌표
814266,돈이랑,"제주특별자치도 제주시 청귤로1길 9, 1층 (이도이동)",33.50013,126.5368,정좌표
865674,비에이치씨제주표선점,제주특별자치도 서귀포시 표선면 표선중앙로 77,33.32644,126.8325,정좌표
865818,감낭집,제주특별자치도 서귀포시 표선면 민속해안로 631-34,33.32205,126.8422,정좌표
865998,표선주막,제주특별자치도 서귀포시 표선면 표선관정로 111,33.32354,126.8318,정좌표
866112,새가름,제주특별자치도 서귀포시 표선면 녹산로 6,33.36154,126.7663,정좌표
866142,장수버섯샤브샤브,"제주특별자치도 서귀포시 표선면 표선중앙로 111, 1층",33.32585,126.8358,정좌표
866214,고향길든솔,제주특별자치도 서귀포시 표선면 성읍이리로 32,33.41319,126.7705,정좌표
866614,당케축산정육식당,"제주특별자치도 서귀포시 표선면 민속해안로 580, 1층",33.32518,126.8438,정좌표
866646,조은님,제주특별자치도 서귀포시 표선면 표선중앙로90번길 4,33.32553,126.8331,정좌표
866654,표선두루치기,"제주특별자치도 서귀포시 표선면 표선동서로 257, 1층",33.3267,126.8332,정좌표
866706,농협은행제주수련원해오름,"제주특별자치도 서귀포시 표선면 일주동로 6337, 지1층",33.30562,126.7948,정좌표
866774,바타타식탁,"제주특별자치도 서귀포시 표선면 표선동서로264번길 22, 2층",33.32714,126.8359,정좌표
868014,금데기식당,제주특별자치도 서귀포시 표선면 표선당포로 19-5,33.32633,126.8441,정좌표
868474,모드락572,제주특별자치도 서귀포시 표선면 가시로 572,33.3543,126.7737,정좌표
868490,탐라흑돈정육식당,제주특별자치도 서귀포시 표선면 번영로 2570,33.40347,126.7804,정좌표
868514,목스키친,"제주특별자치도 서귀포시 표선면 일주동로6455번길 21, 1층",33.30651,126.7837,정좌표
869714,코코티에,"제주특별자치도 서귀포시 표선면 표선당포로 21-3, 1층",33.32646,126.8446,정좌표
871006,새로미김밥,제주특별자치도 서귀포시 표선면 표선동서로 253,33.32642,126.8328,정좌표
871038,부산회센타,제주특별자치도 서귀포시 표선면 표선중앙로90번길 9-2,33.32478,126.8331,정좌표
871042,갤러리&카페 아토,제주특별자치도 서귀포시 표선면 토산중앙로 249,33.32447,126.7676,정좌표
871062,우림가든,제주특별자치도 서귀포시 표선면 표선관정로 77,33.32581,126.8293,정좌표
871066,하노루,제주특별자치도 서귀포시 표선면 민속해안로 537,33.32401,126.8444,정좌표
871126,표선올레식당,제주특별자치도 서귀포시 표선면 표선관정로104번길 6-11,33.32423,126.8304,정좌표
871138,셰프스키친,제주특별자치도 서귀포시 표선면 일주동로 6347-17,33.30581,126.7917,정좌표
871178,소노캄제주비비큐,제주특별자치도 서귀포시 표선면 일주동로 6347-17,33.30581,126.7917,정좌표
871218,수연흥부네,제주특별자치도 서귀포시 표선면 표선동서로 254-13,33.32639,126.8337,정좌표
871230,표선삼다도,제주특별자치도 서귀포시 표선면 표선중앙로96번길 1,33.3255,126.834,정좌표
871254,토촌,제주특별자치도 서귀포시 표선면 표선중앙로 90,33.32563,126.8335,정좌표
871260,토니토니,제주특별자치도 서귀포시 표선면 가시로613번길 47,33.35458,126.7722,정좌표
872092,국수마당,제주특별자치도 서귀포시 표선면 표선중앙로 89,33.32589,126.8335,정좌표
872140,목장원식당바스메,제주특별자치도 서귀포시 표선면 번영로 2524,33.406,126.7766,정좌표
872170,쿡스토리,제주특별자치도 서귀포시 표선면 표선중앙로 34,33.32956,126.8302,정좌표
872270,섭지향 요리하는강태공,"제주특별자치도 서귀포시 표선면 표선동서로 195, 1층",33.32163,126.8303,정좌표
872300,탐라간장게장,제주특별자치도 서귀포시 표선면 표선당포로 10-4,33.32528,126.8437,정좌표
872780,커피가게쉬고가게,제주특별자치도 서귀포시 표선면 민속해안로 593,33.32501,126.8422,정좌표
878732,안동본가국밥,제주특별자치도 서귀포시 월드컵로 18-1 (강정동),33.2483,126.5066,정좌표
879240,흑한우명품관,제주특별자치도 서귀포시 일주동로 8421 (토평동),33.25715,126.5885,정좌표
879427,짱실장돈까스,제주특별자치도 서귀포시 중정로91번길 51-1 (서귀동),33.25144,126.5619,정좌표
879519,돈몽,제주특별자치도 서귀포시 동홍중앙로 29-1 (동홍동),33.25333,126.5716,정좌표
879603,육값하네식육가든,제주특별자치도 서귀포시 남원읍 남조로 141,33.29229,126.722,정좌표
879655,후다닭치킨,제주특별자치도 서귀포시 태평로353번길 3 (서귀동),33.24678,126.5593,정좌표
879659,우솔해장국,제주특별자치도 서귀포시 동홍남로82번길 1 (동홍동),33.2567,126.5771,정좌표
879827,참맛분식,제주특별자치도 서귀포시 천제연로 213 (중문동),33.25166,126.4275,정좌표
880031,발라르,제주특별자치도 서귀포시 칠십리로 39 (서귀동),33.24114,126.5616,정좌표
880051,수마포국수,제주특별자치도 서귀포시 성산읍 일출로 258-13,33.46114,126.9344,정좌표
880155,오렌지가든,제주특별자치도 서귀포시 천제연로 292 (대포동),33.25092,126.4374,정좌표
880159,흙집사랑,제주특별자치도 서귀포시 중앙로150번길 72 (동홍동),33.26375,126.5621,정좌표
880174,제주민족,"제주특별자치도 서귀포시 성산읍 고성중앙로46번길 12, 1층",33.44753,126.9085,정좌표
880264,하찌,제주특별자치도 서귀포시 호근남로 180 (호근동),33.24524,126.5371,정좌표
880390,제주로운,"제주특별자치도 서귀포시 성산읍 신양로 101, 2층",33.43675,126.9206,정좌표
883192,강정해녀의집,"제주특별자치도 서귀포시 말질로 270, 1층 (강정동)",33.2293,126.4759,정좌표
883234,날로먹고회로먹고,제주특별자치도 서귀포시 동홍중앙로52번길 28 (동홍동),33.25523,126.5751,정좌표
883267,이태리치킨법환본점,"제주특별자치도 서귀포시 이어도로 932, 1층 (법환동)",33.23802,126.5141,정좌표
883306,괸당집성산점,제주특별자치도 서귀포시 성산읍 고성오조로 80,33.45089,126.9147,정좌표
884194,신영음식점,제주특별자치도 서귀포시 중앙로71번길 4 (서귀동),33.25104,126.5608,정좌표
884242,제주명가두루치기,제주특별자치도 서귀포시 태평로 495 (동홍동),33.24958,126.571,정좌표
899338,동서네해장국,제주특별자치도 서귀포시 성산읍 고성동서로 11,33.44986,126.9083,정좌표
899350,만조이천쌀밥,"제주특별자치도 서귀포시 성산읍 성산중앙로 5, 1층",33.46094,126.9313,정좌표
899590,솔왓동산식당,"제주특별자치도 서귀포시 호근남로 16-4, 1층 (호근동)",33.25601,126.5278,정좌표
899605,제주약수터,"제주특별자치도 서귀포시 중앙로 35, 1층 (서귀동)",33.24778,126.5616,정좌표
900976,찰리스,"제주특별자치도 서귀포시 예래로 454, 1,2층 (하예동)",33.23537,126.3696,정좌표
901843,배터지는생동까스서귀포점,제주특별자치도 서귀포시 문부로 12 (동홍동),33.25192,126.5692,정좌표
901846,원두막,제주특별자치도 서귀포시 중정로91번길 30 (서귀동),33.25044,126.564,정좌표
902230,남원골감나무집,제주특별자치도 서귀포시 남원읍 태위로 707,33.28002,126.7219,정좌표
902323,대동강초계탕중문점,제주특별자치도 서귀포시 1100로 38 (중문동),33.25395,126.434,정좌표
902341,천외천,제주특별자치도 서귀포시 문부로 6 (동홍동),33.25195,126.5685,정좌표
902374,바삭치킨,제주특별자치도 서귀포시 동홍로 19 (서귀동),33.25032,126.5676,정좌표
902563,갈비시대,제주특별자치도 서귀포시 남원읍 한신로 189-3,33.31014,126.7112,정좌표
902581,춘천명동닭갈비중문점,제주특별자치도 서귀포시 중문로 3 (중문동),33.25215,126.4231,정좌표
902656,야간학교,제주특별자치도 서귀포시 일주동로 8578 (동홍동),33.25504,126.5716,정좌표
902695,바다밥상,제주특별자치도 서귀포시 천지연로 16 (서귀동),33.24186,126.5646,정좌표
902848,남매네흑돼지,제주특별자치도 서귀포시 중정로61번길 24-1 (서귀동),33.25004,126.5628,정좌표
903998,견우감자탕,제주특별자치도 서귀포시 중앙로 198-26 (동홍동),33.26192,126.5618,정좌표
904004,정인이네식당,제주특별자치도 서귀포시 천제연로188번길 12 (중문동),33.25083,126.4239,정좌표
904016,밥의정석,제주특별자치도 서귀포시 중앙로 198-26 (동홍동),33.26192,126.5618,정좌표
904148,청원나들목맛집,제주특별자치도 서귀포시 서문로29번길 37 (서귀동),33.24715,126.56,정좌표
904176,경미네집,제주특별자치도 서귀포시 성산읍 일출로 259,33.46124,126.9335,정좌표
905474,옥돔마을,제주특별자치도 서귀포시 남원읍 남태해안로 509,33.28757,126.7495,정좌표
905582,이어도해물전문점,제주특별자치도 서귀포시 태평로 485 (동홍동),33.24901,126.5703,정좌표
905747,농원백숙,제주특별자치도 서귀포시 성산읍 서성일로 1224,33.4464,126.9092,정좌표
905783,놀멍쉬멍머그멍,제주특별자치도 서귀포시 천제연로 132 (중문동),33.25268,126.4184,정좌표
905975,내담,제주특별자치도 서귀포시 신동로 33 (서호동),33.25155,126.5126,정좌표
906053,팔팔아나고장어구이,제주특별자치도 서귀포시 태평로 464 (서귀동),33.2474,126.5688,정좌표
906059,왕돌식당,"제주특별자치도 서귀포시 이어도로 668, 1층 (강정동)",33.23374,126.4875,정좌표
906092,성산스튜디오,"제주특별자치도 서귀포시 성산읍 섭지코지로25번길 64, 1층",33.44451,126.9191,정좌표
906206,하원가흑돼지,"제주특별자치도 서귀포시 이어도로 278, 1층 (하원동)",33.2427,126.4488,정좌표
906681,성산갯마을,"제주특별자치도 서귀포시 성산읍 한도로 66, 1층",33.4676,126.9156,정좌표
907275,앤그리고,"제주특별자치도 서귀포시 이중섭로 11, 1층 110호 (서귀동)",33.24708,126.5645,정좌표
907301,바다를본돼지,"제주특별자치도 서귀포시 칠십리로 123, 2층 (서귀동)",33.24307,126.5676,정좌표
907838,성산플로우,제주특별자치도 서귀포시 성산읍 일출로 242-1,33.46051,126.9317,정좌표
913230,노네임,"제주특별자치도 서귀포시 이중섭로 11, 삼일아트리움 1층 102호 (서귀동)",33.24708,126.5645,정좌표
913246,오른발왼발서귀포점,"제주특별자치도 서귀포시 이중섭로 11, 삼일아트리움 1층 108호 (서귀동)",33.24708,126.5645,정좌표
913252,고기땡기네,"제주특별자치도 서귀포시 이중섭로 11, 삼일아트리움 1층 106호 (서귀동)",33.24708,126.5645,정좌표
913275,통큰낙지서귀포점,"제주특별자치도 서귀포시 이중섭로 11, 삼일아트리움 1층 104~105호 (서귀동)",33.24708,126.5645,정좌표
913571,섬사람,"제주특별자치도 서귀포시 김정문화로 52, 민우상가 3호 (법환동)",33.25096,126.5101,정좌표
913723,이디야서귀포동홍점,"제주특별자치도 서귀포시 동홍동로 9, 1층 (동홍동)",33.25569,126.5747,정좌표
913772,성산짬뽕,"제주특별자치도 서귀포시 성산읍 성산중앙로25번길 13, 1층",33.46296,126.9316,정좌표
914104,투하포,"제주특별자치도 서귀포시 이중섭로 11, 2층 206호 (서귀동)",33.24708,126.5645,정좌표
914135,성산해나,제주특별자치도 서귀포시 성산읍 성산중앙로 30-1,33.46251,126.9329,정좌표
914389,성산간판없는집,"제주특별자치도 서귀포시 성산읍 성산중앙로25번길 13, 1층",33.46296,126.9316,정좌표
914441,한라막창,제주특별자치도 서귀포시 태평로 406 (서귀동),33.2445,126.5636,정좌표
914451,비스트로가가,제주특별자치도 서귀포시 색달로 128 (색달동),33.26185,126.4169,정좌표
914455,서울야시장,"제주특별자치도 서귀포시 성산읍 일주동로 5113-1, 주희망교회",33.38027,126.8764,정좌표
914515,허니문하우스,"제주특별자치도 서귀포시 칠십리로 228-13, 1층 (토평동)",33.24475,126.5789,정좌표
929833,바른치킨(서귀포월드컵점),"제주특별자치도 서귀포시 선반로65번길 71, 1층 (강정동)",33.23669,126.496,정좌표
929847,모이세해장국중앙점,"제주특별자치도 서귀포시 일주동로 8642, 1층 (동홍동)",33.2544,126.5651,정좌표
930119,성산촌뚝배기,"제주특별자치도 서귀포시 성산읍 일출로 238-1, 1층",33.46024,126.9315,정좌표
930179,딱새우701(숨비소리),제주특별자치도 서귀포시 월드컵로 192 (강정동),33.23278,126.5059,정좌표
930348,통통갈치밥상,"제주특별자치도 서귀포시 성산읍 성산등용로 17, 1층",33.46521,126.9325,정좌표
930518,우정곱창서귀포점,제주특별자치도 서귀포시 동홍남로 61 (동홍동),33.25704,126.5751,정좌표
930562,인정,"제주특별자치도 서귀포시 성산읍 고성동서로 67, 1층",33.45078,126.9143,정좌표
930626,오로지,"제주특별자치도 서귀포시 토평남로99번길 14, 1층 (토평동)",33.26766,126.5879,정좌표
930632,새터우동이랑충무김밥,제주특별자치도 서귀포시 태평로439번길 24 (서귀동),33.24674,126.5647,정좌표
930650,서가앤쿡서귀포시토평점,"제주특별자치도 서귀포시 검은여로 191, 1층 (토평동)",33.25811,126.5859,정좌표
930706,채우네소머리국밥,제주특별자치도 서귀포시 중앙로48번길 29 (서귀동),33.24964,126.5647,정좌표
930726,밥통,제주특별자치도 서귀포시 남원읍 태위로 907,33.28548,126.7424,정좌표
930873,내가진짜떡볶이다서귀포점,"제주특별자치도 서귀포시 이중섭로 11, 2층 219호 (서귀동)",33.24708,126.5645,정좌표
930883,탐나식당,제주특별자치도 서귀포시 중앙로 196 (동홍동),33.26201,126.5591,정좌표
930905,불특정식당,"제주특별자치도 서귀포시 성산읍 삼달로 239, 1층",33.37533,126.8446,정좌표
932821,에스지중문,"제주특별자치도 서귀포시 천제연로 200, 3층 (중문동)",33.25151,126.4261,정좌표
932823,바당회,"제주특별자치도 서귀포시 새왓로 6, 1층 101호 (서호동, 수림빌)",33.25465,126.521,정좌표
932844,돌돌이숯불갈비법환점,제주특별자치도 서귀포시 이어도로 933 (법환동),33.23844,126.5139,정좌표
932880,해월일식,제주특별자치도 서귀포시 동홍중앙로 88 (동홍동),33.25844,126.5723,정좌표
932900,천향각,"제주특별자치도 서귀포시 이중섭로 11, 삼일아트리움 2층 208호 (서귀동)",33.24708,126.5645,정좌표
932910,달달한밤,"제주특별자치도 서귀포시 성산읍 고성동서로 67, 2층",33.45078,126.9143,정좌표
932930,60계치킨성산점,"제주특별자치도 서귀포시 성산읍 고성동서로56번길 2, 1층",33.45029,126.9132,정좌표
933062,북촌삼대갈비동홍올레점,제주특별자치도 서귀포시 동홍북로 68 (동홍동),33.25864,126.5756,정좌표
933070,한결식당,"제주특별자치도 서귀포시 남원읍 하신로 178-28, 1층",33.26926,126.6321,정좌표
933074,토대력중문점,제주특별자치도 서귀포시 천제연로 172 (중문동),33.25153,126.4228,정좌표
933086,봄봄516점,제주특별자치도 서귀포시 516로 202 (토평동),33.27107,126.5857,정좌표
933109,샤오츠,"제주특별자치도 서귀포시 성산읍 동류암로 20, B동 1층",33.45001,126.9186,정좌표
933463,소원김밥,제주특별자치도 서귀포시 쇠소깍로 160 (하효동),33.25091,126.6208,정좌표
933508,삼성혈해물탕서귀포점,"제주특별자치도 서귀포시 서호남로32번길 31-1, 1층 (서호동)",33.24881,126.5142,정좌표
933586,준이순대국밥,제주특별자치도 서귀포시 남원읍 남위남성로 10-2,33.28301,126.7079,정좌표
933596,김치찜할래??삼겹살할래??,"제주특별자치도 서귀포시 태평로 487, 1층 (동홍동)",33.2491,126.5704,정좌표
933636,주구장창,제주특별자치도 서귀포시 중앙로89번길 2 (서귀동),33.25258,126.5603,정좌표
933646,서양국수공방,제주특별자치도 서귀포시 태평로371번길 32 (서귀동),33.24577,126.5639,정좌표
933671,현가네정식,제주특별자치도 서귀포시 중앙로71번길 7 (서귀동),33.25072,126.5607,정좌표
933703,영실국수서귀포중문본점,제주특별자치도 서귀포시 일주서로 470 (하원동),33.25443,126.4584,정좌표
934136,청주본가,"제주특별자치도 서귀포시 홍중로 11, 1층 (서홍동)",33.25396,126.5587,정좌표
934156,그디가게,"제주특별자치도 서귀포시 성산읍 고성동서로 54, 2층",33.45027,126.9129,정좌표
934160,알맞은시간,"제주특별자치도 서귀포시 남원읍 신흥앞동산로35번길 2-1, 1,2층",33.30651,126.7691,정좌표
934440,왕성참숯구이,제주특별자치도 서귀포시 성산읍 고성오조로 98-3,33.4524,126.9143,정좌표
934976,미소단밥,제주특별자치도 서귀포시 성산읍 고성동서로45번길 2,33.45065,126.9124,정좌표
935048,징차이짜장성산점,제주특별자치도 서귀포시 성산읍 고성오조로 19,33.44575,126.9138,정좌표
935140,어부피자,제주특별자치도 서귀포시 성산읍 서성일로 1078-14,33.44332,126.8926,정좌표
935376,아담의갈비,제주특별자치도 서귀포시 김정문화로27번길 9-5 (강정동),33.25246,126.5072,정좌표
935430,신양로118,제주특별자치도 서귀포시 성산읍 신양로 118,33.43632,126.9222,정좌표
935502,마돈,제주특별자치도 서귀포시 성산읍 섭지코지로 56,33.43748,126.9218,정좌표
936014,큰집어멍,제주특별자치도 서귀포시 중문관광로 336 (대포동),33.25003,126.4315,정좌표
936236,동그라미가든,제주특별자치도 서귀포시 1100로 217 (회수동),33.26643,126.4459,정좌표
936272,중문착한고기,제주특별자치도 서귀포시 천제연로188번길 2 (중문동),33.25158,126.4245,정좌표
936314,꽃피는산골,제주특별자치도 서귀포시 동홍중앙로 35 (동홍동),33.25379,126.5717,정좌표
936512,제주흑돈세상수라간,제주특별자치도 서귀포시 중산간동로 8051 (서홍동),33.26399,126.5567,정좌표
936764,부가네얼큰이서홍점,제주특별자치도 서귀포시 중앙로 159-2 (서홍동),33.25888,126.5595,정좌표
936768,메로식당,제주특별자치도 서귀포시 중정로91번길 16 (서귀동),33.24966,126.5653,정좌표
936786,태경식당,제주특별자치도 서귀포시 남원읍 남조로 578,33.32874,126.7128,정좌표
936796,체얌,제주특별자치도 서귀포시 일주동로 8705 (서귀동),33.25257,126.5585,정좌표
936814,바당아나고장어구이,제주특별자치도 서귀포시 솔동산로22번길 16 (서귀동),33.24376,126.5626,정좌표
936830,순정이네,제주특별자치도 서귀포시 성산읍 고성오조로 87-18,33.45144,126.9133,정좌표
936858,죠스떡볶이제주중문점,제주특별자치도 서귀포시 천제연로 239 (중문동),33.25197,126.4306,정좌표
936924,송가네흑돼지,제주특별자치도 서귀포시 중앙로150번길 70 (동홍동),33.26359,126.5622,정좌표
936932,소소한밥상,제주특별자치도 서귀포시 일주동로 8600 (동홍동),33.25494,126.5693,정좌표
936934,커리하우스,제주특별자치도 서귀포시 동문동로53번길 13 (서귀동),33.25176,126.5619,정좌표
936974,오델로남원점,"제주특별자치도 서귀포시 남원읍 남한로 3, 1층",33.27918,126.7179,정좌표
936986,중문불광회센타,제주특별자치도 서귀포시 중문로 11 (중문동),33.25302,126.4232,정좌표
937090,명륜진사갈비서귀포점,제주특별자치도 서귀포시 명동로 4 (서귀동),33.24687,126.5625,정좌표
937148,새서울두루치기,제주특별자치도 서귀포시 태평로 406 (서귀동),33.2445,126.5636,정좌표
937300,한그릇,제주특별자치도 서귀포시 중문관광로 7 (색달동),33.25726,126.4154,정좌표
937354,옛날국수집,"제주특별자치도 서귀포시 성산읍 온평애향로 2, 1층",33.40723,126.8976,정좌표
937418,탐라밸리,제주특별자치도 서귀포시 서호중앙로 85-13 (서호동),33.25493,126.5182,정좌표
937452,아리랑밀면,"제주특별자치도 서귀포시 서홍로 29, 1층 (서홍동)",33.25056,126.5532,정좌표
937466,국수냐국밥이냐,제주특별자치도 서귀포시 김정문화로 39 (법환동),33.25165,126.509,정좌표
937546,몬스테라자구리점,"제주특별자치도 서귀포시 소암로12번길 7, 1층 (서귀동)",33.24429,126.5672,정좌표
937666,미향해장국효돈점,제주특별자치도 서귀포시 효돈로 11 (신효동),33.2609,126.6006,정좌표
937730,제주바다애,제주특별자치도 서귀포시 신서로 44 (강정동),33.25388,126.5052,정좌표
937748,의정부,제주특별자치도 서귀포시 서문로 15 (서귀동),33.25124,126.5597,정좌표
937838,나능이능이버섯백숙(중문점),제주특별자치도 서귀포시 소보리당로164번길 83 (상예동),33.2661,126.3835,정좌표
937840,모녀의부엌,"제주특별자치도 서귀포시 516로 472, 상효상회 (상효동)",33.29331,126.5949,정좌표
937998,포트그릴스테이크하우스,"제주특별자치도 서귀포시 솔동산로10번길 48, 1층 (서귀동)",33.24056,126.5622,정좌표
938508,텐저린,제주특별자치도 서귀포시 이어도로 880 (법환동),33.23628,126.5087,정좌표
952092,벨라위미,"제주특별자치도 서귀포시 남원읍 태위로151번길 14-14, 1층",33.27646,126.6655,정좌표
952238,유명한정식,제주특별자치도 서귀포시 중앙로150번길 49 (동홍동),33.2617,126.562,정좌표
952250,자연스러운식당,"제주특별자치도 서귀포시 태평로92번길 8, 1층 (호근동)",33.24342,126.5326,정좌표
953470,헬스케어차이나타운,제주특별자치도 서귀포시 동홍로 332 (토평동),33.27712,126.5668,정좌표
953550,토계촌,제주특별자치도 서귀포시 일주동로 8884 (호근동),33.25495,126.5399,정좌표
953670,모루쿠다,"제주특별자치도 서귀포시 동홍중앙로90번길 48, 1층 (동홍동)",33.25808,126.5772,정좌표
953726,가르텐동홍점,제주특별자치도 서귀포시 동홍중앙로 51 (동홍동),33.25518,126.5719,정좌표
953728,탐나돈정육점식당,제주특별자치도 서귀포시 중문관광로 321 (중문동),33.24899,126.43,정좌표
955212,흑돼지구이집하영,제주특별자치도 서귀포시 천제연로 101 (색달동),33.25513,126.4165,정좌표
956604,어리석은물고기,제주특별자치도 서귀포시 남원읍 태위로 148,33.27493,126.6632,정좌표
956618,차칸삼춘,제주특별자치도 서귀포시 성산읍 성산중앙로 38-2,33.46309,126.9334,정좌표
956710,뚱돼지,제주특별자치도 서귀포시 천제연로188번길 15 (중문동),33.25055,126.4245,정좌표
956732,복자씨연탄구이,제주특별자치도 서귀포시 성산읍 해맞이해안로 2764,33.46917,126.9198,정좌표
960612,달맞지,제주특별자치도 서귀포시 명동로 53 (서귀동),33.24826,126.5674,정좌표
960618,고깃집,제주특별자치도 서귀포시 신서귀로51번길 15 (법환동),33.25391,126.5098,정좌표
960690,더디퍼,"제주특별자치도 서귀포시 서호남로32번길 28, 1층 (서호동)",33.24878,126.5147,정좌표
960762,30년할매닭발중문점,"제주특별자치도 서귀포시 천제연로 169, 1층 (중문동)",33.25206,126.4228,정좌표
960812,녹두밭,"제주특별자치도 서귀포시 중앙로 50, 1층 (서귀동)",33.24911,126.5618,정좌표
960856,홍익샤모니리조트,"제주특별자치도 서귀포시 중산간서로 68, 샤모니리조트 1층 (강정동)",33.26344,126.504,정좌표
960970,뉴남원분식,"제주특별자치도 서귀포시 남원읍 태위로679번길 2, 1층",33.2793,126.7192,정좌표
961022,중문색달통갈치,"제주특별자치도 서귀포시 일주서로 993, 1층 101호 (색달동)",33.25836,126.4045,정좌표
962948,어반정글,제주특별자치도 서귀포시 성산읍 신고로22번길 39,33.43683,126.9212,정좌표
963594,섬돼지,"제주특별자치도 서귀포시 신동로 25, 1층 (서호동)",33.25073,126.5125,정좌표
963750,봄그리고가을리조트소반,"제주특별자치도 서귀포시 성산읍 해맞이해안로 2660, 봄그리고가을리조트 1층",33.474,126.9107,정좌표
964078,제주제일밀면,"제주특별자치도 서귀포시 중앙로150번길 23, 1층 (동홍동)",33.25956,126.5617,정좌표
964110,일품순두부신시가지점,"제주특별자치도 서귀포시 서호남로32번길 31, 1층 (서호동)",33.24866,126.5142,정좌표
964396,하이데어키친,"제주특별자치도 서귀포시 서호호근로96번길 14, 1층 (서호동)",33.25537,126.5257,정좌표
964960,위미장가네닭곰탕,"제주특별자치도 서귀포시 남원읍 태위로 93, 1층",33.27466,126.6574,정좌표
965004,팔천순대&카페,"제주특별자치도 서귀포시 성산읍 성산등용로 78, 1층",33.46889,126.9292,정좌표
965116,썬샤인코스트,제주특별자치도 서귀포시 남성로 116 (서홍동),33.24204,126.5528,정좌표
965138,하루세끼,"제주특별자치도 서귀포시 색달중앙로 38, 지1층 (색달동)",33.25857,126.414,정좌표
965152,자연샤브,"제주특별자치도 서귀포시 동홍로 188, 1층 (동홍동)",33.26521,126.5682,정좌표
965494,송정식당,제주특별자치도 서귀포시 중앙로41번길 16 (서귀동),33.24801,126.5599,정좌표
965576,시실리,"제주특별자치도 서귀포시 대청로25번길 6-3, 102호 (강정동)",33.25307,126.503,정좌표
965584,그대가사는시간,제주특별자치도 서귀포시 칠십리로 288 (토평동),33.24789,126.5833,정좌표
965622,고향숯불막창,"제주특별자치도 서귀포시 동홍중앙로52번길 5, 1층 (동홍동)",33.25545,126.5726,정좌표
965630,올레메밀치킨,제주특별자치도 서귀포시 중앙로48번길 17-1 (서귀동),33.24943,126.5635,정좌표
965966,동선제면가,"제주특별자치도 서귀포시 남원읍 태위로 3, 1층",33.27198,126.6485,정좌표
966484,어디가맨성산점,"제주특별자치도 서귀포시 성산읍 고성오조로 4, 1층",33.44417,126.9133,정좌표
966564,소낭집,"제주특별자치도 서귀포시 막숙포로37번길 12, 1층 (법환동)",33.23817,126.5164,정좌표
967324,현아네흑돼지돈가스,"제주특별자치도 서귀포시 남원읍 위미중앙로 187, 1층",33.27355,126.6631,정좌표
967370,쉬어갓,"제주특별자치도 서귀포시 성산읍 일주동로 5023, 1층",33.38609,126.8823,정좌표
968106,원보뷔페본점,제주특별자치도 서귀포시 516로 204 (토평동),33.27137,126.5858,정좌표
968204,11:11,제주특별자치도 서귀포시 홍중동로 9 (서홍동),33.2571,126.5593,정좌표
968320,통발,"제주특별자치도 서귀포시 성산읍 일출로 258-15, 2층",33.46097,126.9341,정좌표
968468,포커스,"제주특별자치도 서귀포시 예래로 223-7, 1층 (하예동)",33.24382,126.3892,정좌표
969328,와우카식,제주특별자치도 서귀포시 태평로 562 (동홍동),33.25351,126.5764,정좌표
969344,누구나홀딱반한닭제주성산점,제주특별자치도 서귀포시 성산읍 일주동로 4236,33.4505,126.9117,정좌표
969492,뻘떡낙지서귀포점,제주특별자치도 서귀포시 이어도로 1059 (서호동),33.2463,126.5235,정좌표
969632,부에난소라하효마을,"제주특별자치도 서귀포시 쇠소깍로 151-7, 2층 (하효동)",33.25032,126.6209,정좌표
969650,천돈가중문본점,"제주특별자치도 서귀포시 일주서로 873, 1층 (색달동)",33.25805,126.4174,정좌표
972132,범섬화덕,제주특별자치도 서귀포시 월드컵로 161-1 (강정동),33.23532,126.5069,정좌표
972242,잔디공장,제주특별자치도 서귀포시 성산읍 일주동로5154번길 5,33.37751,126.8733,정좌표
972506,오병이어,"제주특별자치도 서귀포시 월드컵로 161-1, 2층 (강정동)",33.23532,126.5069,정좌표
972652,칸스,"제주특별자치도 서귀포시 중정로61번길 20, 5호 (서귀동)",33.24957,126.5629,정좌표
975020,보래식탁,제주특별자치도 서귀포시 이어도로 766 (강정동),33.23594,126.4971,정좌표
975100,아뎅,"제주특별자치도 서귀포시 중앙로71번길 12, 1층 (서귀동)",33.25073,126.56,정좌표
975136,비에이치씨제주동홍점,"제주특별자치도 서귀포시 동홍동로 27, 5,6호 (동홍동)",33.25754,126.5747,정좌표
975172,일차돌제주성산점,제주특별자치도 서귀포시 성산읍 고성오조로 87-8,33.45156,126.9139,정좌표
975256,동동차이나남원점,"제주특별자치도 서귀포시 남원읍 태위로689번길 7, 1층 104호",33.28004,126.7198,정좌표
975262,꼬란,"제주특별자치도 서귀포시 동문동로 2, 1층 (서귀동)",33.24962,126.5676,정좌표
975396,비비큐올리브치킨제주동홍점,"제주특별자치도 서귀포시 동홍동로26번길 6, 1층 (동홍동)",33.2572,126.5755,정좌표
975410,오또도넛,제주특별자치도 서귀포시 중문상로 87 (중문동),33.25593,126.4273,정좌표
976096,흑돼지스토리,"제주특별자치도 서귀포시 남원읍 태위로 94-37, 1층",33.27435,126.659,정좌표